stationIndex	name	address	lon	lat	desc
101	(구)합정동 주민센터	서울특별시 마포구 동교로8길 58	126.905754	37.549561	-
102	망원역 1번출구 앞	서울특별시 마포구 월드컵로 72	126.910454	37.556	-
103	망원역 2번출구 앞	서울특별시 마포구 월드컵로 79	126.910835	37.554951	-
104	합정역 1번출구 앞	서울특별시 마포구 양화로 59	126.914986	37.550629	-
105	합정역 5번출구 앞	서울특별시 마포구 양화로 48	126.914825	37.550007	-
106	합정역 7번출구 앞	서울특별시 마포구 독막로 4	126.912827	37.548645	-
107	신한은행 서교동금융센터점 앞	서울특별시 마포구 월드컵북로 35	126.918503	37.55751	-
108	서교동 사거리	서울특별시 마포구 양화로 93	126.918617	37.552746	-
109	제일빌딩 앞	서울특별시 마포구 어울마당로 26	126.919983	37.547691	-
110	사천교	서울특별시 서대문구 홍제천로 11	126.917847	37.568199	-
111	상수역 2번출구 앞	서울특별시 마포구 와우산로 40	126.923531	37.547871	-
112	극동방송국 앞	서울특별시 마포구 와우산로 56	126.923203	37.549202	-
113	홍대입구역 2번출구 앞	서울특별시 마포구 양화로 165	126.923805	37.557499	-
114	홍대입구역 8번출구 앞	서울특별시 마포구 양화로18길 3	126.924423	37.55706	-
115	사루비아 빌딩 앞	서울특별시 서대문구 연희로 6	126.927116	37.558933	-
116	일진아이윌아파트 옆	서울특별시 서대문구 동교로 290	126.927071	37.564541	-
117	홍은사거리	서울특별시 서대문구 통일로 483	126.94133	37.59116	-
118	광흥창역 2번출구 앞	서울특별시 마포구 독막로 지하165	126.931763	37.547733	-
119	서강나루 공원	서울특별시 마포구 창전로 30	126.931053	37.545284	-
120	신수동 사거리	서울특별시 마포구 토정로 211	126.934113	37.545242	-
121	마포소방서 앞	서울특별시 마포구 창전로 76	126.933174	37.549767	-
122	신성기사식당 앞	서울특별시 마포구 독막로 223-1	126.939293	37.547249	-
123	문화촌 공원	서울특별시 서대문구 홍제동 277-23	126.947388	37.59433	-
124	서강대 정문 건너편	서울특별시 마포구 서강로16길 72	126.936989	37.55114	-
125	서강대 남문 옆	서울특별시 마포구 백범로 35	126.93895	37.549484	-
126	서강대 후문 옆	서울특별시 마포구 대흥로 122	126.943848	37.550411	-
127	현대벤처빌 앞	서울특별시 마포구 백범로 10	126.936951	37.55352	-
128	신촌역(2호선) 1번출구 옆	서울특별시 서대문구 연세로 3-5	126.93634	37.555496	-
129	신촌역(2호선) 6번출구 옆	서울특별시 마포구 신촌로 106	126.937569	37.555054	-
130	신촌역(2호선) 7번출구 앞	서울특별시 마포구 신촌로 94	126.936157	37.554859	-
131	증산2교	서울특별시 서대문구 증가로 264	126.911102	37.584171	-
132	창천문화공원	서울특별시 서대문구 연세로5나길 19	126.935883	37.556789	-
133	해담는다리	서울특별시 서대문구 불광천길 150	126.908997	37.582031	-
134	연세로 명물길	서울특별시 서대문구 명물길 33	126.93808	37.557892	-
135	명물길 원형무대 앞	서울특별시 서대문구 명물길 33	126.939178	37.559101	-
136	대흥동 주민센터	서울특별시 마포구 신촌로26길 10	126.942451	37.555691	-
137	NH농협 신촌지점 앞	서울특별시 서대문구 연세로2다길 58	126.943184	37.556812	-
138	신촌동 제1공영주차장 앞	서울특별시 서대문구 증가로 264	126.934525	37.559177	-
139	연세대 정문 건너편	서울특별시 서대문구 연세로 42	126.934479	37.559795	-
140	이화여대 후문	서울특별시 서대문구 연세로 50-1	126.940735	37.560009	-
141	연대 대운동장 옆	서울특별시 서대문구 연세로 50	126.932648	37.562382	-
142	아현역 4번출구 앞	서울특별시 마포구 아현동 329-15	126.955666	37.557201	-
143	공덕역 2번출구	서울특별시 마포구 공덕동 257-88	126.950218	37.544579	-
144	공덕역 8번출구	서울특별시 마포구 공덕동 438-5	126.951324	37.543579	-
145	공덕역 5번출구	서울특별시 마포구 공덕동 237-9	126.951637	37.54425	-
146	마포역 1번출구 뒤	서울특별시 마포구 도화동 555-2	126.945824	37.539936	-
147	마포역 4번출구 뒤	서울특별시 마포구 도화동 292-29	126.945915	37.539272	-
148	용강동 주민센터 앞	서울특별시 마포구 용강동 234-1	126.943024	37.542347	-
150	서강대역 2번출구 앞	서울특별시 마포구 노고산동 112-13	126.934341	37.552956	-
151	망원1동주민센터	서울특별시 마포구 망원동 403-2	126.905548	37.555687	-
152	마포구민체육센터 앞	서울특별시 마포구 망원동 452-4	126.898018	37.55661	-
153	성산2교 사거리	서울특별시 마포구 성산동 54-17	126.912613	37.564697	-
154	마포구청역	서울특별시 마포구 망원동 477-23	126.905495	37.560909	-
155	가좌역1 번출구 뒤	서울특별시 마포구 성산동123-29	126.914513	37.56855	-
156	서울서부지방법원 앞	서울특별시 마포구 공덕동 105-11	126.955147	37.549904	-
157	애오개역 4번출구 앞	서울특별시 마포구 아현동 607-1	126.956688	37.553001	-
158	독립문 어린이 공원	서울특별시 서대문구 영천동 259-1	126.96048	37.571259	-
159	이대역 4번 출구	서울특별시 서대문구 대현동 60-11	126.946342	37.556953	-
160	북아현동 가구거리	서울특별시 서대문구 북아현동 251-78	126.959381	37.557549	-
161	무악재역1번 출구	서울특별시 서대문구 통일로 380-4	126.950645	37.582245	-
162	봉원고가차도 밑	서울특별시 서대문구 대신동 143-1	126.946243	37.565269	-
163	명지전문대학교 정문 앞	서울특별시 서대문구 홍은동 산25-3	126.924965	37.583698	-
164	북가좌1동 주민센터	서울특별시 서대문구 북가좌동 477-1	126.910049	37.574478	-
165	중앙근린공원	서울특별시 서대문구 북가좌동 470-1	126.91394	37.575138	-
166	가재울 초등학교	서울특별시 서대문구 연희동 530	126.919678	37.573277	-
167	연가초등학교 옆	서울특별시 서대문구 북가좌동 70-119	126.91713	37.57946	-
168	남가좌동 사거리	서울특별시 서대문구 남가좌동 185-21	126.918053	37.574821	-
169	북가좌 삼거리	서울특별시 서대문구 북가좌동 400	126.907799	37.573002	-
170	가재울 뉴타운 주유소 옆	서울특별시 서대문구 남가좌동 124	126.922447	37.573112	-
171	임광빌딩 앞	서울특별시 서대문구 미근동 317-1	126.969254	37.562134	-
172	서대문소방서	서울특별시 서대문구 연희로 182	126.935722	37.573254	-
173	서대문역 8번출구 앞	서울특별시 서대문구 충정로2가 138	126.966148	37.564777	-
174	명지대학교 학생회관	서울특별시 서대문구 거북골로 34	126.923447	37.580589	-
175	홍연2교옆	서울특별시 서대문구 홍은동 387-16	126.930817	37.578072	-
176	명지대학교 도서관	서울특별시 서대문구 거북골로 34	126.924026	37.581097	-
177	북가좌 초등학교	서울특별시 서대문구 거북골로19길 20	126.909805	37.577675	-
178	증산3교 앞	서울특별시 서대문구 북가좌동 352-9	126.906349	37.579876	-
179	가좌역 4번출구 앞	서울특별시 서대문구 남가좌동 293-3 	126.914795	37.569122	-
180	충정로역 7번출구 뒤	서울특별시 서대문구 충정로3가 56-1	126.962463	37.559967	-
181	망원초록길 입구	서울특별시 마포구 마포나루길 467	126.902672	37.551342	-
182	망원2빗물펌프장 앞	서울특별시?마포구?동교로?7	126.902847	37.551567	-
183	하늘채코오롱아파트 건너편	서울특별시 마포구 연남로 30	126.919395	37.565166	-
184	SK망원동주유소 건너편	서울특별시 마포구 월드컵로 119?	126.907753	37.558949	-
185	마포 신수공원 앞	서울특별시 마포구 현석동 106-32	126.934296	37.542545	-
186	월드컵공원	서울특별시 마포구 하늘공원로 108-1	126.898209	37.563965	-
188	홍은동 정원여중 입구	서울특별시 서대문구 연희로37안길 51	126.935127	37.586388	-
191	정명학원	서울특별시 서대문구 응암로 66	126.910736	37.578892	-
192	연서어린이공원	서울특별시 서대문구 연희동 519-7	126.923065	37.572227	-
194	증산교 앞	서울특별시 서대문구 불광천길 36	126.902969	37.577316	-
195	모래내고가차도	서울특별시 서대문구 연희동 446-76	126.917809	37.567657	-
196	연희교차로 인근	서울특별시 서대문구 홍제천로 48	126.925896	37.56612	-
198	충정2교	서울특별시 서대문구 충정로3가 155-4	126.963776	37.562138	-
199	서울 월드컵 경기장	서울특별시 마포구 성산동 515	126.896446	37.566845	-
200	국회의원회관	서울특별시 영등포구 의사당대로 1	126.914925	37.528728	-
201	진미파라곤 앞	서울특별시 영등포구 국회대로76길 10	126.921333	37.531239	-
202	국민일보 앞	서울특별시 영등포구 여의공원로 101	126.92453	37.528816	-
203	국회의사당역 3번출구 옆	서울특별시 영등포구 국회대로 지하758	126.918701	37.528057	-
204	국회의사당역 5번출구 옆	서울특별시 영등포구 의사당대로 8	126.917023	37.528164	-
205	산업은행 앞	서울특별시 영등포구 의사당대로 97	126.920509	37.526264	-
206	KBS 앞	서울특별시 영등포구 여의공원로 13	126.918022	37.524666	-
207	여의나루역 1번출구 앞	서울특별시 영등포구 여의동로 지하343	126.932098	37.526989	-
208	LG 트윈타워 앞	-	126.928155	37.527553	-
209	유진투자증권빌딩 앞	서울특별시 영등포구 국제금융로 24	126.927834	37.524612	-
210	신한금융투자후문 앞(NH투자증권앞)	서울특별시 영등포구 은행로 59	126.924454	37.525372	-
211	여의도역 4번출구 옆	서울특별시 영등포구 국회대로68길 7	126.924637	37.522228	-
212	여의도역 1번출구 옆	서울특별시 영등포구 의사당대로 88	126.923462	37.521362	-
213	KT앞	서울특별시 영등포구 여의대로 38	126.918953	37.521908	-
214	금융감독원 앞	서울특별시 영등포구 여의대로 38	126.920837	37.523022	-
215	여의도고교 앞	서울특별시 영등포구 국제금융로7길 37	126.934906	37.524837	-
216	삼부아파트1동 앞	서울특별시 영등포구 국제금융로7길 27	126.932899	37.523491	-
217	NH농협은행 앞	서울특별시 영등포구 국제금융로8길 2	126.930367	37.522079	-
218	증권거래소 앞	서울특별시 영등포구 여의나루로 76	126.929237	37.523277	-
219	롯데캐슬엠파이어 옆	서울특별시 영등포구 의사당대로 127	126.925835	37.520695	-
220	미성아파트 A동 앞	서울특별시 영등포구 의사당대로 110	126.926048	37.519363	-
221	여의도초교 앞	서울특별시 영등포구 여의대방로 439	126.93779	37.522675	-
222	시범아파트버스정류장 옆	서울특별시 영등포구 63로 45	126.938881	37.520271	-
223	진주아파트상가 앞	서울특별시 영등포구 국제금융로 108-6	126.933167	37.519314	-
224	롯데캐슬 앞	서울특별시 영등포구 국제금융로 86	126.932365	37.520088	-
225	앙카라공원 앞	서울특별시 영등포구 의사당대로 지하166	126.929253	37.517368	-
226	샛강역 1번출구 앞	서울특별시 영등포구 의사당대로 지하166	126.928413	37.517765	-
227	양평2나들목 보행통로 입구	서울특별시 영등포구 양화동 17-4	126.888359	37.544666	-
228	선유도역 3번출구 앞	서울특별시 영등포구 양평동4가 202-1	126.894508	37.53846	-
229	양평1 보행육교 앞	서울특별시 영등포구 양평동4가 20-4	126.892181	37.535873	-
230	영등포구청역 1번출구	서울특별시 영등포구 당산로 111-2	126.896217	37.524635	-
231	남부고용노동지청 남측	서울특별시 영등포구 양평동1가 115-2	126.892097	37.524372	-
232	양평우림 이비즈센타 앞	서울특별시 영등포구 양평동3가 14-1	126.887817	37.52565	-
233	YP 센터 앞	서울특별시 영등포구 양평동3가 60-1	126.891647	37.528488	-
234	영등포구민체육센터 앞	서울특별시 영등포구 신길동 399 	126.905846	37.500462	-
235	신길동 우리은행 옆	서울특별시 영등포구 신길동 250-4 	126.910233	37.504566	-
236	문래동자이아파트 앞	서울특별시 영등포구 문래동3가 68-1	126.894615	37.516155	-
237	보라매 두산위브 건너편	서울특별시 영등포구 신길동 4490 	126.914803	37.496513	-
238	제2구민체육센타 앞	서울특별시 영등포구 당산동4가 96-2	126.902756	37.526386	-
239	유스호스텔 앞	서울특별시 영등포구 영등포동7가 58-2	126.903282	37.525852	-
240	문래역 4번출구 앞	서울특별시 영등포구 문래동3가 55-12 	126.895706	37.518867	-
241	신길우성1차아파트 앞 공원	서울특별시 영등포구 도림동 255-2 	126.898483	37.505329	-
242	신길선원가와인아파트 앞	서울특별시 영등포구 신길동 215-28 	126.910225	37.510933	-
243	이앤씨드림타워 앞	서울특별시 영등포구 양평동3가 48-1	126.891594	37.527225	-
244	영등포삼환아파트 앞	서울특별시 영등포구 영등포동8가 82-4 	126.905708	37.530079	-
245	삼성생명 당산사옥 앞	서울특별시 영등포구 당산동4가 35-24 	126.896629	37.528263	-
247	당산역 10번출구 앞	서울특별시 영등포구 당산동5가 14-4	126.902107	37.533688	-
248	초원아파트 앞	서울특별시 영등포구 여의도동8-13	126.92421	37.531055	-
249	여의도중학교 옆	서울특별시 영등포구 여의도동 8	126.936546	37.52412	-
250	대림아파트 사거리	서울특별시 영등포구 신길동 249	126.92308	37.507641	-
251	서울지방병무청 버스정류장	서울특별시 영등포구 신길동853	126.921951	37.504494	-
252	보라매역4번출구	서울특별시 영등포구 신길동4884	126.920036	37.499977	-
253	신풍역 5번출구 인근	서울특별시 영등포구 신길동3596	126.909378	37.500702	-
254	도림신협 앞	서울특별시 영등포구 신길동263-76	126.903419	37.503803	-
255	도림4거리	서울특별시 영등포구 신길동373-1	126.901131	37.506573	-
256	동아에코빌입구	서울특별시 영등포구 도림동 159-70	126.8993	37.509476	-
257	신길삼거리(우리은행)	서울특별시 영등포구 신길동95-256	126.919357	37.513844	-
258	신길역3번출구	서울특별시 영등포구 영등포동1가35	126.914299	37.517693	-
259	대방역6번출구	서울특별시 영등포구 신길동1368	126.925934	37.513592	-
260	여의도 마리나선착장 앞	서울특별시 영등포구 여의서로 160	126.912491	37.533817	-
262	영문초등학교 사거리	서울특별시 영등포구 문래로 56	126.889183	37.519928	-
263	근로자회관 사거리	서울특별시 영등포구 선유로 34	126.888626	37.517151	-
264	교보생명보험 앞	서울특별시 영등포구 영등포로 96	126.891617	37.521931	-
265	영등포유통상가 사거리	서울특별시 영등포구 영등포로 124	126.896538	37.521133	-
266	영등포청과시장 사거리	서울특별시 영등포구 영등포로 177	126.901093	37.520447	-
267	삼성화재 사옥 옆	서울특별시 영등포구 양평로 76	126.8983	37.535961	-
268	그랜드컨벤션센터 앞	서울특별시 영등포구 양평로 58	126.900002	37.534718	-
270	증권거래소후문교차로	서울특별시 영등포구 여의나루로 76	126.927101	37.522343	-
271	샛강생태공원방문자센터 앞	서울특별시 영등포구 여의동로 48	126.921616	37.518963	-
272	당산육갑문	서울특별시 영등포구 당산로52길 3	126.903679	37.535339	-
274	영등포역지하쇼핑센타 5번출구	서울특별시 영등포구 경인로 846	126.90799	37.516651	-
275	신동아아파트	서울특별시 영등포구 선유서로 76	126.885651	37.522816	-
276	SK 영등포주유소	서울특별시 영등포구 경인로112길 1	126.912636	37.518284	-
277	영등포뉴타운지하상가 2번게이트	서울특별시 영등포구 영중로 22	126.905167	37.520119	-
278	쌍용플레티넘오피스텔	서울특별시 영등포구 도영로 18	126.895233	37.507931	-
279	영등포 푸르지오 아파트	서울특별시 영등포구 도신로29길 28	126.904465	37.513229	-
280	280. 양평동6차현대아파트 앞	-	126.89444	37.532101	-
281	281. 신동아아파트 앞	-	126.893982	37.498241	-
282	282. 신한은행	-	126.904877	37.48753	-
283	283. 아크로타워 스퀘어(영등포시장)	-	126.907219	37.522518	-
284	284. 센트럴 푸르지오 시티 앞	-	126.902229	37.518211	-
285	285. 대림3동사거리(하나은행)	-	126.89724	37.499859	-
286	286. 우성아파트 교차로	-	126.89975	37.494572	-
287	287. 영등포전화국사거리 (서강어린이공원)	-	126.905739	37.525768	-
288	쌍용예가(구청별관)	당산로31길 32 서측(구청별관 주변)	126.893387	37.528099	-
289	289. 대림3동사거리	-	126.898003	37.499809	-
290	당산동 SK V1 빌딩	영등포구 당산동4가 89-1	126.897827	37.531509	-
291	291. 문래동 하이테크 시티	-	126.89888	37.513851	-
292	292. 영일 어린이공원	-	126.904068	37.51012	-
293	충북 미래관	영등포구 당산동 121-258	126.907578	37.529171	-
295	영등포공원 분수대 앞	영등포구 신길로 275	126.911881	37.514824	-
296	KT플라자 영등포점	영등포구 영중로 119	126.90538	37.526302	-
297	국회3문	영등포구 여의동로 330	126.912674	37.528637	-
298	KBS 연구동 건너편	영등포구 여의도동 1-877	126.914299	37.527508	-
299	여의도 순복음교회	영등포구 여의도동 8	126.922455	37.531792	-
300	정동사거리	서울특별시 중구 정동길 2-1	126.969231	37.56805	-
301	경복궁역 7번출구 앞	서울특별시 종로구 사직로 지하130	126.971451	37.575794	-
302	경복궁역 4번출구 뒤	서울특별시 종로구 사직로 지하130	126.97406	37.575947	-
303	광화문역 1번출구 앞	서울특별시 종로구 세종대로 지하189	126.974922	37.571732	-
304	광화문역 2번출구 앞	서울특별시 종로구 세종대로 지하172	126.977501	37.572487	-
305	종로구청 옆	종로구 삼봉로 43	126.978355	37.572582	-
306	광화문역 7번출구 앞	서울특별시 종로구 세종대로 지하172	126.976433	37.570808	-
307	서울역사박물관 앞	서울특별시 종로구 새문안로 55	126.9711	37.57	-
308	광화문 S타워 앞	서울특별시 종로구 새문안로 82	126.973938	37.569969	-
309	광화문역 6번출구 옆	서울특별시 종로구 세종대로 지하172	126.976456	37.569889	-
310	청계광장 옆	서울특별시 중구 세종대로 136	126.97747	37.568878	-
311	서울광장 옆	서울특별시 중구 세종대로 지하 101	126.97747	37.566612	-
312	시청역 1번출구 뒤	서울특별시 중구 세종대로 지하101	126.976738	37.564674	-
313	서울역 광장 파출소 옆	서울특별시 중구 통일로 13	126.971771	37.556961	-
314	국립현대미술관	서울특별시 종로구 삼청로 30	126.980858	37.579708	-
315	신한은행 안국역지점 옆	서울특별시 종로구 율곡로 33	126.983063	37.57597	-
316	종각역 1번출구 앞	서울특별시 종로구 종로 47	126.981789	37.570396	-
318	광교사거리 남측	서울특별시 중구 청계천로 30	126.982552	37.568527	-
320	을지로입구역 4번출구 앞	서울특별시 중구 을지로 55	126.983589	37.566223	-
321	KEB 하나은행 본점 앞	서울특별시 중구 을지로 66	126.984138	37.565464	-
322	명동성당 앞	서울특별시 중구 명동길 74	126.986969	37.564476	-
323	서울 중앙우체국 앞	-	126.98153	37.561505	-
324	신세계백화점 본점 앞	서울특별시 중구 퇴계로 77	126.9804	37.56134	-
325	가회동 주민센터 옆(미설치)	-	126.984908	37.580012	-
326	안국역 5번출구 앞	서울특별시 종로구 율곡로 지하62	126.98616	37.576241	-
327	낙원상가 옆	서울특별시 종로구 삼일대로 428	126.987465	37.573357	-
328	탑골공원 앞	서울특별시 종로구 종로 99	126.98819	37.570396	-
329	청계2가 사거리 옆	서울특별시 종로구 청계천로 93	126.987892	37.568344	-
330	청계천 한빛광장	서울특별시 중구 남대문로10길 33	126.984978	37.568165	-
331	을지로2가 사거리 북측	서울특별시 중구 을지로 79	126.987206	37.566383	-
332	을지로2가 사거리 남측	서울특별시 중구 을지로 100	126.987793	37.56599	-
333	창덕궁 매표소 앞	-	126.989556	37.577439	-
334	종로3가역 2번출구 뒤	서울특별시 종로구 종로 지하129	126.991791	37.570599	-
335	종로3가역 15번출구 앞	서울특별시 종로구 종로 지하129	126.991257	37.570198	-
336	티마크 호텔 앞	서울특별시 중구 충무로 15	126.992836	37.562618	-
337	창경궁 입구	서울특별시 종로구 창경궁로 185	126.996475	37.578979	-
338	세운스퀘어 앞	서울특별시 종로구 창경궁로 109	126.997124	37.570957	-
339	종로4가 사거리	서울특별시 종로구 종로 185	126.998192	37.571068	-
340	혜화동 로터리	서울특별시 종로구 창경궁로 271-1	127.000679	37.585629	-
341	혜화역 3번출구 뒤	서울특별시 종로구 대학로 지하120	127.001785	37.58157	-
342	대학로 마로니에공원	서울특별시 종로구 대학로 104	127.002533	37.579784	-
343	예일빌딩(율곡로) 앞	서울특별시 종로구 율곡로 238	127.004982	37.575432	-
344	성균관대 E하우스 앞	서울특별시 종로구 율곡로 259	127.006721	37.574036	-
345	서울보증보험본사 앞	서울특별시 종로구 김상옥로 29	127.00071	37.573307	-
346	맥스타일 앞	서울특별시 중구 마장로 3	127.00988	37.569183	-
347	동대문역사문화공원역 9번출구 앞	서울특별시 중구 장충단로 지하230	127.007843	37.565331	-
348	독립문역 사거리	서울특별시 종로구 교북동 10-1	126.960785	37.572029	-
349	사직동주민센터	서울특별시 종로구 사직로9길 5	126.96859	37.576332	-
350	KEB 하나은행(내자동 지점) 앞	종로구 사직로8길 39	126.972702	37.574169	-
351	청운초교 앞 삼거리	서울특별시 종로구 청운동 108-22	126.970619	37.585079	-
352	중앙고입구 삼거리	서울특별시 종로구 창덕궁길 191	126.985237	37.583416	-
353	재동초교 앞 삼거리	서울특별시 종로구 재동 19	126.984947	37.579388	-
354	포르투갈 대사관 앞	서울특별시 종로구 창덕궁1길 3	126.98896	37.579155	-
355	서울사대부속초교 앞	서울특별시 종로구 연건동 178-3	127.002457	37.576508	-
356	KT혜화지사 앞	서울특별시 종로구 대학로 65	127.00206	37.577145	-
358	성대입구 사거리	서울특별시 종로구 창경궁로 234	126.998535	37.5825	-
359	원남동사거리	서울특별시 종로구 율곡로 169	126.997681	37.576061	-
361	동묘앞역 1번출구 뒤	서울특별시 종로구 숭인동 81-39	127.015907	37.573242	-
362	청계8가 사거리	서울특별시 종로구 청계천로 407	127.022705	37.572224	-
363	신설동역 11번출구 뒤	서울특별시 종로구 숭인동 1311	127.022835	37.57576	-
364	창신역 1번출구 앞	서울특별시 종로구 지봉로 87	127.015083	37.579334	-
365	서대문역 3번출구 뒤	-	126.966615	37.566337	-
367	독립문역 3-1번출구	서울특별시 종로구 무악동 41-7	126.958694	37.573849	-
368	SK 서린빌딩 앞	서울특별시 종로구 서린동 93-2	126.980537	37.569248	-
369	광화문 시민열린마당	서울특별시 종로구 세종로 76-5	126.9785	37.575493	-
370	시청역(2호선) 9번출구 뒤	서울특별시 중구 서소문로 지하127	126.974838	37.563229	-
371	동대입구역 6번출구 뒤	서울특별시 중구 동호로 지하256	127.005539	37.558872	-
372	약수역 3번출구 뒤	서울특별시 중구 다산로 지하122	127.0112	37.554295	-
373	청구 어린이공원	서울특별시 중구 다산로14길 41	127.013855	37.555859	-
374	청구역 2번출구 앞	서울특별시 중구 청구로 지하77	127.014076	37.560474	-
375	다산 어린이공원	서울특별시 중구 다산로40길 37	127.018425	37.563717	-
376	을지로4가역 4번출구 앞	-	126.998076	37.567923	-
377	서울역 4번출구 앞	서울특별시 중구 세종대로 지하2	126.973007	37.557217	-
378	청계7가 사거리	서울특별시 중구 다산로 지하260	127.016953	37.569805	-
379	서울역9번출구	서울특별시 중구 세종대로 지하2	126.973358	37.556	-
380	CJ제일제당 앞	서울특별시 중구 동호로 330	127.002747	37.563866	-
381	장충체육관	서울특별시 중구 장충동2가 200-99	127.006989	37.558533	-
382	약수역 10번출구 앞	서울특별시 중구 신당동 357-1	127.010048	37.555199	-
383	신당역 12번 출구 뒤	서울특별시 중구 신당동 99	127.016403	37.565849	-
384	종로학원본원	서울특별시 중구 청파로 456	126.968506	37.55978	-
385	종각역 5번출구	서울특별시 종로구 서린동 26-1	126.982658	37.569836	-
386	올림픽기념 국민생활관 앞	서울특별시 종로구 성균관로 91	126.99852	37.590233	-
387	훈련원공원주차장 앞	서울특별시 중구 을지로 227	127.003464	37.566994	-
388	동성중학교 앞	서울특별시 종로구 혜화동 56	127.00161	37.585735	-
389	을지로4가역 1번출구	서울특별시 중구 을지로 지하 178	126.996605	37.56673	-
390	충무로역 1번출구	서울특별시 중구 퇴계로 212	126.995354	37.56139	-
391	정동길입구	서울특별시 중구 세종대로19길 16	126.973305	37.565437	-
392	서울역 서부교차로1	서울특별시 중구 만리재로 211	126.96859	37.556965	-
393	393. 동대문역 8번 출구	-	127.009377	37.570141	-
394	394. 경희궁 자이 3단지	-	126.965919	37.56749	-
395	395. 경희궁 자이 2단지	-	126.964561	37.568855	-
397	397. 종묘공영주차장 건너편	-	126.996635	37.57048	-
398	398. 을지로3가역 3번출구	-	126.992439	37.566559	-
399	399. 서울역 센트럴 자이아파트	-	126.966087	37.554482	-
400	상암한화오벨리스크 1차 앞	서울특별시 마포구 구룡길 19	126.883003	37.587524	-
401	상암월드컵파크 10단지 앞	서울특별시 마포구 월드컵북로 502-36	126.881615	37.586189	-
402	상암월드컵파크 9단지 앞	서울특별시 마포구 월드컵북로 501	126.879822	37.582855	-
403	부엉이공원 앞	서울특별시 마포구 가양대로 189	126.884727	37.58559	-
404	우리금융상암센터 교차로	-	126.88612	37.582927	-
405	DMC빌 앞	서울특별시 마포구 월드컵북로60길 13	126.885788	37.582657	-
406	상암월드컵파크 7단지 앞	서울특별시 마포구 상암산로1길 92	126.880585	37.581314	-
407	마포구 육아종합지원센터	서울특별시 마포구 상암산로1길 71	126.883675	37.580631	-
408	LG CNS앞	서울특별시 마포구 월드컵북로 424	126.88665	37.580811	-
409	누리꿈스퀘어 옆	서울특별시 마포구 월드컵북로 396	126.88916	37.579399	-
410	상암중학교 옆	서울특별시 마포구 상암산로1길 26	126.887772	37.577496	-
411	DMC홍보관	서울특별시 마포구 월드컵북로 366	126.891472	37.577995	-
412	DMC산학협력연구센터 앞	서울특별시 마포구 매봉산로 37	126.890739	37.575802	-
413	상암월드컵파크 3단지 후문	서울특별시 마포구 매봉산로 8	126.889687	37.571476	-
414	상암동주민센터 옆	서울특별시 마포구 매봉산로2길 16	126.89447	37.57822	-
415	DMC역 9번출구 앞	서울특별시 마포구 성암로 지하184	126.897362	37.577469	-
416	상암월드컵파크 1단지 교차로	서울특별시 마포구 월드컵북로 502-7	126.894447	37.575665	-
417	DMC역 2번출구 옆	서울특별시 은평구 수색로 지하175	126.899918	37.575069	-
418	월드컵경기장역 3번출구 옆	서울특별시 마포구 월드컵로 지하240	126.898979	37.570721	-
419	홈플러스 앞	서울특별시 마포구 월드컵로 240	126.899429	37.56842	-
420	서울시 공공자전거 상암센터	서울특별시 마포구 월드컵북로47길 10	126.896179	37.566246	-
421	마포구청 앞	서울특별시 마포구 월드컵로 212	126.901184	37.565903	-
422	문화비축기지	서울특별시 마포구 증산로 87	126.894424	37.569084	-
424	424. 롯데하이마트 (상암월드컵점) 	-	126.898048	37.57362	-
425	425. DMC첨단산업센터	-	126.885597	37.584503	-
426	426. 서울신용보증재단	-	126.954178	37.549061	-
427	성산시영아파트	서울특별시 마포구 월드컵북로 260	126.903816	37.569584	-
428	명보사거리	중구 초동 22-2 	126.991432	37.5644	-
429	429. 송도병원	-	127.007347	37.549889	-
430	430. KEB하나은행 장충동지점	-	127.006264	37.562172	-
431	431. 청계천 영도교	-	127.019524	37.5709	-
432	432. 마포중앙도서관	-	126.908203	37.563339	-
433	을지로입구역 2번출구	중구 을지로1가 118	126.982338	37.566502	-
434	신당 레미안 버스정류장	중구 신당동 85-730	127.023933	37.561489	-
435	SK 남산빌딩	중구 남대문로5가 520	126.975616	37.556862	-
436	이대역 5번출구	마포구 대흥동 2-1	126.94619	37.556591	-
437	대흥역 1번출구	마포구 대흥동 105-4	126.941383	37.54821	-
438	성산2-1 공영주차장	마포구 성산동 199-46	126.906769	37.56472	-
439	마포어린이공원	마포구 마포동 364-4	126.944038	37.535751	-
440	하늘공원 입구	마포구 하늘공원로 108-2	126.881149	37.570006	-
441	염천교사거리	중구 순화동 212-9	126.97068	37.559891	-
442	서울역 서부	봉래동 2가 122-11	126.97216	37.553692	-
443	호암아트홀	봉래동 2가 122-11	126.970718	37.562111	-
444	서울역3번 출구	통일로 20	126.97258	37.557602	-
445	대한상공회의소	세종대로 39	126.974548	37.560291	-
446	상명대입구	서울특별시 종로구 홍지문길 1	126.957832	37.600128	-
447	신영동삼거리	서울특별시 종로구 진흥로 499	126.961945	37.603992	-
448	평창동주민센터	서울특별시 종로구 평창문화로 65	126.968681	37.606274	-
449	일성아파트	서울특별시 종로구 평창문화로 119	126.972862	37.608719	-
450	효자동 삼거리	서울특별시 종로구 효자로13길 45	126.972549	37.583603	-
451	청와대앞길	서울특별시 종로구 청와대로 73	126.979668	37.583515	-
452	452. 동대문 종합시장 버스정류장	-	127.00441	37.571239	-
453	453. 종로오가 지하쇼핑센터 14번출구	-	127.000671	37.57114	-
454	454. 종로2가 버스정류장 (종각방향)	-	126.986382	37.570358	-
455	455. 삼익한의원	-	127.006058	37.570961	-
456	456. 숭인2동 주민센터 입구 (이강3대냉면)	-	127.019829	37.574471	-
457	457. 종로꽃시장 입구 옆	-	127.00721	37.57132	-
458	458. 광화문역 5번출구	-	126.977539	37.569939	-
461	461. 서울지방경찰청	-	126.972366	37.574364	-
462	신영동삼거리(북악터널방향)	종로구 평창문화로 6-4	126.962067	37.603512	-
463	삼청동 주민센터	-	126.981987	37.584938	-
464	삼청동 골목	종로구 팔판길 46	126.981697	37.58419	-
465	삼청공원 앞	서울특별시 종로구 삼청동 25-32	126.983597	37.587605	-
466	롯데호텔	을지로 30	126.979813	37.565842	-
467	한국은행	남대문로 39	126.980866	37.562214	-
468	웨스틴 조선호텔	소공로 106	126.979485	37.564159	-
469	회현역 1번출구	퇴계로 72	126.980141	37.559231	-
470	회현역 7번출구	회현동 1가 23-1	126.979889	37.55965	-
471	회현사거리 남측	퇴계로 100	126.982651	37.56036	-
472	삼일교(시그니쳐 타워)	청계천로 100	126.988983	37.567871	-
473	을지로4가역 9번출구	을지로 170	126.997986	37.566051	-
474	동대문역사문화공원역 1번출구 뒤편	을지로 281	127.008492	37.566299	-
475	ddp패션몰	마장로 22	127.01181	37.56765	-
476	광희문	퇴계로 344	127.009956	37.56443	-
477	앰배서더 호텔 주변	장충동2가 191-21	127.002686	37.559288	-
479	동대입구역 3번 출구	장충동2가 199-4	127.006027	37.559376	-
480	약수역 6번 출구	동호로 177	127.010704	37.554321	-
481	신당역 10번 출구	청계천로 100	127.015793	37.567032	-
482	예수소망교회	청구로 32	127.018478	37.55994	-
483	남산타운아파트 버스정류장	신당동 산 24-110	127.006439	37.547585	-
484	도동삼거리	남창동 205-166	126.977188	37.555767	-
485	서울역4번출구	중구 남대문로5가	126.973251	37.557404	-
486	평창동주민센터 앞	서울특별시 종로구 평창동 187-2	126.9683228	37.60627365	-
487	신석초교앞 교차로 교통섬	마포구 용강동 494-6 	126.938309	37.54364	-
489	구룡근린공원	마포구 상암동 1583	126.8834	37.583336	-
490	가온문화공원	마포구 상암동 1594	126.887665	37.582077	-
491	월드컵파크 4단지	마포구 상암동 1761	126.888069	37.575977	-
492	성산시영아파트 후문	 마포구 중동 77-11	126.901848	37.573135	-
493	홍대입구역 6번출구	마포구 서교동 193-4	126.928856	37.556576	-
494	신수동주민센터	마포구 신수동 458	126.935028	37.547245	-
495	염리초등학교 앞	마포구 도화동 536	126.946999	37.542431	-
496	마포아트센터 앞	-	126.94619	37.550356	-
497	합정동주민센터 앞	마포구 합정동 473-2	126.9123	37.551754	-
498	연남동주민센터 앞	마포구 연남동 250-11	126.922127	37.564651	-
500	어린이대공원역 3번출구 앞	서울특별시 광진구 능동로 지하210	127.074272	37.54707	-
501	광진구의회 앞	서울특별시 광진구 능동로 76	127.070351	37.537308	-
502	뚝섬유원지역 1번출구 앞	서울특별시 광진구 능동로 10	127.067192	37.53186	-
503	더샵스타시티 C동 앞	서울특별시 광진구 아차산로 262	127.073593	37.536667	-
504	신자초교입구교차로	서울특별시 광진구 뚝섬로 596	127.075935	37.53297	-
505	자양사거리 광진아크로텔 앞	서울특별시 광진구 아차산로 355	127.082245	37.53701	-
506	금호 어울림 아파트 앞	서울특별시 성동구 광나루로 249	127.057793	37.549061	-
507	성수아이에스비즈타워 앞	서울특별시 성동구 성수이로 147	127.057114	37.548203	-
508	성수아카데미타워 앞	서울특별시 성동구 성수이로 118	127.05751	37.545166	-
509	이마트 버스정류소 옆	서울특별시 성동구 뚝섬로 379	127.052589	37.539654	-
510	서울숲 남문 버스정류소 옆	서울특별시 성동구 왕십리로11길 9	127.0438	37.541222	-
511	서울숲역 4번 출구 옆	서울특별시 성동구 왕십리로 지하77	127.044609	37.544582	-
512	뚝섬역 1번 출구 옆	서울특별시 성동구 아차산로 18	127.045006	37.548561	-
513	뚝섬역 5번 출구 정류소 옆	서울특별시 성동구 아차산로 18	127.049805	37.546307	-
514	성수사거리 버스정류장 앞	서울특별시 성동구 아차산로 171	127.063309	37.54258	-
515	광양중학교 앞	서울특별시 광진구 자양로3길 7	127.08683	37.530235	-
516	광진메디칼 앞	서울특별시 광진구 광나루로 355	127.069366	37.548405	-
518	청계천 박물관 앞	서울특별시 성동구 마장동 610	127.035355	37.571526	-
519	양지사거리	서울특별시 성동구 홍익동 590	127.029915	37.566994	-
520	상왕십리역 4번 출구 앞	서울특별시 성동구 하왕십리동 960-3	127.030319	37.563858	-
521	왕십리역 11번 출구 앞	서울특별시 성동구 행당동 188-9	127.03492	37.561447	-
522	금호역 1번출구 앞	서울특별시 성동구 금호동3가 1575-3	127.016426	37.548641	-
523	옥수동성당 옆	서울특별시 성동구 옥수동 산5-148	127.014061	37.543663	-
524	래미안금호하이리버 아파트 102동 옆	서울특별시 성동구 금호동2가 1220-1	127.025055	37.5522	-
525	한양대병원사거리	서울특별시 성동구 행당동 20-2	127.040352	37.558052	-
526	용답토속공원 앞	서울특별시 성동구 용답동 224-1	127.056725	37.563511	-
527	화양사거리	서울특별시 성동구 광나루로 334	127.06707	37.548149	-
529	장한평역 8번 출구 앞	서울특별시 성동구 용답동 224-3	127.06366	37.561371	-
530	청계벽산아파트 앞	서울특별시 성동구 하왕십리동 286-24	127.030403	37.568748	-
533	우리은행 금호동 지점 앞	서울특별시 성동구 금호동4가 1101	127.021088	37.548149	-
534	금호사거리	서울특별시 성동구 금호동2가 1205-1	127.025726	37.548634	-
535	응봉삼거리	서울특별시 성동구 응봉동 134-26	127.033592	37.553986	-
536	행당역 2번출구 앞	서울특별시 성동구 행당동 347-11	127.029213	37.55735	-
537	한양대후문역 부근	서울특별시 성동구 행당동 10	127.041397	37.560356	-
538	답십리역 8번출구 앞	서울특별시 성동구 용답동 102-1	127.051155	37.56765	-
539	군자교교차로	서울특별시 광진구 중곡동 263-1	127.074203	37.559795	-
540	군자역 7번출구 베스트샵 앞	서울특별시 광진구 군자동 499	127.078644	37.55603	-
542	강변역 4번출구 뒤	서울특별시 광진구 구의동 546-6	127.094482	37.535465	-
543	구의공원(테크노마트 앞)	서울특별시 광진구 구의동 546-3	127.094673	37.535969	-
544	광남중학교	서울특별시 광진구 광장동 561-15	127.102905	37.54073	-
546	잠실대교북단 교차로	서울특별시 광진구 자양동 722	127.085091	37.532478	-
548	자양나들목	서울특별시 광진구 자양동 738	127.07486	37.52977	-
549	아차산역 3번출구	서울특별시 광진구 구의동 96	127.089706	37.551224	-
550	서울시설공단 앞	서울특별시 성동구 마장동 610 	127.03566	37.57164	-
551	구의삼성쉐르빌 앞	서울특별시 광진구 구의강변로 106	127.094498	37.540062	-
552	대림아크로리버 앞	서울특별시 광진구 구의강변로 64	127.092972	37.536579	-
553	중곡 성원APT 앞	서울특별시 광진구 동일로 459	127.079803	37.571255	-
554	아차산역 사거리	광진구 천호대로 682	127.09259	37.548935	-
555	구의3동주민센터	서울특별시 광진구 강변역로 17	127.092171	37.537849	-
556	달맞이공원	서울특별시 성동구 금호동4가 367-1	127.020401	37.542053	-
557	도선동 주민센터 앞	서울특별시 성동구 무학로10길 6	127.025696	37.567642	-
558	성동광진 교육지원청 앞	서울특별시 성동구 고산자로 260	127.036522	37.564606	-
559	왕십리역 4번 출구 건너편	서울특별시 성동구 왕십리광장로 10-1	127.036797	37.561096	-
560	비전교회 앞	서울특별시 성동구 동일로 213	127.068932	37.551205	-
561	서울숲역 2번출구 앞	서울특별시 성동구 왕십리로 64	127.04467	37.542816	-
562	군자지하보도 앞	서울특별시 성동구 동일로 313	127.07341	37.559246	-
563	성동세무서 건너편	서울특별시 성동구 광나루로 302	127.062752	37.547913	-
564	금호역 3번출구	서울특별시 성동구 동호로 99	127.015572	37.547928	-
565	옥수역 3번출구	서울특별시 성동구 한림말길 56	127.017662	37.541363	-
567	성수역 2번출구 앞	서울특별시 성동구 아차산로 113	127.057083	37.54459	-
568	청계8가사거리 부근	서울특별시 동대문구 청계천로 417	127.02356	37.571102	-
569	응봉현대아파트 정류소	서울특별시 성동구 독서당로 381	127.030243	37.549583	-
571	어린이대공원역6번출구	서울특별시 광진구 군자로 74	127.07476	37.548496	-
572	국립정신 건강센터 앞	서울특별시 광진구 능동로 398	127.0867	37.565536	-
573	구의문주차장 앞	서울특별시 광진구 능동로 216	127.084732	37.545231	-
574	아차산역4번출구	서울특별시 광진구 능동로 216	127.088982	37.551849	-
575	중앙농협 중곡지점	서울특별시 광진구 용마산로 120	127.086937	37.564293	-
576	광나루역 3번 출구	서울특별시 광진구 아차산로 552	127.104263	37.54483	-
577	광진청소년수련관	서울특별시 광진구 구천면로 2	127.106133	37.546547	-
578	성동세무서 부근	서울특별시 성동구 광나루로 303-1	127.062088	37.548286	-
579	마장역 4번출구	서울특별시 성동구 마장로 292-1	127.041847	37.565205	-
580	신금호역 3번출구 뒤	서울특별시 성동구 무수막길 97	127.020149	37.55439	-
581	용답초등학교	서울특별시 성동구 용답25길 1	127.054237	37.561012	-
582	경일중학교 앞	서울특별시 성동구 성수일로 27	127.04908	37.543179	-
583	청계천 생태교실 앞	서울특별시 성동구 마장로39길 51	127.04689	37.56797	-
584	광진광장 교통섬	서울특별시 광진구 군자동 374-8	127.072632	37.547829	-
585	성수2가1동 공영주차장 인근	서울특별시 성동구 성수동2가 569-3	127.055489	37.536808	-
586	마장동 주민센터	서울특별시 성동구 마장로42길 14	127.045395	37.565941	-
587	KEB하나은행 성수중앙지점	서울특별시 성동구 성수동2가 276-5	127.052643	37.545418	-
588	뚝섬 유원지역	서울특별시 광진구 능동로 10	127.067497	37.532688	-
589	성수역3번출구	서울특별시 성동구 아차산로 100	127.056656	37.544159	-
590	건국대학교 (입학정보관)	서울특별시 광진구 능동로 120	127.073746	37.540089	-
591	건국대학교 (행정관)	서울특별시 광진구 능동로 120	127.075371	37.542778	-
592	건국대학교 학생회관	서울특별시 광진구 능동로 120	127.07843	37.541763	-
593	자양중앙나들목	서울특별시 광진구 자양강변길 301	127.077873	37.528587	-
594	중랑물재생센터(서울새활용플라자)	서울특별시 성동구 자동차시장길 49	127.056908	37.558365	-
600	휘경2동 주민센터	서울특별시 동대문구 한천로 329	127.06868	37.589912	-
601	용신동주민센터	서울특별시 동대문구 용두동 65-25	127.037361	37.575947	-
602	장안동 사거리	서울특별시 동대문구 장한로 25길 2	127.071388	37.572174	-
603	동대문구 체육관	-	127.063704	37.572638	-
604	답십리초등학교 옆 공원	서울특별시 동대문구 전농로3길 23	127.055962	37.569656	-
605	신설동역8번출구	서울특별시 동대문구 천호대로 26	127.026497	37.5742	-
606	휘경공고앞	서울특별시 동대문구 겸재로 21	127.07029	37.584625	-
607	신이문역 2번출구	서울특별시 동대문구 이문동186-1	127.067863	37.602711	-
608	전농삼성아파트	서울특별시 동대문구 전농로 192	127.055344	37.58131	-
609	제기2교	서울특별시 동대문구 제기동122-388	127.037361	37.587791	-
610	동대문중 교차로	서울특별시 동대문구 답십리동 524-1	127.052162	37.573086	-
612	시립동부병원 앞 사거리	서울특별시 동대문구 용두동 237-10 	127.030472	37.573498	-
613	신설동역 10번출구 앞	서울특별시 동대문구 신설동 92-34	127.023468	37.575272	-
614	용두동 사거리	서울특별시 동대문구 용두동 237-10	127.031013	37.577686	-
615	용두동 레미안허브리츠아파트 앞	서울특별시 동대문구 용두동 696-13 	127.03511	37.576382	-
616	서울시립대 앞	서울특별시 동대문구 전농동 135-5	127.054367	37.582561	-
617	청솔우성아파트 앞	서울특별시 동대문구 답십리동 94-2 	127.057693	37.574203	-
621	동대문중학교 옆	서울특별시 동대문구 사가정로 62	127.053391	37.574718	-
622	전농사거리 교통섬	서울특별시 동대문구 사가정로 119	127.057831	37.577793	-
623	서울시립대 정문 앞	서울특별시 동대문구 서울시립대로 161	127.053856	37.583698	-
624	전농동 동아아파트 앞	서울특별시 동대문구 서울시립대로 31	127.045891	37.574188	-
625	답십리초등학교 앞(현대시장 옆)	서울특별시 동대문구 전농로 34	127.057175	37.568192	-
626	군자교 서측 녹지대	서울특별시 동대문구 장한로6길 95	127.070969	37.561153	-
627	장안동삼거리 교통섬	서울특별시 동대문구 사가정로 240	127.071907	37.578632	-
628	휘봉고등학교 앞	서울특별시 동대문구 한천로 290	127.067543	37.586815	-
630	동대문구 보건소	서울특별시 동대문구 천호대로 145	127.040306	37.574852	-
631	답십리역 1번출구	서울특별시 동대문구 천호대로 269	127.051277	37.568184	-
632	청량리역 3번출구 앞	-	127.046026	37.580922	-
633	청량리 기업은행 앞	서울특별시 동대문구 홍릉로 1	127.044823	37.580406	-
634	외국어대 정문 앞	서울특별시 동대문구 이문로 107	127.05983	37.59602	-
635	시조사 앞 (청량고정문 옆)	서울특별시 동대문구 이문로1길 11	127.052773	37.587517	-
636	세종대왕기념관 교차로	서울특별시 동대문구 회기로 56	127.042587	37.5909	-
637	KAIST 경영대학 앞	서울특별시 동대문구 회기로 85	127.045792	37.591614	-
638	서울시립대 정보기술관	서울특별시 동대문구 한천로43길 12-14	127.060974	37.583008	-
639	서울시립대 후문	서울특별시 동대문구 한천로43길 12-14	127.060951	37.585197	-
640	KEB하나은행 청량리역지점	서울특별시 동대문구 왕산로 205	127.044495	37.582455	-
641	용두역 4번출구	서울특별시 동대문구 청계천로 563	127.038536	37.573753	-
642	신답역 사거리	서울특별시 동대문구 천호대로 231	127.048584	37.570156	-
643	동대문구민체육센터 (육교아래)	서울특별시 동대문구 장안벚꽃로 77	127.074417	37.566971	-
646	646. 장한평역 1번출구 (국민은행앞)	-	127.064377	37.561867	-
647	신이문역 1번출구	서울특별시 동대문구 신이문로 44	127.067268	37.602798	-
648	648. 장안동위더스빌옆	-	127.062424	37.5667	-
650	650. 중랑교사거리	-	127.067741	37.591534	-
651	우리은행청량리지점앞	서울특별시 동대문구 왕산로 239	127.048279	37.582748	-
652	652. 답십리 래미안엘파인아파트 입구	-	127.065941	37.57653	-
654	654. 전농동 텃골공원	-	127.052109	37.577621	-
656	656. 영휘원 교차로	-	127.043137	37.587238	-
657	657. 동대문롯데캐슬아파트 앞	-	127.04837	37.57576	-
658	658. 촬영소 사거리	-	127.066147	37.572948	-
659	659. 제기역1번출구	-	127.033386	37.57835	-
660	660. 동의보감타워	-	127.037628	37.577999	-
661	661. 경희대학교 청운관	-	127.051964	37.594601	-
663	외대앞역 4번출구	동대문구 휘경동 146-42	127.063026	37.594891	-
664	서울시립대 대학본부	동대문구 서울시립대로 163 서울시립대학교	127.057938	37.584129	-
665	이문동 쌍용아파트 정문	동대문구 한천로58길 47	127.068642	37.599606	-
666	이문대성유니드아파트 앞	한천로58길 151	127.070831	37.603622	-
667	청량차도 육교 밑	제기로 126	127.046997	37.586594	-
668	서울축산농협(장안지점)	동대문구 장안동 469-8 	127.069183	37.568653	-
669	청계신한신휴플러스앞 삼거리	서울시립대로14	127.044663	37.572048	-
670	삼육서울병원 버스정류장	망우로74	127.061409	37.589687	-
671	대광빌딩	동대문구 신설동 168-7 	127.023377	37.577343	-
672	대광고등학교	동대문구 신설동 397-2 	127.02385	37.57859	-
673	안암골벽산아파트(후문)	동대문구 제기동 190-11 	127.031036	37.58408	-
674	고대앞사거리 교통섬	동대문구 제기동 142-21 	127.033142	37.586552	-
675	성복교회 앞 (장평교 아래)	동대문구 장안벚꽃로 139	127.077004	37.572025	-
676	FITI시험연구원 앞	동대문구 정릉천동로 102	127.035477	37.581432	-
677	청량리역 4번 5번출구 사이	청량리역환승센터 횡단보도	127.045799	37.580151	-
678	장안힐스테이트(아) 앞	동대문구 답십리로69길 93	127.07431	37.576557	-
679	전농SK아파트 앞	동대문구 사가정로 150 	127.061684	37.577877	-
680	꿈마루어린이도서관 앞	동대문구 이문로 55	127.057411	37.592384	-
681	서울특별시 동부교육지원청(육교)	동대문구 전농로168	127.056374	37.579838	-
700	KB국민은행 염창역 지점 앞	서울특별시 양천구 목동 559	126.872772	37.546848	-
701	목동사거리 부근	서울특별시 양천구 목동 813	126.86393	37.532803	-
702	목4동주민센터 옆	서울특별시 양천구 목동 904-3	126.868729	37.532543	-
703	오목교역 7번출구 앞	서울특별시 양천구 목동 451	126.87558	37.524063	-
704	남부법원검찰청 교차로	서울특별시 양천구 신정동 1095	126.864906	37.523254	-
706	신정네거리역	서울특별시 양천구 신월동 894	126.851753	37.521881	-
707	신정3동주민센터	서울특별시 양천구 중앙로 209	126.854897	37.515156	-
708	서울출입국관리사무소 앞	서울특별시 양천구 신정동 319-3	126.869965	37.51897	-
709	신정3동 현장민원실 앞	서울특별시 양천구 신정동 760-2	126.84156	37.511585	-
710	서부화물트럭터미널 사거리	서울특별시 양천구 신정동 759-2	126.842537	37.510658	-
711	신일해피트리아파트 앞	서울특별시 양천구 신월동 1063-4	126.848488	37.517059	-
712	강월초교입구 사거리	서울특별시 양천구 신월동 905	126.838318	37.516998	-
713	양서중학교 옆	서울특별시 양천구 신월동 790	126.829956	37.533047	-
714	한국SGI 양천문화회관 앞	서울특별시 양천구 신월동 790	126.830803	37.532547	-
716	신정6동 주민센터 인근	서울특별시 양천구 목동서로 355	126.864334	37.517281	-
719	홍익병원앞 교차로	서울특별시 양천구 등촌로 2	126.864258	37.530369	-
720	서울강월초등학교 앞	서울특별시 양천구 신월로 97	126.8349	37.516197	-
722	LG전자베스트샵 신정점 	서울특별시 양천구 신월로 328	126.857384	37.521435	-
723	SBS방송국	서울특별시 양천구 목동서로161	126.874259	37.528802	-
724	계남공원 입구 주출입구 좌측	서울특별시 양천구 신정동 621-14	126.857399	37.510681	-
725	양강중학교앞 교차로	서울특별시 양천구 남부순환로88길5-16	126.850548	37.524334	-
726	목동3단지 시내버스정류장	서울특별시 양천구 목동중앙로 49 	126.869598	37.534389	-
729	서부식자재마트 건너편	서울특별시 양천구 신정동 236 	126.866798	37.51038	-
731	서울시 도로환경관리센터	서울특별시 양천구 목동동로 316-6	126.877645	37.529824	-
732	신월동 이마트	서울특별시 양천구 화곡로 59	126.8283	37.539551	-
733	신정이펜하우스314동	서울특별시 양천구 신정이펜1로50 	126.831001	37.514099	-
734	신트리공원 입구	서울특별시 양천구 신정동 310-8 	126.856056	37.51395	-
735	영도초등학교	서울특별시 양천구 목동중앙로 70 	126.871521	37.53643	-
736	오솔길공원	서울특별시 양천구 남부순환로70길11-9	126.8367	37.52219	-
737	737. 장수공원	-	126.84948	37.52256	-
739	신월사거리	서울특별시 양천구 신월동 263	126.827797	37.536201	-
740	으뜸공원	서울특별시 양천구 가로공원로 133	126.831711	37.536369	-
741	화곡로 입구 교차로	서울특별시 양천구 신월동 258	126.825401	37.53952	-
742	등촌역 5번 출구 뒤	서울특별시 양천구 등촌로 236	126.864521	37.550709	-
743	현대6차아파트 101동 옆	서울특별시 양천구 신정동 735-5	126.842682	37.5089	-
744	신목동역 2번 출구	서울특별시 양천구 목동중앙로 212 앞	126.882545	37.543842	-
745	강서초등학교	서울특별시 양천구 오목로 31 부근	126.839699	37.522282	-
746	목동2단지 상가	서울특별시  양천구 목동 902-5 	126.877747	37.536503	-
747	목동3단지 상가	서울특별시 양천구 목동 903-6	126.875648	37.53458	-
748	목동운동장	서울특별시 양천구 안양천로 939	126.879303	37.530251	-
749	749. 이대 목동병원 앞	-	126.886612	37.537228	-
750	750. 연의근린공원 건너편	-	126.835625	37.512157	-
752	752. 성원2차 아파트	-	126.863304	37.542183	-
754	754. 목동1단지아파트 118동 앞 (월촌초등학교 정류소 옆)	-	126.876678	37.541142	-
755	755. 목동1단지아파트 상가 앞 (월촌중학교 버스정류소 옆)	-	126.881409	37.537868	-
756	756. 목동주차장	-	126.876167	37.52668	-
757	757. 신정이펜하우스 1단지아파트 입구 사거리	-	126.828743	37.514278	-
758	758. 한사랑교회 앞	-	126.8592	37.514721	-
759	759. 보아스아파트 앞	-	126.8386	37.524071	-
760	760. 잣절보도육교 아래	-	126.844299	37.506821	-
762	 오목로 무중력지대 앞	 양천구 신목로 126	126.877052	37.524551	-
763	763. 목동11단지 아파트	-	126.85862	37.511318	-
764	764. 목동청소년수련관	-	126.875893	37.531029	-
765	765. 오목교역 3번출구	서울특별시 양천구 목동동로 270	126.875481	37.524776	-
766	신목동역 3번출구	양천구 목동 136-1	126.88325	37.54426	-
767	신정숲속마을아파트	양천구 신정로 110	126.836311	37.505745	-
768	목동5단지아파트 501동	양천구 목동	126.882446	37.535919	-
769	CBS방송국 앞	양천구 목동 917-1	126.874672	37.527855	-
770	목동역5번출구 교통정보센터 앞	양천구 목동로 186	126.864868	37.525715	-
771	목동아파트 703동 앞	양천구 목동로 186 	126.870064	37.527706	-
773	염창역 3, 4번 출구 사이	공항대로 630	126.874573	37.546707	-
774	등촌역 4번 출구 	양천구 목동 603-2	126.867218	37.549507	-
775	세종그랑시아 앞(102동)	양천구 목동중앙남로3가길 59	126.863831	37.538376	-
776	목마공원	양평교 하부	126.885681	37.538742	-
777	신월6차보람아파트 앞	양천구 곰달래로7길 7	126.834778	37.530128	-
779	양천나눔누리센터	양천구 중앙로 250	126.853684	37.518845	-
780	신정교 하부	양천구 신정동 871-37	126.877586	37.516907	-
781	신정보도육교 아래	양천구 신목로 10	126.876556	37.517593	-
782	서남병원 후문	양천구 신정이펜1로 20	126.832741	37.511673	-
785	양천구청, 보건소 사잇길	양천구 신정동 321-8	126.866303	37.517326	-
786	목동아파트 8단지 상가동 앞	양천구 목동서로 280	126.868401	37.520439	-
787	양천아파트 입구	양천구 목동로3길 41	126.862648	37.507904	-
788	양천구청역 2번출구 옆	양천구 목동로3길 57	126.865555	37.512379	-
790	화곡고가 사거리	양천구 신월동 455-5 	126.848755	37.527607	-
791	현대하이페리온	오목로300(205동앞 서쪽방향)	126.869835	37.52478	-
792	목동트라팰리스 웨스턴에비뉴	오목로299(이마트 출입구측)	126.870926	37.525372	-
793	목동5단지아파트 534동	서울특별시 양천구 목동동로 350 목동신시가지아파트5단지	126.878143	37.53355	-
794	양천문화회관	양천구 신정동 323-1	126.862953	37.516842	-
795	양천 해누리타운	양천구 신정동 327-4	126.8638	37.515419	-
796	목동아파트 14단지 B상가 앞	양천구 신정동 330	126.871941	37.514664	-
797	목동아파트 1422동 1434동 사잇길	양천구 신정동 332-2	126.87249	37.515156	-
800	목월공원 앞	서울특별시 용산구 원효로4가 109-10	126.954742	37.532433	-
802	한강진역 2번 출구 앞	서울특별시 용산구 한남동 726-494	127.002213	37.541153	-
803	한남초교 앞 보도육교	서울특별시 용산구 한남동 725-17	127.004097	37.538139	-
805	문배어린이공원 앞	서울특별시 용산구 문배동 34-10	126.970001	37.536758	-
806	전자랜드 본관 앞	서울특별시 용산구 한강로3가 16-8	126.960732	37.533066	-
807	서울역 12번 출구 앞	서울특별시 용산구 동자동 14-229	126.972687	37.552277	-
808	서빙고동 금호맨션 앞	서울특별시 용산구 서빙고동 235-5	126.989738	37.520504	-
809	한남 유수지 복개주차장	서울특별시 용산구 독서당로 18	127.007439	37.530167	-
810	이태원지하보도	서울특별시 용산구 용산동2가 5-1812	126.986649	37.53841	-
811	녹사평역1번출구	서울특별시 용산구 용산동2가 6-7	126.985382	37.53508	-
812	용산전쟁기념관	서울특별시 용산구 용산동1가 8-4	126.977661	37.53484	-
813	삼각지역 3번출구	서울특별시 용산구 한강로1가 228-1	126.972275	37.533512	-
815	LIG강촌아파트 103동앞	서울특별시 용산구 이촌동301-5	126.978798	37.518509	-
816	신용산역 6번출구 앞	서울특별시 용산구 한강대로 115	126.968483	37.530148	-
817	삼각지역 4번출구 앞	서울특별시 용산구 한강대로 161	126.971733	37.533451	-
818	숙명여대 입구 교차로	서울특별시 용산구 청파로47길 100	126.969383	37.544895	-
819	선린인터넷 고등학교	서울특별시 용산구 원효로97길 33-4	126.970505	37.541653	-
820	청파동입구 교차로	서울특별시 용산구 한강대로 349	126.971947	37.549026	-
822	이촌1동 마을공원	서울특별시 용산구 이촌로 219	126.965523	37.522041	-
823	효창동주민센터 앞	서울특별시 용산구 효창원로 161	126.96196	37.54232	-
825	서빙고동 주민센터 앞	서울특별시 용산구 서빙고로 279	126.994263	37.520336	-
826	서울역 서부교차로2	서울특별시 용산구 만리재로 202	126.968643	37.555367	-
827	국군복지단	서울특별시 용산구 두텁바위로 54-99	126.97966	37.541885	-
828	숙대입구역 8번	서울특별시 용산구 한강대로 289	126.972	37.544079	-
829	베르가모앞	서울특별시 용산구 한강대로 23	126.961693	37.52293	-
830	청암자이아파트앞	서울특별시 용산구 원효로 35	126.94857	37.534424	-
831	831. 이태원관광특구입구	-	126.988564	37.534279	-
832	이촌1동 주민센터 뒤	서울특별시 용산구 이촌로71길 24	126.973465	37.521282	-
834	효창공원앞역 3번출구 뒤	서울특별시 용산구 백범로 지하 287	126.96138	37.539009	-
835	835. 남영역 건너편	-	126.971542	37.541981	-
836	현대자동차서비스 앞	서울특별시 용산구 원효로 74	126.9515	37.531422	-
837	837. 한남나들목 입구	-	127.006729	37.52906	-
838	838. 숙대입구역 4번출구	-	126.972389	37.54446	-
839	보광동 삼성리버빌아파트 앞	용산구 보광로5길 40	127.00145	37.52401	-
840	840. 용산 파크타워 앞	-	126.970268	37.523651	-
841	841. 신용산역 1번 출구	-	126.968872	37.52961	-
843	녹사평역 광장	용산구 이태원로 134	126.98867	37.533798	-
844	844. 이촌2동 동원베네스트 아파트 앞	-	126.955162	37.527149	-
845	845. 용산 선인상가	-	126.964378	37.5327	-
846	용산중학교	용산구 후암동 260	126.981041	37.546638	-
847	 국방부민원실옆	용산동3가 1번지 앞,(이태원로)	126.977501	37.534523	-
848	 삼각지12번 출구	한강로1가 24-7 	126.975052	37.535259	-
849	 삼각지 자이아파트	한강로1가 80-11 	126.973419	37.536079	-
850	 KCC용산월츠타워 	백범로90길 90	126.968926	37.537399	-
851	효창 푸르지오 앞	백범로 260	126.958115	37.540478	-
852	청암자이APT(103동)	청암동 92-1 	126.947182	37.534527	-
853	용산역 맞은편	한강로2가 408-5 	126.965691	37.528568	-
854	HID 유족동지회 앞	이태원로 271	127.001549	37.538727	-
855	이촌역5번출구 앞	서빙고로 83	126.972771	37.522724	-
857	 현대 안성타워	이태원로 217	126.998055	37.535023	-
858	녹사평역3번 출구	용산동4가 1-1	126.986893	37.534409	-
859	남산공원 야외식물원 앞	이태원동 259-16	126.995865	37.541885	-
860	LG한강 자이아파트 앞	용산구 이촌동 429 	126.970978	37.520695	-
861	삼익상가 앞	-	126.976341	37.519024	-
863	이촌역2번 출구	용산동5가 17	126.977005	37.52177	-
864	순천향대학병원(한남오거리)	한남동 705-5 (한남대로)	127.006004	37.535141	-
865	하얏트호텔 앞	한남동 산 10-138(소월로)	126.997849	37.540794	-
866	브라운스톤 남산아파트	후암동 458	126.97686	37.551548	-
867	서빙고역 광장(1번출구)	서빙고동241-14	126.989235	37.519909	-
868	롯데하이마트 용산점 앞	원효로208	126.965019	37.53722	-
869	노들섬 동측 앞	서울특별시 용산구 이촌동 303-8	126.959145	37.517296	-
870	노들섬 서측 앞	서울특별시 용산구 이촌동 304-11	126.958298	37.517319	-
900	은평예술회관	서울특별시 은평구 녹번동 85-4	126.927696	37.603943	-
901	응암1동사무소	서울특별시 은평구 응암동 84-14	126.926956	37.600975	-
902	진관동 은빛초등학교	서울특별시 은평구 진관동 45-21	126.918221	37.643108	-
903	은평뉴타운 아이파크	서울특별시 은평구 진관동 13-20	126.927391	37.645866	-
904	은평뉴타운 푸르지오	서울특별시 은평구 진관동 5-8	126.930702	37.648674	-
905	구파발역 2번출구	서울특별시 은평구 진관동 86-31	126.918999	37.636234	-
906	연신내역 5번출구150M 아래	서울특별시 은평구 대조동 207-8	126.919579	37.61721	-
907	CJ 드림시티	서울특별시 은평구 역촌동 43-11	126.916862	37.599491	-
908	구산역 4번출구	서울특별시 은평구 갈현동 536-8	126.917351	37.613186	-
909	백련산 힐스테이트 3차	서울특별시 은평구 응암동 761-9	126.922882	37.586994	-
911	은평평화공원(역촌역4번출구)	서울특별시 은평구 녹번동 153-31	126.922935	37.605583	-
912	응암오거리	서울특별시 은평구 응암동 604-5	126.916946	37.589661	-
913	이마트 은평점	서울특별시 은평구 응암동 90-15	126.920128	37.6007	-
914	새절역 2번출구	서울특별시 은평구 응암동 610-3	126.913651	37.590797	-
915	증산역 4번출구	서울특별시 은평구 증산동 199-8	126.909897	37.584381	-
916	평생학습관 앞	서울특별시 은평구 역촌동 15-40	126.921326	37.607849	-
917	녹번역 4번출구	서울특별시 은평구 녹번동 55	126.935349	37.601299	-
918	서부경찰서	-	126.920897	37.602043	-
919	서울혁신파크	서울특별시 은평구 녹번동 15-2	126.932503	37.607948	-
921	신도고등학교	서울특별시 은평구 진관동 242-14	126.919029	37.630016	-
922	연신내역 4번출구	서울특별시 은평구 대조동 227-2	126.921967	37.617802	-
923	국민은행 연서지점	서울특별시 은평구 불광동 355	126.925636	37.620949	-
924	메뚜기다리	서울특별시 은평구 진관동 161-9	126.929581	37.628517	-
925	불광역 2번출구	서울특별시 은평구 불광동 285-43	126.930977	37.609566	-
926	불광역 8번출구	서울특별시 은평구 불광동 276-6	126.929665	37.611179	-
927	연신내역 3번출구 인근	서울특별시 은평구 불광동 304-5	126.922523	37.617855	-
928	은평역사한옥박물관	서울특별시 은평구 진관동 133-29	126.938042	37.641315	-
929	국민은행 응암점	-	126.915823	37.600078	-
930	구 서부경찰서 건너편	서울특별시 은평구 역촌동 41-7	126.920303	37.601662	-
931	역촌파출소	서울특별시 은평구 역촌동 45-34	126.915337	37.604736	-
932	예일여중	서울특별시 은평구 연서로 117	126.916397	37.610004	-
933	LG서비스 역촌점	서울특별시 은평구 서오릉로 163	126.914879	37.612484	-
934	신사동 성당	서울특별시 은평구 신사동 41-3	126.909599	37.597141	-
935	역촌역 1번 출구	서울특별시 은평구 역촌동 17-55	126.922112	37.605202	-
937	상림마을 롯데캐슬2단지 옆	서울특별시 은평구 진관동 30-23	126.923798	37.645851	-
938	938. 금암 문화공원	-	126.918457	37.644684	-
939	은평구청 교차로	서울특별시 응암동 82-31	126.927422	37.6017	-
941	은평뉴타운 도서관	서울특별시 진관동 141-27	126.933701	37.63726	-
942	상림마을 생태공원	서울특별시 진관동 16-4	126.929283	37.644081	-
943	은평구청 보건소	서울특별시 녹번동 84	126.92865	37.602402	-
945	기자촌 사거리	서울특별시 은평구 진관동 149-17	126.932343	37.63414	-
946	946. 독바위역 	-	126.932884	37.618439	-
947	연신내 선일하이츠빌 정류소	서울특별시 불광동 484-165	126.919991	37.622669	-
948	디지털미디어 시티역 4번출구	서울특별시 증산동 239	126.902351	37.577202	-
949	연신내역 1번 출구 	서울특별시 불광동 487-2	126.920807	37.619781	-
950	구산역 2번 출구 	서울특별시 역촌동 1-57	126.917351	37.610779	-
951	951. 연신내역 6번출구옆	-	126.920593	37.619305	-
952	서울연신중학교	서울특별시 불광동 400-4번지	126.925247	37.62265	-
953	서울연신초등학교	서울특별시 불광동 73-1번지 	126.928818	37.625778	-
954	은평뉴타운구파발9단지	서울특별시 은평구 진관3로 77	126.921478	37.642609	-
956	응암시장교차로	서울특별시 은평구 응암로 248	126.918159	37.594376	-
958	958. 신한은행 응암동 지점 앞	-	126.922813	37.600361	-
959	959. 구파발10단지 인근	-	126.914558	37.643661	-
960	960. 구파발역 환승센터	-	126.919456	37.638252	-
961	961. 불광역 9번 출구	-	126.92981	37.61097	-
962	962. 은평뉴타운 힐데스하임	-	126.918907	37.639259	-
963	963. 대호프라자아파트	-	126.932579	37.614429	-
964	964. 북한산힐스테이트 7차아파트	-	126.925041	37.616112	-
965	965. 서울특별시 은평병원	-	126.923187	37.593479	-
966	966. 서울혁신파크1	-	126.934677	37.609032	-
967	967. 서울혁신파크2	-	126.932419	37.60891	-
968	968. 은평뉴타운 상림마을 13단지	-	126.929413	37.64209	-
969	은평 지웰테라스	은평구 진관4로 78-38	126.931877	37.64386	-
971	역촌 센트레빌 아파트	은평구 역촌동 221	126.906548	37.602329	-
972	수색역	수색로 261	126.894943	37.58218	-
973	제각말푸르지오 5-1단지 아파트	 은평구 진관동 144-7 	126.935844	37.637348	-
974	연신초등학교옆 마을마당	불광동69	126.929016	37.62672	-
975	백련산 힐스테이트상가앞	응암동백련산로38상가앞	126.923012	37.590363	-
976	진관고등학교앞	진관4로26	126.924103	37.643509	-
977	신도중학교앞	진관1로77-30	126.931503	37.633102	-
978	녹번 힐스테이트상가앞	통일로610	126.935928	37.601009	-
979	원풍빌라앞	은평터널로143	126.906082	37.591862	-
982	유니클로 은평점앞	서오릉로32	126.925087	37.604126	-
984	상신초등학교앞 버스정류장	가좌로316	126.910263	37.59581	-
985	은평온누리약국앞	은평로170	126.926384	37.601192	-
988	은평뉴타운 우물골2단지(제2경로당)	-	126.927624	37.634226	-
989	응암 꼬꼬닭치킨호프 앞	가좌로255	126.914833	37.591812	-
991	흥국사 정류장	은평구 진관동 298-2 	126.942009	37.656769	-
992	북한산입구 정류장	은평구 진관동 289 	126.94606	37.658428	-
993	은평뉴타운 온뜨락아파트앞	통일로972	126.919563	37.630287	-
994	북한산생태공원입구(교통섬)	불광동638-6	126.93911	37.610718	-
995	은평다목적체육관	진관1로40	126.925407	37.631409	-
996	응암역 1번출구	응암동471-6	126.915405	37.598606	-
1001	광진교 남단 사거리(디지털프라자앞)	서울특별시 강동구 구천면로 171	127.124718	37.541805	-
1002	해공공원(천호동)	서울특별시 강동구 올림픽로 702	127.125916	37.545219	-
1003	해공도서관앞	서울특별시 강동구 올림픽로 702	127.125458	37.543915	-
1004	삼성광나루아파트 버스정류장	서울특별시 강동구 상암로3길 77	127.12886	37.553349	-
1005	상일동역 4번 출구뒤 고덕우체국앞	강동구 고덕로 362	127.165665	37.556557	-
1006	롯데캐슬 115동앞	서울특별시 강동구 양재대로 1665	127.142799	37.55492	-
1007	암사동 선사유적지	서울특별시 강동구 올림픽로 875	127.130646	37.559063	-
1008	암사역 3번출구(국민은행앞)	서울특별시 강동구 올림픽로 지하 776	127.127151	37.549549	-
1009	천호역4번출구(현대백화점)	서울특별시 강동구 천호대로 지하 997	127.124214	37.538658	-
1010	강동세무서	서울특별시 강동구 천호대로 1139	127.138344	37.534481	-
1011	LIGA 아파트 앞	서울특별시 강동구 천호대로 1120	127.135239	37.534771	-
1012	서울 상운차량	서울특별시 강동구 올림픽로 610	127.122726	37.536026	-
1013	강동구청역 1번 출입구	서울특별시 강동구 올림픽로 지하 550	127.120926	37.530773	-
1014	강동구평생학습관앞	서울특별시 강동구 고덕로 295	127.142624	37.5508	-
1015	샛마을 근린공원	서울특별시 강동구 구천면로 431-2	127.146912	37.550079	-
1016	해뜨는 주유소옆 리엔파크 109동앞	서울특별시 강동구 상일로 152	127.171158	37.559399	-
1017	맥도날드(길동)	서울특별시 강동구 천호대로 1207	127.145172	37.535473	-
1018	둔촌 주공 GS 맞은편	서울특별시 강동구 양재대로 1330	127.135406	37.524681	-
1019	다성이즈빌아파트(호원대 대각선 맞은편)	서울특별시 강동구 성내로 91	127.130028	37.526825	-
1020	강동경찰서	서울특별시 강동구 성내로 57	127.126801	37.52829	-
1021	강일동 리슈빌 빌딩앞	서울특별시 강동구 아리수로 419	127.17395	37.564301	-
1022	길동 사거리(초소앞)	서울특별시 강동구 양재대로 1441	127.138031	37.533764	-
1023	한국종합기술사옥 앞	서울특별시 강동구 상일동 504 	127.17469	37.549999	-
1024	강동구청 앞	서울특별시 성내동 546-3 	127.123108	37.529251	-
1025	상일초등학교	서울특별시  상일동 440-3	127.172546	37.546696	-
1026	대명초교 입구 교차로	서울특별시 명일동 59	127.155884	37.546631	-
1027	프라자 아파트 앞	서울특별시 길동 176-3	127.147697	37.535999	-
1028	포레스 주상복합 빌딩	서울특별시 성내동 119-2	127.12278	37.5331	-
1029	롯데 시네마	서울특별시 성내동  44-1	127.125397	37.536541	-
1030	미호 플랜트 앞	서울특별시 성내동 478	127.12207	37.527061	-
1031	암사동 CBIS	서울특별시 암사동 440-13	127.129898	37.555851	-
1032	선사고등학교	서울특별시 암사동 445	127.136208	37.556728	-
1033	고덕동 아남아파트	서울특별시 고덕동 673	127.144707	37.557991	-
1034	고덕동 래미안 힐스테이트	서울특별시 고덕동 603	127.150749	37.561909	-
1035	고덕역 4번출구	서울특별시 명일동 46-5	127.155273	37.555016	-
1036	고덕동 주양쇼핑	서울특별시 명일동 48-2	127.153297	37.551998	-
1037	강일 6단지	서울특별시 강일동 448-2	127.177612	37.562588	-
1038	강일 다솜 어린이 공원	서울특별시 강일동 333-2	127.174797	37.568668	-
1039	고덕초등학교	서울특별시 고덕동 215	127.167801	37.561279	-
1040	강일동 에너지 마루	서울특별시 고덕동 375	127.16346	37.5672	-
1041	묘곡초등학교	서울특별시 고덕동 499-2	127.153297	37.559196	-
1042	강일 2.5단지 사이	서울특별시 강일동 63-20	127.177002	37.568562	-
1044	굽은다리역	서울특별시  양재대로 1572	127.142601	37.545399	-
1047	1047. 건강보험 강동지사kt	-	127.137253	37.536381	-
1048	1048. 동부기업(둔촌동)	-	127.142365	37.531013	-
1049	1049. 강일동 10단지 아파트	-	127.180267	37.56118	-
1050	1050.  둔촌역 3번 출입구	-	127.135529	37.526695	-
1051	1051. 양지시장 (용성약국앞) 입구	-	127.137321	37.554829	-
1052	1052. 리싸이클시티	-	127.156822	37.556469	-
1053	1053. 동명근린공원 진입로 (아리수로)	-	127.164528	37.562538	-
1054	1054. 말우물 어린이 공원	-	127.169579	37.560009	-
1056	1056. 강일리엔파크 7~11단지	-	127.179092	37.563332	-
1057	1057. 능골근린공원	-	127.173813	37.55579	-
1058	1058. 고덕숲 아이파크 1	-	127.165001	37.553471	-
1059	1059. 레미안 강동팰리스(102동)	-	127.131752	37.538181	-
1060	1060. 천일초교 사거리	-	127.132637	37.544659	-
1061	1061. 천호초교 입구 사거리(일주빌딩)	-	127.134621	37.546928	-
1062	1062. 고덕숲 아이파크 2	-	127.162621	37.551079	-
1063	강동롯데캐슬퍼스트 아파트(관리동)	강동구 고덕로 131	127.142738	37.556664	-
1064	중앙보훈병원역 1번출구	둔촌동 산17-4 	127.147644	37.527794	-
1065	보훈병원 정문옆(중앙대영약국)	동남로 635	127.149269	37.531208	-
1066	생태공원앞 교차로(조명탑)	강동구 둔촌동 564	127.152016	37.537766	-
1067	한영중고앞사거리	 명일동 59 	127.156403	37.549053	-
1068	명일파출소	동남로 895	127.156227	37.55365	-
1069	강동경희대학교병원 입구	동남로 892	127.156883	37.553055	-
1070	(시립)고덕평생학습관	고덕로 295	127.157921	37.555702	-
1071	명일근린공원공동체텃밭	상일동 145-6	127.159912	37.555687	-
1072	고덕역 5번출구	5호선 고덕역 5번출구 뒤	127.153725	37.554863	-
1073	SSTS 몰 앞	양재대로 1517	127.141052	37.541145	-
1074	대명초교입구 사거리	명일동 59 	127.149162	37.546837	-
1075	천동초교 삼거리	천호동 114-2 (정자 쉼터)	127.137184	37.541363	-
1076	전자랜드 길동점	양재대로 1504	127.141037	37.539894	-
1077	강동역 1번출구 앞	천호동 571-2 	127.132561	37.536205	-
1078	둔촌사거리	성내동 449-22 	127.133621	37.521976	-
1079	강일동입구교차로	강일동 607-7	127.170845	37.561844	-
1080	엘웨딩	천호대로 1052	127.128418	37.536831	-
1081	트레빌빌딩	천호동451-20	127.129532	37.536999	-
1082	중앙보훈병원역3번출구	둔촌동6-14	127.14901	37.52956	-
1083	광문고교사거리(아이파크)	고덕동302	127.156593	37.560368	-
1084	윤선생빌딩(JYP사옥)	강남대로207(윤선생빌딩)	127.129128	37.52393	-
1085	래미안 솔베뉴(고덕로)	양재대로1650	127.145874	37.554569	-
1086	래미안 솔베뉴(구천면로)	양재대로1650	127.145454	37.550598	-
1087	레미안 솔베뉴(양재대로)	-	127.144211	37.552612	-
1088	풍납사거리(강동)	성내동451-3	127.119522	37.528122	-
1089	고덕 래미안힐스테이트(201동)	고덕동 675	127.146698	37.5606	-
1090	상일동역 2번출구 앞	고덕로 333	127.166145	37.556789	-
1101	개화동상사마을종점 버스정류장	서울특별시 강서구 개화동로5길 3-8	126.798599	37.581612	-
1102	방화사거리 마을버스 버스정류장	서울특별시 강서구 양천로17길 6	126.811806	37.573643	-
1103	방화역 4번출구앞	서울특별시 강서구 금낭화로 135	126.812195	37.577221	-
1105	방화근린공원	서울특별시 강서구 금낭화로 176	126.812035	37.582447	-
1106	신방화사거리	서울특별시 강서구 방화대로 342	126.816452	37.573032	-
1108	공항시장역 1번출구	서울특별시 강서구 방화동로 지하 30	126.81015	37.56356	-
1109	공항시장역 4번출구	서울특별시 강서구 방화동로 지하 30	126.810486	37.563347	-
1110	공항중학교앞	서울특별시 강서구 방화대로 241	126.816238	37.562683	-
1111	마곡엠밸리6_7단지 마곡중학교	서울특별시 강서구 마곡중앙5로 58	126.8218	37.566982	-
1112	마곡엠밸리4단지 정문	서울특별시 강서구 마곡서로 175	126.824776	37.568577	-
1113	서남환경공원 버스정류장	서울특별시 강서구 양천로 201	126.822899	37.573093	-
1114	서남물재생센터 버스정류장	서울특별시 강서구 양천로 200	126.826279	37.572781	-
1115	등촌역 1번출구옆	서울특별시 강서구 공항대로59길 8	126.86409	37.551666	-
1117	스타벅스앞	서울특별시 강서구 공항대로 329	126.844261	37.558197	-
1118	증미역 3번출구뒤(등촌두산위브센티움오피스텔)	서울특별시 강서구 양천로 지하 560	126.861458	37.557461	-
1119	염창동 한마음아파트앞(염창동 빛나는 음악학원앞)	서울특별시 강서구 양천로 637	126.867561	37.554253	-
1120	대림경동아파트앞	서울특별시 강서구 허준로 121	126.853996	37.565189	-
1121	가양레포츠센터앞	서울특별시 강서구 양천로61길 101	126.86438	37.559479	-
1122	황금내근린공원	서울특별시 강서구 허준로 221-40	126.863869	37.561932	-
1123	공암나루근린공원 관리사무소옆	서울특별시 강서구 강서로80길 117	126.849503	37.57048	-
1124	발산역 6번출구옆(다이소앞)	서울특별시 강서구 공항대로 280	126.838287	37.557968	-
1125	명덕고교입구(영종빌딩)	서울특별시 강서구 강서로 304	126.836571	37.552914	-
1126	우장산역 1번출구옆(우장산아이파크105동앞)	서울특별시 강서구 강서로 지하 262	126.836563	37.548908	-
1127	화곡역(에이스정형외과앞) 버스정류장	서울특별시 강서구 화곡로 157	126.838547	37.540981	-
1128	화곡역 6번출구	서울특별시 강서구 화곡로 지하 168	126.840225	37.541412	-
1129	화곡역 1번 출구 앞	서울특별시 강서구 화곡로 지하 168	126.840218	37.542099	-
1130	화곡본동시장 버스정류장	서울특별시 강서구 화곡로 196	126.842621	37.542751	-
1131	꿈돌이공원 앞	서울특별시 강서구 화곡로 232	126.845459	37.546444	-
1132	등촌역 7번출구	서울특별시 강서구 공항대로 지하 529	126.863708	37.551109	-
1135	강서구의회	서울특별시 강서구 등촌로 185	126.862549	37.546532	-
1136	등촌2파출소	서울특별시 강서구 등촌로 167	126.862	37.544788	-
1137	등촌2동주민센터	서울특별시 강서구 등촌로 143	126.862411	37.543072	-
1139	용문사 버스정류장	서울특별시 강서구 등촌로 95	126.863396	37.537891	-
1140	목동사거리 버스정류장	서울특별시 강서구 등촌로 19	126.863609	37.531399	-
1141	곰달래 문화복지센터 1-1	서울특별시 강서구 강서로5길 50	126.84848	37.52906	-
1145	곰달래 문화복지센터 1-2	서울특별시 강서구 강서로5길 50	126.848083	37.528919	-
1146	곰달래사거리	서울특별시 강서구 곰달래로 51	126.838257	37.530338	-
1148	볏골공원	서울특별시 강서구 까치산로4길 22	126.84478	37.54147	-
1149	신방화역환승주차장	서울특별시 강서구 마곡서1로 111-12	126.818275	37.567284	-
1150	 송정역 1번출구	서울특별시 강서구 공항대로3길 18	126.810478	37.56155	-
1151	1151. 마곡역1번출구	-	126.823471	37.560234	-
1152	1152. 마곡역교차로	-	126.826614	37.558666	-
1153	 발산역 2번출구	서울특별시 강서구 공항대로 281	126.838097	37.55891	-
1155	 기쁜우리복지관	서울특별시 강서구 가양동 1458-15 	126.848419	37.56926	-
1157	1157. 강서구청	-	126.84977	37.550659	-
1158	 가양역 8번출구	서울특별시 강서구 양천로 지하 485	126.854813	37.561035	-
1159	 서서울모터리움앞	서울특별시 강서구 양천로53길 30	126.846596	37.565853	-
1160	 양천향교역 7번출구앞	서울특별시 강서구 양천로 지하 341	126.840897	37.56768	-
1161	 강서면허시험장앞	서울특별시 강서구 남부순환로 171	126.819664	37.549694	-
1162	 공항초등학교건너편	서울특별시 강서구 마곡서1로 68	126.820473	37.562679	-
1163	 방화동강서기동대앞	서울특별시 강서구 방화대로34길 65	126.820084	37.570499	-
1165	1165. 마곡중학교 후문	-	126.821648	37.568447	-
1166	 강서구립등빛도서관	서울특별시 강서구 강서로62길 48	126.842461	37.562569	-
1167	1167. 마곡수명산파크3단지 교차로	-	126.825928	37.553467	-
1168	1168. 마곡엠밸리10단지 앞	-	126.819069	37.560226	-
1169	1169. 염창역 1번 출구	-	126.874489	37.547199	-
1170	1170. 강서구보건소 (삼성디지털 프라자)	-	126.868797	37.549179	-
1171	1171. 염창동 새마을금고 건너편 (모닝글로리)	-	126.873161	37.550049	-
1172	1172. 가양3동 주민센터	-	126.86058	37.561249	-
1173	1173. 강서구청사거리(SH타워)	-	126.853317	37.556259	-
1174	1174. 강서구청사거리(부민병원)	-	126.851471	37.556599	-
1175	1175. 대한항공 인력개발센터	-	126.857536	37.554379	-
1177	1177. 수명중?고교	-	126.823677	37.55011	-
1178	1178. 개화산역 2번 출구	-	126.806168	37.572472	-
1180	1180. 마곡엠밸리 15단지(1502동) 건너편	-	126.82972	37.557468	-
1181	1181. 농수산식품공사 (강서지사)	-	126.818497	37.551044	-
1182	1182. KBS 스포츠월드	-	126.848808	37.556877	-
1183	KC 대학교	강서구 까치산로 24길 47	126.853401	37.548321	-
1184	1184. 마곡13단지	-	126.815979	37.55645	-
1185	1185. 등촌9단지	-	126.849472	37.562901	-
1186	1186. 송정중학교	-	126.816093	37.554729	-
1187	강서수산물도매시장	강서구 외발산동 424	126.818367	37.55302	-
1188	1188. 롯데중앙연구소	-	126.828339	37.571381	-
1190	1190. 마곡역 교차로(2번출구)	-	126.826653	37.560501	-
1191	1191. 마곡역 교차로(NH농협)	-	126.827164	37.560242	-
1192	마곡수명산파크 209동 건너편	강서구 내발산동 741-8	126.826759	37.555538	-
1193	마곡센트럴타워1차	강서구 마곡동 727-1136	126.832077	37.559471	-
1194	1194. 센서택㈜	-	126.836823	37.563301	-
1195	1195. 코오롱one&only타워	-	126.834312	37.564129	-
1196	1196. 서울식물원(문화센터) 건너편	-	126.835831	37.568241	-
1197	1197. 엘펠리체 호텔 건너편	-	126.835403	37.560429	-
1198	1198. LG 사이언스파크	-	126.827438	37.56255	-
1199	우장산역 3번출구	강서구 화곡동 1006-2	126.836128	37.547821	-
1200	개화광역환승센터	강서구 개화동 492-22	126.798973	37.578449	-
1201	가락시장역 3번 출구	서울특별시 송파구 송파대로 지하 257	127.118546	37.493179	-
1203	밀리아나2빌딩 앞	서울특별시 송파구 송파대로28길 24	127.120621	37.493729	-
1204	거여역 3번출구	서울특별시 송파구 오금로 지하 499	127.14473	37.493343	-
1205	종합운동장역 4번출구	서울특별시 송파구 올림픽로 8	127.071373	37.510429	-
1206	9호선종합운동장역 9번출구	서울특별시 송파구 올림픽로 지하 23	127.078239	37.51128	-
1207	마천CU우방점 앞	서울특별시 송파구 성내천로 233	127.152504	37.499756	-
1208	풍납현대아파트쉼터	서울특별시 송파구 풍성로14길 19	127.119789	37.529675	-
1209	잠실나루역 (2번 출구 쪽)	서울특별시 송파구 오금로 20	127.104202	37.520451	-
1210	롯데월드타워(잠실역2번출구 쪽)	서울특별시 송파구 올림픽로 293-19	127.10096	37.513126	-
1211	방이삼거리	서울특별시 송파구 석촌호수로 298	127.10778	37.512104	-
1212	송파역 2번 출구앞	서울특별시 송파구 송파대로 지하 354	127.112869	37.499413	-
1213	백토공원 앞	서울특별시 송파구 양재대로72길 47-8	127.132736	37.50766	-
1214	오금역 7번 출구 인근	서울특별시 송파구 오금로 지하 321	127.127647	37.502594	-
1215	올림픽공원역 1번출구 앞	서울특별시 송파구 양재대로 지하 1233	127.131538	37.516571	-
1217	송파파인타운 7단지	서울특별시 송파구 충민로4길 19	127.129578	37.479271	-
1218	방이역 4번출구	서울특별시 송파구 양재대로 지하 1127	127.125839	37.508968	-
1220	잠실본동주민센터뒤 잠실근린공원	서울특별시 송파구 백제고분로15길 7	127.084038	37.505692	-
1221	삼전사거리 포스코더샵	서울특별시 송파구 백제고분로 188	127.087532	37.5042	-
1222	잠실새내역 5번 출구 뒤	서울특별시 송파구 백제고분로 95	127.085052	37.511982	-
1224	아시아지하보도 2번 출구	서울특별시 송파구 올림픽로 74	127.078934	37.512169	-
1226	잠실4동 주민센터 옆	서울특별시 송파구 올림픽로35길 16	127.112366	37.520077	-
1227	거여역 8번출구 뒤	서울특별시 송파구 오금로 지하 499	127.143822	37.493126	-
1228	마천사거리	서울특별시 송파구 거마로 51	127.146202	37.4977	-
1229	송파체육문화회관 앞	서울특별시 송파구 양산로 15	127.143127	37.490688	-
1230	송파중학교 정문	서울특별시 송파구 동남로 203	127.130592	37.49567	-
1231	잠실역 6번출구	서울특별시 송파구 석촌호수로12길 3-5	127.09903	37.514088	-
1232	롯데마트 주차장 옆	서울특별시 송파구 석촌호수로12길 3-19	127.096191	37.512089	-
1233	잠실3거리(갤러리아팰리스)	서울특별시 송파구 석촌호수로12길 3-17	127.093369	37.510509	-
1234	레이크팰리스 동문우측	-	127.097346	37.508902	-
1235	잠실트리지움310동 옆	서울특별시 송파구 잠실로 62	127.088142	37.508339	-
1239	문정 법조단지3	서울특별시 송파구 정의로 30	127.118011	37.480843	-
1240	문정 법조단지4	서울특별시 송파구 새말로 62	127.118568	37.480576	-
1241	문정 법조단지5	서울특별시 송파구 새말로 62	127.119797	37.481239	-
1242	문정 법조단지6	서울특별시 송파구 법원로 101	127.119743	37.48209	-
1243	문정 법조단지7	서울특별시 송파구 법원로 101	127.120163	37.484531	-
1244	문정 법조단지8	서울특별시 송파구 법원로 101	127.122124	37.481537	-
1245	문정 법조단지9	서울특별시 송파구 법원로 101	127.125328	37.479465	-
1246	문정 법조단지10	서울특별시 송파구 송파대로 지하 82	127.126328	37.477509	-
1247	문정 법조단지11	서울특별시 송파구 법원로 101	127.123512	37.478821	-
1248	방이초등학교	서울특별시 송파구 위례성대로 114	127.121674	37.513962	-
1249	아주중학교건너편	서울특별시 송파구 도곡로 446	127.077347	37.505463	-
1250	문정2동 주민센터	서울특별시 송파구 중대로 16	127.110748	37.490047	-
1251	석촌역 2번출구	서울특별시 송파구 송파동 68 	127.10775	37.505932	-
1253	오금역 3번 출구 뒤	서울특별시  송파구 가락동 10-15 	127.128181	37.501652	-
1256	문정현대아파트 교차로	서울특별시 송파구 문정동 3-2 	127.125809	37.491131	-
1257	가락시장역 롯데마트앞	서울특별시 송파구 가락동 214-15 	127.117752	37.4921	-
1258	가락미륭아파트 앞	서울특별시 서울 송파구 가락동 195-4	127.128998	37.493198	-
1259	방이역 1번출구	서울특별시 송파구 오금동 17-20	127.126595	37.508984	-
1260	 방이동 한양3차아파트 옆	서울특별시 송파구 방이동 225-1	127.121399	37.506302	-
1261	석촌역 1번출구 앞	서울특별시 송파구 송파동 69 	127.107056	37.505829	-
1262	송파여성문화회관 앞	서울특별시 송파구 송파동 2-3 	127.109718	37.505802	-
1263	장지공영차고지	서울특별시 송파구 장지동 861-6	127.137016	37.480541	-
1264	천호역 10번 출구 앞	서울특별시 송파구 풍납동 490-16	127.122803	37.538582	-
1265	문정동 근린공원	서울특별시 송파구 문정동 38-3	127.124802	37.486149	-
1266	문정동 글샘 공원	서울특별시 송파구 문정동 627	127.120003	37.478809	-
1267	올림픽공원 남2문 앞	서울특별시 송파구 올림픽로 424	127.12307	37.51424	-
1268	1268. 몽촌토성역 1번출구 옆	-	127.114197	37.517288	-
1269	리센츠아파트	서울특별시 송파구 올림픽로 135	127.091217	37.511944	-
1271	송파도서관	서울특별시 송파구 동남로 263	127.135391	37.499985	-
1274	영파여고 앞	서울특별시 송파구 올림픽로 565	127.121048	37.532848	-
1275	 거여초등학교 옆	서울특별시 송파구 마천로25길 18	127.139366	37.504589	-
1277	 오금동 송파 참병원	서울특별시 송파구 마천로 164	127.137093	37.503757	-
1278	1278. 송파구청 교차로	-	127.106796	37.515831	-
1279	 마천금호어울림 1차아파트 건너편	서울특별시 송파구 성내천로39길 4	127.154678	37.497517	-
1280	1280. 송파파크데일 2단지입구 앞 주차장	-	127.157173	37.495659	-
1282	1282. 송파소방서 맞은편(성내4교)	-	127.141479	37.499874	-
1283	1283. 오금공원 사거리	-	127.131752	37.505455	-
1285	1285. 위례별 유치원 뒤	-	127.144592	37.47747	-
1286	1286. 위례중앙푸르지오 1단지 앞	-	127.140671	37.474377	-
1287	1287. 위례아이파크 101동 맞은편	-	127.141518	37.477531	-
1288	1288. 문정중교 사거리	-	127.131088	37.487999	-
1289	1289. 풍납동 자전거보관소	-	127.111092	37.531471	-
1290	1290. 위례송파꿈에그린아파트24단지 앞 성벽 다리 밑	-	127.137718	37.474659	-
1291	1291. 서울체육고등학교 앞	-	127.131866	37.521938	-
1293	1293. 석촌호교차로 (스타벅스 앞)	-	127.096558	37.506561	-
1295	1295. 잠실역 8번출구	-	127.100304	37.513962	-
1296	1296. 석촌호수교차로 (송파나루근린공원 앞)	-	127.103432	37.508678	-
1297	1297. 석촌호수교차로(동호 팔각정 앞)	-	127.104118	37.509201	-
1299	1299. 송파소방서 (방이119안전센터)	-	127.136711	37.519878	-
1300	1300. 오륜사거리	-	127.139221	37.506939	-
1301	홍익중고 입구	서울특별시 성북구 성북로 62	127.002357	37.592758	-
1302	한성대입구역6번출구 뒤	서울특별시 성북구 동소문로 1	127.00631	37.588764	-
1303	돈암초교 입구	서울특별시 성북구 동소문로13길 38	127.012497	37.591694	-
1304	만해공원	서울특별시 성북구 성북로 132-1	126.99231	37.594402	-
1305	성북구청	서울특별시 성북구 보문로 168	127.016434	37.589329	-
1306	한성대입구역2번출구	서울특별시 성북구 동소문로 2	127.006706	37.588448	-
1308	안암로터리 버스정류장 앞	서울특별시 성북구 안암로 69	127.028976	37.582592	-
1313	정릉현대힐스테이트 1차 후문	서울특별시 성북구 정릉로27가길 28-2	127.014648	37.603249	-
1314	정릉꿈에그린1단지 201동 앞	서울특별시 성북구 아리랑로19길 20	127.011688	37.60244	-
1315	고려사대부속중고 정문	서울특별시 성북구 보국문로29길 23	127.003281	37.607761	-
1316	고려사대부속중고 건너편	서울특별시 성북구 보국문로29길 23	127.002838	37.607262	-
1317	정릉동 교통광장	서울특별시 성북구 솔샘로17길 8	127.006531	37.612774	-
1318	길음역 3번출구 뒤	서울특별시 성북구 동소문로 248	127.024788	37.603085	-
1319	종암사거리 분수대	서울특별시 성북구 종암로 147	127.033272	37.603043	-
1320	종암 농협지점 앞	서울특별시 성북구 종암로 88	127.035027	37.59827	-
1321	국민은행 종암동지점 앞	서울특별시 성북구 종암로3길 37-2	127.036667	37.593288	-
1322	래미안라센트아파트 103동 앞	서울특별시 성북구 종암로3길 37-2	127.039276	37.598068	-
1323	월곡역 입구 육교 밑	서울특별시 성북구 월곡로 지하 107	127.039902	37.60104	-
1325	상월곡역 4번출구	서울특별시 성북구 화랑로 148	127.047737	37.605808	-
1326	상월곡역 1번출구	서울특별시 성북구 화랑로 지하 157	127.047318	37.606068	-
1327	상월곡역 3번출구	서울특별시 성북구 화랑로 지하 157	127.050682	37.607342	-
1328	월곡역 3번출구	서울특별시 성북구 월곡로 지하 107	127.041634	37.602627	-
1332	석계역 5번출구 건너편	서울특별시 노원구 화랑로 지하 347-1	127.066093	37.613556	-
1333	석관초등학교 앞	서울특별시 성북구 돌곶이로22길 21	127.059799	37.610523	-
1334	석관동주민센터 앞	서울특별시 성북구 화랑로 296	127.06131	37.612999	-
1335	석관동 하이마트 사거리	-	127.062534	37.610876	-
1336	성북3교 위	서울특별시 성북구 보문로 192	127.014008	37.591251	-
1337	돈암성당 옆	서울특별시 성북구 인촌로7길 120	127.017136	37.590382	-
1338	용문2교 옆	서울특별시 성북구 인촌로7길 24	127.020752	37.586899	-
1339	삼성전자서비스 성북센터	서울특별시 성북구 월계로 28	127.033508	37.610569	-
1340	광운초등학교 앞	서울특별시 성북구 한천로 693	127.053802	37.61956	-
1342	성북쉼터 앞	서울특별시 성북구 성북로21길 32	126.997932	37.592617	-
1343	한성대7번출구 앞	서울특별시 성북구 동소문로 11	127.007378	37.589249	-
1344	아리랑시네센터 앞	서울특별시 성북구 아리랑로 82	127.013702	37.600288	-
1346	길음8골어린이공원 옆	서울특별시 성북구 길음로13길 22	127.020248	37.608978	-
1347	길음래미안아파트817동 상가 앞	서울특별시 성북구 길음로 33	127.0215	37.607105	-
1348	성북제일새마을금고 본점 앞	서울특별시 성북구 길음로 20	127.022758	37.604752	-
1349	월계2교 버스정류장 앞	서울특별시 성북구 한천로101길 18	127.050201	37.623829	-
1351	SK제삼주유소 앞	서울특별시 성북구 안암로 17	127.024193	37.579449	-
1352	e 편한세상 보문아파트 내	서울특별시 성북구 낙산길 255	127.017097	37.583881	-
1353	금호어울림센터힐 내	서울특별시 성북구 동소문로34길 73	127.023552	37.60083	-
1354	1354. 고려대학교 2번출구	-	127.036194	37.590714	-
1355	1355. 보문2교	-	127.018913	37.588699	-
1357	 북한산보국문역	서울특별시 성북구 보국문로 91	127.008133	37.612072	-
1358	 정릉도서관 앞	서울특별시 성북구 보국문로 7-10	127.010582	37.60479	-
1359	 장위뉴타운 꿈에 숲 코오롱 하늘채 앞	서울특별시 성북구 월계로 172	127.045097	37.619801	-
1360	1360. 정릉역	-	127.013504	37.603096	-
1361	1361. 홍익중고 입구	-	127.002121	37.592842	-
1362	1362. 보문역6번출구 앞	-	127.019676	37.585098	-
1363	1363. 보문4교 인근	-	127.02195	37.583752	-
1364	1364. 성북동 치안센터 앞	-	127.004089	37.590172	-
1365	1365. 선잠단지 앞	-	126.999092	37.593361	-
1366	1366. 일신초등학교 옆	-	127.040382	37.59972	-
1367	1367. 길음문화복합미디어센터	-	127.02256	37.603512	-
1368	1368. 성신여대입구 교차로	-	127.020103	37.59148	-
1369	1369. 미아사거리	-	127.030029	37.609131	-
1370	1370. 복자사랑 피정의 집	-	126.995209	37.59454	-
1372	1372. KEB은행 고대점	-	127.03196	37.586559	-
1373	1373. 성북구보건소 건너편	-	127.038979	37.602291	-
1375	생명의 전화 종합복지관 앞 교차로	하월곡동 96-1	127.037376	37.603909	-
1376	한국과학기술연구원 중문	서울특별시 성북구 화랑로14길 5	127.04538	37.600239	-
1377	한국과학기술연구원 북문	서울특별시 성북구 화랑로14길 5	127.045341	37.603958	-
1379	길음뉴타운푸르지오아파트 3단지	성북구 길음동	127.018173	37.60936	-
1380	월곡역 5번출구 앞	하월곡동 226-8(도로)	127.041237	37.601086	-
1381	석계역 4번출구 뒤	성북구 석관동 375-42	127.067001	37.614784	-
1382	월곡래미안아파트 입구	성북구 하월곡동 225-5(공)	127.0363236	37.60843277	-
1383	성북동 주민센터 건너편	-	127.003596	37.591154	-
1384	성신여대입구역 5번출구	성북구 동선동 133-2 앞	127.016289	37.592827	-
1385	성신여대입구역 3번출구 앞	성북구 동소문동5가 65-16	127.016289	37.592365	-
1386	동선고가차도 초입	성북구 동선동1가 118-2(도로)(동선동1가 120-1 건물 옆)	127.018967	37.594158	-
1388	커핀그루나루	성북구 동소문동3가 65-3	127.011704	37.590881	-
1390	석관래미안아트리치	석관동 323-15앞	127.061623	37.606461	-
1391	성북청소년센터	성북구 장위동 135-4	127.056244	37.617073	-
1392	돈암삼성풍림아파트	성북구 돈암동 632-6도	127.022629	37.597099	-
1393	미아 구름다리	돈암동 51-30	127.021507	37.597778	-
1394	길음뉴타운 래미안9단지	성북구 길음동 1286-12	127.019714	37.602417	-
1395	레미안장위포레카운티(102동)	성북구 장위동 143-1	127.051834	37.618179	-
1396	레미안장위퍼스트하이(513동)	성북구 장위동 201-6	127.051453	37.618443	-
1397	래미안월곡아파트 (창문여고 건터편)	-	127.036862	37.612396	-
1401	극동늘푸른아파트	서울특별시 중랑구 동일로 941	127.076363	37.614738	-
1402	금란주차장 앞	서울특별시 중랑구 망우로 448	127.102333	37.600071	-
1403	중화빌딩 앞 (동부시장)	서울특별시 중랑구 망우로 211	127.076576	37.59425	-
1404	동일로 지하차도	서울특별시 중랑구 망우로 233	127.080032	37.595299	-
1405	망우역 1번출구	서울특별시 중랑구 망우로55길 11-10	127.092949	37.599098	-
1406	망우청소년수련관	서울특별시 중랑구 송림길 156	127.108269	37.606251	-
1407	먹골역 1번출구 뒤	서울특별시 중랑구 공릉로 12	127.077888	37.611511	-
1408	먹골역 6번출구 앞	서울특별시 중랑구 동일로 지하 901	127.077477	37.610722	-
1410	면목 대원칸타빌아파트	서울특별시 중랑구 용마산로 285	127.090187	37.577782	-
1411	상봉시장앞 교차로 한성빌딩 앞	서울특별시 중랑구 면목로 456	127.086739	37.592541	-
1412	면목초등학교	서울특별시 중랑구 면목로 434	127.087067	37.590961	-
1413	봉화산역 5번출구 뒤	서울특별시 중랑구 신내로 지하 232	127.090309	37.617561	-
1414	사가정역 1번출구	서울특별시 중랑구 사가정로 지하 393	127.088432	37.581646	-
1416	상봉역 3번출구	서울특별시 중랑구 면목로 480	127.085999	37.595219	-
1418	새솔초등학교	서울특별시 중랑구 신내역로1길 164	127.110542	37.617989	-
1420	신내어울공원 앞	서울특별시 중랑구 신내로16길 17	127.096764	37.614231	-
1421	신내역 4번출구	서울특별시 중랑구 신내로 지하 232	127.103378	37.612461	-
1422	신내우디안아파트 1단지	서울특별시 중랑구 신내역로 213	127.106461	37.620098	-
1424	양원역 2번출구	서울특별시 중랑구 송림길 147	127.107742	37.606312	-
1425	용마문화복지센터	서울특별시 중랑구 용마산로86길 9-27	127.09597	37.58746	-
1426	면목도시개발아파트 1동 앞	서울특별시 중랑구 용마산로 지하 227	127.086823	37.573589	-
1427	용마산역 1번출구	서울특별시 중랑구 용마산로 지하 227	127.086914	37.574299	-
1428	원묵고등학교	서울특별시 중랑구 숙선옹주로 66	127.085968	37.616024	-
1429	장안중학교	서울특별시 중랑구 동일로 778	127.080002	37.599957	-
1430	중랑구청	서울특별시 중랑구 봉화산로 179	127.092598	37.606152	-
1431	중랑구청 사거리	서울특별시 중랑구 봉화산로 194	127.095451	37.606499	-
1433	중화역 2번출구	서울특별시 중랑구 동일로 지하 797	127.079582	37.602077	-
1434	홈플러스 면목동점	서울특별시 중랑구 사가정로 332	127.082367	37.579868	-
1435	능산삼거리	서울특별시 중랑구 용마산로 644	127.100792	37.608681	-
1436	영풍마드레빌	서울특별시 중랑구 용마산로129가길 41	127.100632	37.605881	-
1437	늘푸른공원 앞	서울특별시 중랑구 동일로 594	127.079926	37.58342	-
1438	홈플러스 신내점 앞	서울특별시 중랑구 신내로 지하 232	127.093483	37.616169	-
1440	하나은행 면목지점	서울특별시 중랑구 동일로 628	127.08007	37.586372	-
1441	신내능말공원	서울특별시 중랑구 용마산로136길 33	127.110733	37.616711	-
1442	(구)신한은행 중랑교지점	서울특별시 중화동 50-8	127.079819	37.598591	-
1443	구립망우청소년독서실	서울특별시 중랑구 망우동 534-23 	127.098778	37.59552	-
1444	1444. 면목4치안센터	-	127.080544	37.574028	-
1445	용마지구대	서울특별시 면목동 197-5	127.079399	37.579941	-
1446	중랑전화국 교차로	서울특별시 중랑구 면목동 282-8	127.08033	37.591301	-
1447	면목역 3번출구	서울특별시 면목동 120-2	127.08728	37.588902	-
1448	코스트코 상봉점	서울특별시 상봉동 160-3	127.089798	37.597321	-
1449	 상봉역 1번출구	서울특별시 중랑구 망우로 297	127.085838	37.596558	-
1450	 화랑대역 7번출구	서울특별시 노원구 화랑로 지하 510	127.085014	37.619625	-
1451	 중랑세무서	서울특별시 중랑구 망우로 176	127.07267	37.592758	-
1452	1452. 겸재교 진입부	-	127.07505	37.585655	-
1453	1453. 중랑캠핑숲	-	127.109253	37.604603	-
1454	1454. 한국전력공사(동대문 중랑지사)	-	127.07859	37.607349	-
1455	 상봉역 2번 출구	서울특별시 중랑구 망우로 297	127.085899	37.596329	-
1456	 상아빌딩(우림시장 교차로)	서울특별시 중랑구 용마산로 494	127.100327	37.595112	-
1457	1457. 동원사거리	-	127.093239	37.58976	-
1458	1458. 상봉터미널2	-	127.093086	37.59734	-
1459	1459. 용마한신아파트사거리	-	127.092651	37.580349	-
1461	동양엔파트 앞	중랑구 망우로 203(중화동)	127.075073	37.593853	-
1462	동부시장 북문 앞	중랑구 망우로 214(상봉동)	127.076523	37.593868	-
1463	중랑구민회관	면목로238	127.084831	37.573887	-
1464	중화역 4번출구	동일로 813	127.079002	37.603054	-
1465	중랑공영차고지 옆	서울시 중랑구 신내동 63-6	127.105148	37.613148	-
1466	두산대림아파트 삼거리	신내로 23길 9	127.08757	37.618824	-
1467	sk신내 주유소앞(용마산로)	신내동 352-2	127.101151	37.613621	-
1468	먹골역 7번 출구	동일로 909	127.077393	37.611477	-
1469	먹골역 4번출구	동일로 890	127.078133	37.609821	-
1470	중화동 우리은행 앞	동일로 837	127.078583	37.605202	-
1471	동양쇼핑 정류소 앞	묵동 198-7	127.078491	37.615353	-
1472	영성빌딩(PAT)	동일로 824	127.079231	37.604084	-
1473	중랑역 1번 출구(중화문화복지센터)	중랑역로3길 28	127.074951	37.594891	-
1474	서울중랑우체국	망우로 271	127.08284	37.595814	-
1475	보도 육교(타이어뱅크앞)	-	127.08006	37.592838	-
1476	중목초등학교 앞 육교	-	127.079922	37.589715	-
1477	면목삼익아파트 앞	동일로 501	127.079605	37.575985	-
1478	홈플러스 상봉점 앞	망우로 353	127.091263	37.597885	-
1479	면목 홈플러스 2 	중랑구 사가정로 326	127.082092	37.581055	-
1480	 용마지구대 옆	중랑구 동일로 566	127.080101	37.581112	-
1501	미아역 3번,4번 출구 사이	서울특별시 강북구 도봉로 196	127.026482	37.62608	-
1503	이디야 커피 수유역점 앞	서울특별시 강북구 도봉로 355	127.026756	37.639278	-
1504	다이소 삼양시장점	서울특별시 강북구 삼양로 234	127.018623	37.624157	-
1506	강북문화예술회관	서울특별시 강북구 삼각산로 85	127.012985	37.641018	-
1509	서울북부수도사업소	서울특별시 강북구 한천로 935	127.035751	37.634377	-
1510	번동주공5단지 관리사무소 앞	서울특별시 강북구 오현로25마길 27	127.035515	37.633717	-
1511	번동 금호어울림아파트102동앞	서울특별시 강북구 오현로31길 85-7	127.036034	37.631123	-
1512	강북중학교 앞	서울특별시 강북구 한천로150길 67	127.026566	37.644737	-
1513	강북구청 뒷편	서울특별시 강북구 도봉로89길 13	127.025124	37.639648	-
1514	강북구청 사거리 버스정류소 앞	서울특별시 강북구 한천로 1009	127.028358	37.638805	-
1515	송천동 주민센터	서울특별시 강북구 솔샘로 284	127.024048	37.618286	-
1516	우이초등학교 후문 옆	서울특별시 강북구 삼양로99길 33	127.015907	37.638706	-
1517	우이초등학교 앞 사거리공원	서울특별시 강북구 삼각산로22길 2-4	127.016708	37.640095	-
1518	SK telecom(수유직영점) 앞	서울특별시 강북구 삼양로 439	127.016167	37.643085	-
1519	세븐일레븐 수유장미원점 앞	서울특별시 강북구 삼양로 474	127.015617	37.645451	-
1520	성실교회	서울특별시 강북구 노해로 50	127.022789	37.639862	-
1522	월드전기조명인테리어(우이동)	서울특별시 도봉구 삼양로 574	127.012756	37.654472	-
1525	미아동 복합청사	서울특별시 강북구 솔매로49길 14	127.026695	37.62714	-
1526	수유동 채선당앞	서울특별시 강북구 수유동 140	127.024628	37.641739	-
1527	미아역 1번 출구 뒤	서울특별시 강북구 미아동 194-1	127.026054	37.627335	-
1528	삼각산동 주민센터	서울특별시 미아동 813-8	127.020699	37.615036	-
1529	미아동 한국전력공사	서울특별시 미아동 194-1	127.02491	37.63018	-
1530	광산사거리	서울특별시 강북구 노해로 87 	127.022346	37.643551	-
1531	미아사거리 1번 출구	서울특별시 강북구 미아동 66-1	127.030251	37.613956	-
1532	번3동 주민센터 교차로	서울특별시 강북구 번동 2-2	127.047447	37.626354	-
1533	번동 주공3, 4단지 교차로	서울특별시 강북구 번동 254	127.040916	37.629917	-
1534	북서울 꿈의 숲 동문	서울특별시 강북구 번동 105	127.044533	37.619637	-
1535	효성인텔리안 앞	서울특별시 수유동 230-7	127.023376	37.636292	-
1536	번동 두산위브 101동 옆	서울특별시 번동 386-17	127.032173	37.636261	-
1537	1537. 북한산 우이역	-	127.012428	37.663666	-
1538	 솔밭공원역	서울특별시 강북구 삼양로 595	127.013138	37.656158	-
1539	 4.19민주묘지역	서울특별시 강북구 삼양로 519	127.013451	37.649673	-
1540	1540. 가오리역	-	127.016884	37.64167	-
1541	 삼양역	서울특별시 강북구 삼양로 263	127.018059	37.62653	-
1542	1542. 삼양사거리역	-	127.02037	37.621552	-
1543	1543. 수유1동 주민센터	-	127.017738	37.630188	-
1545	1545. 솔샘역 2번 출구	-	127.01368	37.62038	-
1546	1546. 송천동우체국	-	127.029701	37.615459	-
1547	꿈의숲 롯데캐슬	강북구 미아동 1-46	127.03624	37.618641	-
1548	북서울 꿈의숲 서문	강북구 번동 123	127.037811	37.622688	-
1550	삼각산아이원아파트(105동 옆)	강북구 삼양로 19길 113	127.018509	37.615223	-
1551	4.19탑 앞	수유동 567-69	127.008812	37.646862	-
1552	강북구청사거리(던킨도너츠 앞)	강북구 번동 418-1	127.027237	37.639202	-
1553	예수그리스도후기성도교회 앞	강북구 번동 433-1	127.033966	37.635204	-
1554	번동사거리	강북구 번동 430-76	127.034554	37.635391	-
1557	신창교	강북구 번동 612-3	127.039307	37.632381	-
1558	강북문화정보도서관	강북구 번동 139-5	127.037323	37.625526	-
1560	도봉세무서 앞	강북구 도봉로 117	127.028526	37.619808	-
1564	4.19민주묘지역 1번출구	우이동72-229	127.013847	37.649597	-
1565	대한병원앞	수유동45-7	127.022995	37.635612	-
1566	삼각산 아이언APT앞	-	127.017018	37.616119	불확실. 아이원아파트 정문앞인 듯 하지만 확실치 않음
1568	4.19민주묘지 입구사거리	강북구 삼양료 504	127.014572	37.647934	-
1569	수유역2번출구	강북구 수유동	127.025902	37.63797	-
1571	북서울 꿈의숲 입구	번3동 139-4	127.0387726	37.62673187	-
1572	우이산 입구	우이동 207-14	127.0118408	37.66446304	-
1573	현대성우아파트 옆	미아동 670-33	127.02211	37.61666489	-
1574	송중초등학교 옆	미아동 98-42	127.0304947	37.61669922	-
1601	석계역 문화광장 내 자전거 보관소	서울특별시 노원구 화랑로 331	127.064056	37.615128	-
1602	광운대역 앞	서울특별시 노원구 석계로 98-2	127.061897	37.622662	-
1603	롯데캐슬 102동 코너(월계주유소건너)	서울특별시 노원구 월계로 252	127.05014	37.624859	-
1605	헬스케어	서울특별시 노원구 월계로 378	127.061615	37.631622	-
1606	태릉입구역 3번출구	서울특별시 노원구 동일로 지하 992-1	127.074928	37.619171	-
1608	공릉역 1번 출구 앞	서울특별시 노원구 동일로 지하 1074	127.072754	37.626614	-
1610	화랑대역 2번출구 앞	서울특별시 노원구 화랑로 지하 510	127.083641	37.620369	-
1611	과기대 입구(우)	서울특별시 노원구 공릉로 232	127.076553	37.62994	-
1616	하계2동 공항버스정류장 옆	서울특별시 노원구 동일로 지하 1196	127.068329	37.635109	-
1617	하계동 중평어린이공원 앞	서울특별시 노원구 섬밭로 241	127.063271	37.63715	-
1619	중계동 하나프라자빌딩 앞(중1-1)	서울특별시 노원구 한글비석로 235	127.076408	37.649021	-
1620	중계동 노원구민체육센터 옆(중1-2)	서울특별시 노원구 노원로22길 1	127.070221	37.648209	-
1623	노원 구민회관	서울특별시 노원구 동일로 1229	127.066292	37.638649	-
1625	상계역(4번출구)	서울특별시 노원구 상계로 182	127.072968	37.66	-
1627	수락산역 4번출구	서울특별시 노원구 동일로 지하 1662	127.055099	37.676941	-
1628	노일초등학교 앞	서울특별시 노원구 동일로 1652	127.055252	37.673618	-
1630	수연빌딩 앞	서울특별시 노원구 동일로 지하 1662	127.055504	37.67625	-
1634	당고개공원 대여소	서울특별시 노원구 상계로 283	127.077591	37.669079	-
1635	상계3.4동 주민센터 대여소	서울특별시 노원구 덕릉로131길 8	127.08316	37.67271	-
1636	백병원 사거리 농협은행 앞	서울특별시 노원구 동일로 1351	127.061768	37.649212	-
1637	KT 노원점 건물 앞	서울특별시 노원구 노해로 489	127.0634	37.654701	-
1639	희성오피앙	서울특별시 노원구 동일로 1701	127.055069	37.680313	-
1640	한내근린공원 북측	서울특별시 노원구 마들로 86	127.068489	37.623863	-
1641	한내근린공원 남측	서울특별시 노원구 마들로 86	127.069511	37.621555	-
1642	서울여대 남문	서울특별시 노원구 화랑로51길 38	127.088493	37.625435	-
1643	태릉입구역 8번출구	서울특별시 노원구 공릉동 687-6	127.075211	37.617367	-
1645	예수사랑교회 옆	서울특별시 노원구 공릉동 98-3	127.087502	37.621929	-
1646	삼육대 입구	서울특별시 노원구 공릉동 26-43	127.107903	37.638489	-
1650	중계근린공원내	서울특별시 노원구 중계동 506-3	127.065102	37.63958	-
1651	맥도날드 상계점 앞	서울특별시 노원구 상계동 1118-9	127.055992	37.672375	-
1652	파르코 앞	서울특별시 노원구 상계동 1263	127.05558	37.68	-
1653	1653. 노원역1번출구	-	127.063622	37.6562	-
1654	당고개입구 오거리	서울특별시 노원구 상계동 172-2	127.075447	37.663792	-
1655	공릉1단지아파트	서울특별시 동일로 1127	127.07016	37.631111	-
1656	중앙하이츠 아파트 입구	서울특별시 노원구 노원로 428	127.067436	37.654999	-
1657	노원구청	서울특별시 노원구 노해로 437 	127.057327	37.654049	-
1659	중계동 을지중학교	서울특별시 노원구 중계동 370	127.071602	37.65033	-
1660	서울시립과학관	서울특별시 노원구 하계동 266	127.076622	37.642071	-
1661	 당현천근린공원	서울특별시 노원구 동일로 1342	127.065605	37.649639	-
1662	1662. 노원역7번출구	-	127.059151	37.654114	-
1663	 동해문화예술관앞	서울특별시 노원구 화랑로 429	127.057854	37.619381	-
1664	 노해근린공원내	서울특별시 노원구 노원로22길 1	127.070442	37.649361	-
1665	1665. 양지근린공원앞	-	127.076424	37.647335	-
1666	 노원소방서인근	서울특별시 노원구 노원로26길 111	127.071777	37.655781	-
1667	 중계중학교	서울특별시 노원구 덕릉로76길 23	127.074387	37.654499	-
1668	1668. 중계역 6번출구	-	127.063255	37.645508	-
1669	 중계역 3번출구	서울특별시 노원구 동일로 지하 1308-1	127.064987	37.643757	-
1670	1670. 노원경찰서교차로	-	127.071838	37.64341	-
1671	 인덕대학교	서울특별시 노원구 초안산로 12	127.054825	37.629349	-
1672	1672. 상계동수락리버시티	-	127.053406	37.688599	-
1673	1673. 노원역?5번출구	-	127.060974	37.653976	-
1674	 서울북부고용센터앞	서울특별시 노원구 노해로 450	127.058083	37.653549	-
1675	1675. 월계문화체육센터	-	127.05513	37.626942	-
1677	 육군사관학교  앞	서울특별시 노원구 화랑로 570	127.0905	37.623165	-
1678	1678. 성서대학교 밀알관	-	127.064445	37.648438	-
1679	1679. 삼육대 도서관	-	127.106667	37.64283	-
1680	1680. 삼육대 제3과학관	-	127.108383	37.642654	-
1681	 현대6차 아파트	서울특별시 노원구 중계로8길 20	127.08226	37.645802	-
1682	 중계종합사회복지관 교차로	서울특별시 노원구 덕릉로 662	127.077606	37.656799	-
1683	1683. 노원문화예술회관	-	127.080887	37.650459	-
1684	1684. 태릉입구역 5번출구	-	127.07563	37.61832	-
1685	1685. 불암고등학교 앞 횡단보도	-	127.080482	37.64819	-
1686	1686. 온수골사거리(스타벅스앞)	-	127.058052	37.66114	-
1687	1687. 서울월드컵경기장 테스트	-	126.896225	37.568722	-
1688	1688. 마들역 7번출구	-	127.057297	37.665661	-
1689	1689. 마들역 3번출구	-	127.057892	37.665249	-
1690	1690. 도봉운전면허시험장	-	127.059311	37.65773	-
1691	1691. 노원정보도서관	-	127.065331	37.660709	-
1692	온곡초교 교차로	노원구 상계동 456-23	127.05056	37.646172	-
1693	원자력 병원	노원구 노원로 75	127.082108	37.628189	-
1695	월계미륭아파트 정문	노원구 월계동 14 	127.066933	37.623417	-
1696	수락리버시티4단지	상계동 1195-1 	127.052834	37.686451	-
1697	상계주공2단지 219동	상계동 740 	127.057152	37.650249	-
1700	상계보람아파트 202동 	상계동 456-23  	127.066139	37.665215	-
1702	녹천역 1번출구 앞	서울특별시 도봉구 덕릉로 376	127.05056	37.646172	-
1703	도봉산광역환승센터앞	서울특별시 도봉구 도봉로 955	127.045197	37.68972	-
1704	도봉구 창포원	-	127.046873	37.689185	-
1705	도봉구청 정문앞	서울특별시 도봉구 마들로 656	127.046516	37.669224	-
1706	기업은행 앞	서울특별시 도봉구 도봉로 683	127.042671	37.665665	-
1707	도봉구민회관	서울특별시 도봉구 도봉로 552	127.038513	37.654461	-
1708	보건소사거리(다비치안경창동점)	서울특별시 도봉구 해등로 150	127.039848	37.65683	-
1709	쌍문역4번출구 주변	서울특별시 도봉구 도봉로 지하 486-1	127.035347	37.650127	-
1712	창동역공영주차장앞	서울특별시 도봉구 마들로11길 74	127.050201	37.654049	-
1713	 쌍문동 청소년 랜드	서울특별시  도봉구 노해로140	127.025879	37.647266	-
1714	도봉문화정보도서관 삼거리	서울특별시 도봉구 덕릉로 315	127.044609	37.64463	-
1715	서울특별시교육청도봉도서관	서울특별시 도봉구 삼양로556	127.012787	37.653179	-
1716	하나로마트 창동점	서울특별시 도봉구 마들로11길 20	127.050728	37.654202	-
1717	시립창동운동장 입구	서울특별시 도봉구 창동 1-24	127.050102	37.655708	-
1719	신도봉사거리 버스정류장	서울특별시  도봉구 도봉로 771	127.043991	37.673283	-
1720	도봉구청 옆(중랑천변)	서울특별시 도봉구 마들로 656	127.047981	37.668671	-
1721	창동역 2번출구	서울특별시 창동 74-2 	127.046997	37.653015	-
1722	 창동청소년수련관	서울특별시 도봉구 노해로69길 132	127.050049	37.657799	-
1723	 방학동학마을도서관	서울특별시 도봉구 시루봉로 128	127.027718	37.662079	-
1725	1725. 창1동주민센터	-	127.043312	37.647503	-
1726	1726. 삼익세라믹아파트교차로	-	127.03521	37.658588	-
1727	 서울도봉초등학교인근	서울특별시 도봉구 도봉로173길 96	127.040764	37.678677	-
1728	1728. 서울북부지방법원	-	127.046242	37.677666	-
1729	1729. 파리바게트앞	-	127.045792	37.68401	-
1730	1730. 도봉산역 교차로 앞	-	127.045502	37.687592	-
1731	도봉고등학교 맞은편	도봉구 도봉동 282-275	127.042557	37.6875	-
1732	1732. 우리은행 앞	-	127.042999	37.667599	-
1733	1733. 방학사거리 (봄마당 앞)	-	127.041939	37.662979	-
1734	1734. 쌍문현대1차아파트 108동 앞	-	127.032669	37.65815	-
1735	1735. 도봉역 1,2번 출구사이 건너편	-	127.044983	37.679119	-
1736	1736. 버스정류장 앞	-	127.037064	37.652241	-
1737	1737. 하나은행 (창동점)	-	127.038834	37.639702	-
1738	창동주공17단지 상가앞	도봉구 창동 35-1	127.052742	37.646309	-
1739	창동한신	도봉구 덕릉로60바길 21	127.041176	37.638859	-
1741	1741. 제일강산수산입구	-	127.032982	37.645199	-
1742	북한산 코오롱 하늘채	도봉구 쌍문동 416-13	127.023018	37.648891	-
1743	창동19단지아파트 관리사무소앞	서울시 도봉구 창4동33번지	127.052193	37.650391	-
1744	KT방학지사 앞	도봉구 방학동 726-92	127.043144	37.665272	-
1746	 다이소방학점 앞	 도봉구 방학동 726-65	127.04332	37.666233	-
1748	 피자헛 앞(도봉병원 옆)	 도봉구 방학동 726-17	127.043762	37.668983	-
1749	 ESA아파트 상가 앞	 도봉구 방학동 726-73	127.04599	37.666271	-
1750	 창포원 남쪽 입구	 도봉구 도봉동 22-25	127.048897	37.688267	-
1751	 창원초등학교 교차로	 도봉구 창동 315	127.041702	37.652123	-
1752	 창동 주공 4단지 입구 옆	 도봉구 창동 34	127.048576	37.645481	-
1754	 창동시장입구 사거리	 도봉구 쌍문동 83-7	127.033432	37.646896	-
1756	서울북부광역등기국	서울시 도봉구 노해로 325	127.044708	37.651447	-
1757	솔밭공원역 1번출구 앞	삼양로590	127.013382	37.655685	-
1758	북서울교회 버스정류소 앞	삼양로606	127.013756	37.65728	-
1759	서울북부지방법원 앞	마들로749	127.048637	37.677219	-
1761	방학중학교 앞	시루봉로188	127.03109	37.665623	-
1762	북한산 한신휴플러스APT앞	도봉로136가길73	127.042419	37.655338	-
1765	쌍문역 1번 출구(양산부인과 빌딩)	도봉로496	127.035614	37.64967	-
1766	소피아 관광호텔 앞	-	127.035996	37.65119	-
1767	태양중앙교회 앞	방학로172	127.033279	37.66251	-
1768	신동아타워 버스정류소	방학로210	127.028755	37.662052	-
1769	신동아아파트 교차로	-	127.027719	37.66165	-
1770	도봉한신아파트 주변	도봉구 도봉동 646-1	127.0498581	37.68523407	-
1771	성원APT버스정류소	시루봉로6길86	127.03009	37.657967	-
1772	시립도봉노인복지관 버스정류소	해등로190	127.035759	37.658051	-
1774	반석교회(쌍문동)	노해로239	127.034729	37.651348	-
1775	신원리베르텔 앞	노해로341(연안식당 창동점 앞)	127.045548	37.651287	-
1802	가산디지털단지역 5번출구	서울특별시 금천구 벚꽃로 309	126.882202	37.479591	-
1804	독산역 2번출구 자전거주차장	서울특별시 금천구 벚꽃로 115	126.888718	37.46653	-
1805	서울디지털운동장 앞	서울특별시 금천구 가산디지털2로 151	126.877769	37.482288	-
1806	에이스하이엔드타워9차 앞	서울특별시 금천구 가산디지털1로 233	126.878639	37.486214	-
1808	에이스하이엔드타워8차 앞	서울특별시 금천구 가산디지털1로 84	126.884941	37.473209	-
1809	LG전자 별관동(호서대 벤처타워 맞은편)	서울특별시 금천구 가산디지털1로 63	126.885155	37.470779	-
1812	갑을그레이트밸리 앞	서울특별시 금천구 디지털로9길 32	126.887299	37.479031	-
1814	두산위브아파트 옆 상가건물 앞	서울특별시 금천구 가산로 99	126.894127	37.47422	-
1816	금천폭포공원 앞	서울특별시 금천구 시흥대로38길 61	126.903831	37.446861	-
1817	금빛공원	-	126.904275	37.453214	-
1819	금천구청 앞 자전거거치대	서울특별시 금천구 시흥대로73길 70	126.895927	37.456478	-
1820	신한은행 시흥대로금융센터지점	서울특별시 금천구 시흥대로 446	126.903358	37.44334	-
1821	홈플러스 시흥점 맞은편 다비치안경 앞	서울특별시 금천구 시흥대로 198	126.902115	37.451458	-
1822	서울 시흥동우체국 앞	서울특별시 금천구 시흥대로 217	126.900909	37.452991	-
1823	상신정비공업 앞	서울특별시 금천구 시흥대로 287	126.89859	37.458912	-
1824	독산근린공원 입구	서울특별시 금천구 독산동 	126.883728	37.46455	-
1825	한신아파트 앞 육교 아래	서울특별시 금천구 금하로1길 70	126.891052	37.4547	-
1826	한신코아 앞	서울특별시 금천구 한내로 62	126.888344	37.456841	-
1827	독산보도육교 앞 자전거 보관소	서울특별시 금천구 서부샛길 70	126.893143	37.455849	-
1828	한양수자인아파트 앞	서울특별시 금천구 시흥대로150길 6	126.898888	37.475319	-
1829	홈플러스 금천점 앞	서울특별시 금천구 시흥대로 391	126.897202	37.469139	-
1830	빅마켓 금천점 앞	서울특별시 금천구 두산로 71	126.895073	37.47023	-
1831	메이퀸웨딩컨벤션 앞	서울특별시 금천구 시흥대로 435	126.897957	37.4725	-
1833	독산역 1번출구 앞 자전거보관소	서울특별시 금천구 벚꽃로 115	126.890282	37.466541	-
1834	월드메르디앙 벤처센터 2차	서울특별시 금천구 가산디지털2로 123	126.878731	37.479961	-
1835	STX V타워	서울특별시 금천구 가산디지털1로 128	126.88443	37.47707	-
1836	금천구립 독산도서관	서울특별시 금천구 독산로54길 114	126.908142	37.467403	-
1839	 수출의 다리 아래	서울특별시 가산동 60-35	126.885223	37.47736	-
1840	솔브레인이엔지 뒤편	서울특별시 가산동 219-18	126.888069	37.475101	-
1841	가산동 주민센터	서울특별시 가산동 144-3	126.891869	37.476952	-
1842	한울중학교	서울특별시 시흥동 1000-3	126.90686	37.462574	-
1843	독산고등학교	서울특별시 독산동 906-42	126.911133	37.477097	-
1845	롯데캐슬골드파크1차 서문	서울특별시 금천구 벚꽃로40 	126.892189	37.460289	-
1846	 롯데캐슬골드파크1차 동문	서울특별시 금천구 독산동 441-19 	126.896042	37.460171	-
1847	 독산주공 14단지 버스정류소	서울특별시 금천구 안양천로	126.8871	37.461033	-
1848	 벽산 디지털밸리 5차	서울특별시 금천구 가산동 60-73 	126.885391	37.476276	-
1849	 대륭포스트타워5차	서울특별시 금천구 디지털로9길 68	126.88694	37.481354	-
1850	 코오롱테크노밸리	서울특별시 금천구 디지털로9길 56	126.886368	37.48016	-
1851	 가산디지털단지 7번출구	서울특별시 금천구 벚꽃로 309	126.881142	37.481255	-
1852	혜명양로원 담장 옆	금하로29길36(시흥동)	126.913399	37.451771	-
1853	1853. 서울디자인직업전문학교 앞	-	126.895866	37.472481	-
1854	1854. 가산아네스트 오피스텔 앞	-	126.897408	37.47818	-
1855	1855. 성지아파트 옆 도로변	-	126.897621	37.451321	-
1856	1856. 모두의학교	-	126.907372	37.478409	-
1857	1857. 주공14단지	-	126.887093	37.46056	-
1858	1858. 석수역1번출구 앞 (SK주유소)	-	126.902687	37.437271	-
1859	대륭테크노타운 18차	금천구 가산동 668	126.886841	37.467999	-
1861	IBK기업은행 석수역 지점 앞	시흥대로46 IBK기업은행 석수역 지점	126.903297	37.436981	-
1862	스타즈호텔독산 빌딩 앞	시흥대로 315	126.897583	37.461346	-
1863	위너스 스포츠클럽 골프연습장옆	시흥대로 302 옆	126.898605	37.460537	-
1864	산호시티빌 옆	시흥대로 251 옆	126.899551	37.45652	-
1865	금천구청앞(M빌딩)	시흥대로67 옆	126.896454	37.456333	-
1866	서울안천초등학교 옆	한내로 69-16	126.889427	37.457779	-
1867	대륭포스트타워6차 앞	벚꽃로 298	126.883804	37.480888	-
1868	우리은행 시흥남자동화점 앞	시흥대로155	126.902885	37.447853	-
1869	롯데캐슬골드파크3차 301동 앞	시흥대로291, 롯데캐슬3차 301동 앞	126.896713	37.459019	-
1870	독산3동주민센터 앞	독산로 317	126.903359	37.475071	-
1901	신도림동주민센터 앞	서울특별시 구로구 신도림로 40	126.87973	37.507332	-
1904	도림천역 1번 출구 앞	서울특별시 구로구 경인로67길 160	126.882874	37.51424	-
1906	신도림역 1번 출구 앞	서울특별시 구로구 경인로 688	126.890099	37.50972	-
1907	구일우성(아) 육교 밑	서울특별시 구로구 구일로2길 59	126.876259	37.489632	-
1908	해원리바파크 육교 밑	서울특별시 구로구 구일로 110	126.872162	37.495285	-
1910	낙원교회 맞은편	서울특별시 구로구 구로동로42길 43	126.884377	37.497505	-
1911	구로디지털단지역 앞	서울특별시 구로구 시흥대로 577-2	126.901321	37.48494	-
1912	한신휴아파트 앞	서울특별시 구로구 디지털로31길 120	126.890663	37.4888	-
1913	구로리공원	서울특별시 구로구 구로중앙로 13	126.892151	37.491032	-
1914	대림역4번출구	서울특별시 구로구 도림천로 351	126.893921	37.494591	-
1916	구로중학교앞	서울특별시 구로구 구로중앙로 48	126.889984	37.494141	-
1920	서울미래초등학교 사거리	서울특별시 구로구 새말로 73	126.888298	37.504379	-
1924	삼부르네상스파크빌	서울특별시 구로구 남부순환로 1299	126.895096	37.478741	-
1925	동양미래대학교 정문 옆	서울특별시 구로구 경인로 445	126.867699	37.499889	-
1928	고척스카이돔구장 광장	서울특별시 구로구 경인로 430	126.868401	37.49947	-
1929	고척근린공원 고척도서관 앞	서울특별시 구로구 고척로45길 31	126.85276	37.505135	-
1930	개봉지구대 개봉치안센터	서울특별시 구로구 경인로 293	126.853729	37.497684	-
1931	개봉역(북측광장)	서울특별시 구로구 경인로40길 47	126.858253	37.494995	-
1933	개봉푸르지오아파트 상가	서울특별시 구로구 남부순환로 775	126.84687	37.501583	-
1936	개봉역 1번 출구 자전거보관서쪽	서울특별시 구로구 경인로40길 47	126.859215	37.494282	-
1937	한진아파트 입구	서울특별시 구로구 개봉로3길 87	126.852013	37.486061	-
1938	오류동역 3번출구 앞	서울특별시 구로구 경인로20길 13	126.843613	37.495029	-
1940	예성 라온팰리스 앞	서울특별시 구로구 오류로8바길 34	126.847252	37.497551	-
1941	오류동역 2번출구	서울특별시 구로구 서해안로 2340-10	126.844055	37.493938	-
1943	온수역 북측	서울특별시 구로구 경인로3길 지하 64	126.824524	37.49279	-
1946	구로역 광장	서울특별시 구로구 구로중앙로 174	126.880386	37.503117	-
1951	천왕이펜하우스 4단지 상가 앞	서울특별시 구로구 천왕로 9	126.8395	37.480289	-
1952	천왕연지타운2단지 앞	서울특별시 구로구 오리로 1102-10	126.845726	37.482105	-
1953	천왕역 4번출구 뒤	서울특별시 구로구 오리로 지하 1154	126.839211	37.486385	-
1955	디지털입구 교차로	서울특별시 구로구 시흥대로 551	126.901039	37.482883	-
1956	도야미리숫불갈비 앞	서울특별시 구로구 신도림로 67	126.88205	37.51001	-
1957	구일고등학교 정문	서울특별시 구로구 구일로 90-51	126.874329	37.493401	-
1958	강서수도사업소민원센터	서울특별시 구로구 가마산로 272	126.890121	37.495781	-
1959	1959. 구로구의회 앞	-	126.889587	37.496456	-
1960	화광신문사 앞	서울특별시 구로구 공원로 68	126.889481	37.50285	-
1961	신도림테크노근린공원	서울특별시 구로구 새말로 121-15	126.891304	37.508194	-
1962	가리봉동주민센터	서울특별시 구로구 디지털로26길 5	126.892799	37.481602	-
1963	디지털단지오거리	서울특별시 금천구 가산로 157	126.890121	37.479317	-
1964	 원메디타운 앞	서울특별시 구로구 경인로 403	126.864502	37.49789	-
1965	삼환로즈빌아파트 105동 옆	서울특별시 구로구 경인로 343	126.857994	37.498074	-
1966	 한마을아파트 정문상가	서울특별시 구로구 경인로 382	126.863098	37.496498	-
1967	 참새공원(백곡경노당)	서울특별시 구로구 고척로21길 85	126.844337	37.505138	-
1968	 동인오피스텔 건너편 소공원	서울특별시 구로구 고척로22길 64	126.847504	37.498482	-
1969	 궁동생태공원	서울특별시 구로구 오리로 1352	126.828964	37.501904	-
1971	 오정초교 앞 보도육교	서울특별시 구로구 경인로2길 10	126.826393	37.490723	-
1973	 오리로와 서해안도로 교차로 앞	서울특별시 구로구 오리로 1181	126.836494	37.488598	-
1974	1974. 신도림2차e편한세상아파트 203동 앞	-	126.882538	37.50518	-
1975	대림역 1번 출입구 밑	서울특별시 구로구 도림천로 351	126.894737	37.49258	-
1976	남구로역 5번 출입구 앞	서울특별시 구로구 도림로 지하 7	126.886703	37.48568	-
1977	1977. 천왕역 1번 출입구 앞	-	126.838821	37.48621	-
1979	구로1동우체국 앞	서울특별시 구로구 구일로 64	126.873772	37.492031	-
1981	 천왕이펜하우스5단지 앞	서울특별시 구로구 천왕로 10	126.842697	37.479431	-
1983	 구로동롯데아파트	서울특별시 구로구 새말로 31	126.883881	37.502548	-
1984	 구로구청	서울특별시 구로구 가마산로 245	126.888474	37.495266	-
1985	 구로도서관	서울특별시 구로구 공원로 15	126.891991	37.498516	-
1986	1986. 태평양물산빌딩	-	126.895187	37.484859	-
1987	1987. 개봉아이파크아파트 앞	-	126.860931	37.490341	-
1988	1988. 고척LIGA아파트 앞	-	126.860786	37.50605	-
1990	오류동역 앞	-	126.843894	37.495228	-
1991	1991. 오류동역 맞은편	-	126.844963	37.496761	-
1992	구로구배드민턴실내체육관 앞	구로구 오류동 326-1	126.83242	37.491798	-
1993	1993. 금강수목원아파트 앞	-	126.834198	37.48938	-
1994	1994. 삼성전자 물류센터 앞	-	126.87178	37.496998	-
1996	구일역 1번 출입구 앞	구로구 구로동 642-77	126.87101	37.495399	-
1998	고척교 교차로	구로구 구로동 621-12	126.871521	37.498569	-
1999	수궁동 성당 주변	구로구 궁동 252-17	126.830658	37.495258	-
2000	신도림4차 e편한세상 아파트 1109동 앞	구로구 신도림동 312-16	126.886833	37.512329	-
2002	노들역 1번출구	서울특별시 동작구 노량진로 지하 238	126.952072	37.512959	-
2003	사육신공원앞	서울특별시 동작구 노량진로 191	126.948059	37.513359	-
2007	유한양행앞	서울특별시 동작구 노량진로 74	126.934242	37.512939	-
2008	노량진근린공원 대방공원	서울특별시 동작구 여의대방로44길 20	126.92807	37.509369	-
2009	보라매역 8번출구	서울특별시 동작구 상도로 지하 2	126.921082	37.500076	-
2012	녹십초요양병원앞	서울특별시 동작구 시흥대로 634	126.906227	37.488361	-
2013	장승배기역 5번출구	서울특별시 동작구 상도로 지하 188	126.939362	37.505852	-
2015	신대방삼거리역 6번출구쪽	서울특별시 동작구 상도로 지하 76	126.929565	37.499855	-
2016	신대방삼거리역 3번출구쪽	서울특별시 동작구 상도로 지하 76	126.927094	37.499645	-
2020	장승배기역2번출구뒷편쪽	서울특별시 동작구 상도로 지하 188	126.938988	37.504498	-
2024	상도역 1번출구	서울특별시 동작구 상도로 지하 272	126.948204	37.502178	-
2025	흑석역 1번출구	서울특별시 동작구 현충로 지하 90	126.963615	37.50938	-
2026	흑석역 4번출구	서울특별시 동작구 현충로 지하 90	126.963249	37.509056	-
2027	중앙대학교 정문	서울특별시 동작구 흑석로 47	126.958305	37.506771	-
2028	남성역 2번출구 뒷편	서울특별시 동작구 사당로 지하 218	126.971428	37.48447	-
2032	이수역 11번출구쪽	서울특별시 동작구 사당로 지하 310	126.981621	37.485508	-
2033	NH 농협 사당점	서울특별시 동작구 동작대로 지하 3	126.981583	37.481491	-
2034	사당역 7번출구쪽	서울특별시 동작구 동작대로 지하 3	126.980576	37.476891	-
2036	정금마을 마을버스정류장	서울특별시 서초구 동작대로 198	126.982391	37.494705	-
2037	동작역 5번출구 동작주차공원	서울특별시 동작구 현충로 지하 220	126.97715	37.503189	-
2038	동작역 7번출구	서울특별시 동작구 현충로 지하 220	126.976089	37.503181	-
2040	비계 버스정류소	서울특별시 동작구 현충로 151	126.969078	37.506359	-
2041	사당중학교 버스정류소	서울특별시 동작구 사당로 169	126.968048	37.486835	-
2048	삼일초등학교 인근	서울특별시 동작구 사당로23나길 27	126.974213	37.488453	-
2050	노량진역 5번출구	서울특별시 동작구 노량진로 지하 130	126.939972	37.513248	-
2054	삼익아파트	서울특별시 동작구 만양로 84	126.944847	37.510548	-
2056	동작구민 체육센터	서울특별시 동작구 여의대방로16길 53	126.916527	37.494499	-
2057	상도 아이파크 아파트	서울특별시 동작구 장승배기로 26	126.94175	37.500881	-
2058	 노량진동 맥도널드앞	서울특별시 동작구 노량진동 113-7 	126.943527	37.513523	-
2059	2059. 보라매공원 정문	-	126.917793	37.497078	-
2060	2060. 남성역3번출구 뒤	-	126.97155	37.484631	-
2061	2061. 한강 현대아파트 건너편	-	126.969231	37.505928	-
2062	2062. 사당새마을금고	-	126.967842	37.486652	-
2063	2063. 대방역 4번출구	-	126.926613	37.512901	-
2064	2064. 흑석한강푸르지오 106동앞	-	126.966179	37.505356	-
2065	 서울시여성가족재단	서울특별시 동작구 여의대방로54길 18	126.927086	37.51199	-
2066	2066. 양문교회 앞	-	126.907112	37.489399	-
2067	2067. LG전자 베스트 대리점 앞	-	126.919868	37.497669	-
2068	2068. 총신대 앞(육교)	-	126.966476	37.488159	-
2069	2069. 숭실대 입구역3번 출구 앞	-	126.953682	37.496601	-
2070	2070. 노량진역 2번 출구 앞	-	126.943069	37.51392	-
2071	대림아파트 후문 상가 옆	동작구 사당로23길 137	126.971909	37.488869	-
2073	동작상떼빌 103동 앞	-	126.907025	37.486728	-
2076	노들나루공원 입구	 동작구 본동 258-49	126.955551	37.513577	-
2077	노들역 3번출구	 동작구 노량진로 250-1	126.954163	37.511936	-
2078	흑석 아크로리버하임(103동)	 동작구 흑석동 143-57	126.961632	37.510838	-
2079	중앙대학교 정문	 동작구 흑석동 221-1	126.957779	37.506672	-
2080	빕스 대방점 앞	 동작구 대방동 341-15	126.925438	37.512135	-
2081	대방1차 e편한세상 앞	 동작구 대방동 338-6	126.929512	37.513062	-
2082	7호선 이수역7번출구	 동작구 동작대로 89	126.981979	37.485615	-
2083	흑석롯데캐슬에듀포레(107동)	 동작구 흑석동 86-212	126.960732	37.504704	-
2084	e편한세상 상도노빌리티 앞	 동작구 상도동 26-77	126.946785	37.504562	-
2085	강남중학교 앞	 동작구 대방동 466-45	126.921578	37.502743	-
2086	삼일수영장 앞	 동작구 사당로27길 103	126.974739	37.487412	-
2088	상도중앙하이츠빌 입구	 동작구 상도동 159-186	126.94973	37.500248	-
2089	사당역10번출구(금강빌딩)	 동작구 동작대로 29	126.981506	37.479107	-
2090	기아자동차 사당점 앞	 동작구 사당로 272	126.977921	37.48378	-
2091	이수역9번출구(맥도날드)	 동작구 사당동 147-141	126.977882	37.484135	-
2092	흑석한강푸르지오(110동)	 동작구 흑석동 336-7	126.964714	37.503113	-
2093	상도SH빌아파트 입구	 동작구 상도로53길 70	126.954598	37.503212	-
2094	숭실대학교(중문) 	 동작구 상도동 512-10	126.956375	37.495506	-
2095	경문고등학교 앞	 동작구 동작동 산1-13	126.982407	37.491501	-
2096	서울특별시 동작관악교육지원청	동작구 상도2동175-1	126.940338	37.502838	-
2102	봉림교 교통섬	서울특별시 관악구 관천로 52	126.926392	37.48423	-
2103	신림동 우방아파트	서울특별시 관악구 관천로27길 2	126.919273	37.489178	-
2104	사당역 5번출구	서울특별시 동작구 남부순환로 지하 2089	126.981331	37.476089	-
2105	미성동 신림체육센터	서울특별시 관악구 난곡로 295	126.914604	37.480251	-
2106	난곡 새마을금고	서울특별시 관악구 난곡로 210	126.918404	37.473728	-
2107	도림천 신화교	서울특별시 관악구 신림로 40	126.936455	37.475471	-
2108	은천치안센터	서울특별시 관악구 봉천로 375	126.943199	37.483341	-
2109	은천로입구 가로공원	서울특별시 양천구 가로공원로 지하 133	126.935829	37.486225	-
2110	조원동 미성아파트	서울특별시 관악구 시흥대로 560	126.902031	37.483192	-
2111	서울대입구역 1번출구	서울특별시 관악구 남부순환로 1830	126.953316	37.480869	-
2112	서울대입구역 마에스트로	서울특별시 관악구 남부순환로 지하 1822	126.950645	37.481339	-
2113	관악동작견인차량보관소	서울특별시 관악구 신사로 7	126.9039	37.484661	-
2114	관악구 재활용센터	서울특별시 관악구 남부순환로 1427	126.909431	37.481129	-
2115	관악농협농산물백화점	서울특별시 관악구 남부순환로 1369	126.90284	37.479916	-
2116	에이스에이존빌딩	서울특별시 관악구 남부순환로 지하 1822	126.950829	37.481705	-
2119	중앙동 동진빌딩	서울특별시 관악구 관악로 217	126.954697	37.484257	-
2122	낙성대로 입구	서울특별시 관악구 남부순환로 1889	126.960495	37.478058	-
2127	보성운수차고지 맞은편	서울특별시 관악구 난곡로 99	126.919479	37.464886	-
2128	관악구청교차로	서울특별시 관악구 관악로 153	126.952583	37.479164	-
2129	낙성대 과학전시관	서울특별시 관악구 낙성대로 101	126.958145	37.469055	-
2130	영어마을 관악캠프	서울특별시 관악구 낙성대로 70	126.958763	37.47197	-
2135	신림역 5번출구	서울특별시 관악구 남부순환로 지하 1614	126.928909	37.484409	-
2136	신림역 8번출구	서울특별시 관악구 신림로 340	126.929916	37.484577	-
2137	KT&G 관악지점	서울특별시 관악구 남부순환로 1675	126.936531	37.484901	-
2139	서울신성초등학교	서울특별시 관악구 신림로 114	126.937019	37.471165	-
2140	신림1교 교차로	서울특별시 관악구 신림로 270	126.931862	37.478428	-
2141	미림여고입구 교차로	서울특별시 관악구 신림로 137	126.933411	37.472294	-
2143	서울산업정보학교	서울특별시 관악구 신림로 67	126.9422	37.470695	-
2144	난우길입구	서울특별시 관악구 문성로 115	126.916756	37.477776	-
2145	은천초등학교 육교	서울특별시 관악구 은천로 69	126.942924	37.486359	-
2148	낙성대역 3번출구 뒤	서울특별시 관악구 남부순환로 지하 1928	126.963394	37.477028	-
2153	서울남부초등학교 옆	서울특별시 관악구 남부순환로163가길 20	126.920563	37.485142	-
2156	농협 관악문성지점	서울특별시 금천구 남부순환로 1428	126.909325	37.480721	-
2157	난곡 사거리	서울특별시 관악구 난곡로 317	126.915237	37.4818	-
2159	 인헌초교	서울특별시 관악구 봉천동 244-1 	126.959229	37.47509	-
2160	2160. 관악구 보건소	-	126.951294	37.478626	-
2164	 관악우체국	서울특별시 관악구 남부순환로 1641	126.932877	37.484768	-
2165	 JK장평타워	서울특별시 관악구 남부순환로 1943	126.965363	37.476482	-
2167	2167. 낙성대역 1번출구	-	126.964958	37.476295	-
2169	2169. 봉천역 2번출구	-	126.942131	37.482189	-
2170	 조원동서울본병원	서울특별시 관악구 남부순환로 1451	126.912033	37.481529	-
2171	 서울대입구역 5번출구	서울특별시 관악구 남부순환로 1817	126.952003	37.481548	-
2172	 나들목공원	서울특별시 관악구 신림로 41	126.944511	37.469406	-
2173	 당곡사거리	서울특별시 관악구 보라매로 3	126.927467	37.48975	-
2174	 삼성디지털프라자관악점	서울특별시 관악구 신림로 386	126.928482	37.488564	-
2175	 신림동걷고싶은문화의거리입구	서울특별시 관악구 신림로 369	126.928703	37.487301	-
2176	 보라매공원 보도육교	서울특별시 관악구 신사로 132	126.916679	37.488907	-
2177	2177. 신대방역 2번 출구	-	126.913017	37.487129	-
2178	2178. 서울대학교 정문	-	126.948807	37.46682	-
2179	2179. 양녕로 입구	-	126.946159	37.482189	-
2180	2180. 신림동주민센터	-	126.927788	37.487511	-
2183	동방1교	신림로 144	126.933922	37.471828	-
2184	2184. 구암초등학교 버스정류장	-	126.945923	37.489491	-
2185	대학동 고시촌	서울특별시 관악구 신림로 97 밀라트	126.938652	37.470467	-
2186	우리은행 낙성대역지점	남부순환로 1889	126.95961	37.478821	-
2187	현대시장사거리(신한은행)	은천로 110	126.947517	37.486736	-
2189	삼성서비스센터(관악점) 	남부순환로 1719	126.941406	37.482754	-
2190	도원맨션	남부순환로 1699	126.939156	37.483688	-
2191	대학동주민센터 	신림로 115	126.936485	37.470688	-
2194	봉림교 남측	-	126.92625	37.483747	-
2195	은천교회	남부순환로 1654	126.934509	37.484646	-
2196	삼화페인트 봉천점	남부순환로 1700	126.939026	37.483311	-
2198	사랑의병원	남부순환로 1868	126.956932	37.479465	-
2199	신봉천주유소	남부순환로 1884	126.958695	37.478771	-
2200	관악문화원 건너편	신림동 138-54	126.946755	37.468567	-
2201	본마을 정류소 앞	서울특별시 서초구 본마을2길 2	127.051483	37.453281	-
2202	청계산입구역 1번출구	서울특별시 서초구 청계산로 지하 179	127.054375	37.448936	-
2203	청계산입구역 2번출구	서울특별시 서초구 청계산로 지하 179	127.055016	37.447659	-
2205	내곡3단지 어린이공원 앞	서울특별시 서초구 청계산로9길 76	127.05938	37.453751	-
2206	언남초등학교 앞	서울특별시 서초구 헌릉로8길 42	127.062309	37.454399	-
2207	내곡파출소 신축공사부지 뒤 정자	서울특별시 서초구 헌릉로 226	127.064926	37.454407	-
2210	반포1동 주민센터 앞	서울특별시 서초구 사평대로 지하 285	127.013107	37.505096	-
2211	서초구립반포도서관 앞	서울특별시 서초구 고무래로 34	127.012314	37.502636	-
2212	서초현대4차아파트 201동 맞은편	서울특별시 서초구 고무래로 94	127.017929	37.500961	-
2213	고속터미널역 5번출구 앞	서울특별시 서초구 신반포로 지하 188	127.002258	37.502232	-
2214	신반포역 2번출구 앞	서울특별시 서초구 신반포로 지하 105	126.99749	37.504116	-
2215	반포종합운동장 입구	서울특별시 서초구 신반포로16길 30	126.995476	37.501713	-
2217	아크로리버뷰 부지 앞	서울특별시 서초구 나루터로4길 60	127.005959	37.513046	-
2219	고속터미널역 8-1번, 8-2번 출구 사이	서울특별시 서초구 신반포로 지하 188	127.003944	37.506199	-
2220	반포본동 주민센터 앞	서울특별시 서초구 신반포로 10	126.98616	37.500614	-
2221	하나은행 방배동지점 앞	서울특별시 서초구 방배로 110	126.994682	37.485611	-
2222	사당역 12번출구 뒤	서울특별시 동작구 동작대로 지하 3	126.982033	37.478069	-
2223	방배래미안 정문 앞	서울특별시 서초구 남부순환로 2183	126.983009	37.47261	-
2224	방배경찰서 민원봉사실 앞	서울특별시 서초구 방배천로 54	126.982483	37.481293	-
2225	백석예술대학교 제3캠퍼스 앞	서울특별시 서초구 방배로9길 23	126.995247	37.473759	-
2226	신동아럭스빌아파트 앞	서울특별시 서초구 방배로1길 9	127.001389	37.475182	-
2227	방배열린문화센터 앞	서울특별시 서초구 서초대로 지하 103	126.992523	37.489052	-
2228	뒷벌공원 옆	서울특별시 서초구 방배중앙로 131	126.986725	37.489586	-
2229	로고스교회 맞은 편	서울특별시 서초구 방배천로 126	126.984962	37.487011	-
2230	이수역 4번 출구	서울특별시 동작구 사당로 지하 310	126.982628	37.485828	-
2231	삼성타운(삼성생명) A동 맞은편	서울특별시 서초구 서초대로 405	127.024963	37.496914	-
2233	서초신동아1차아파트 옆	서울특별시 서초구 효령로36길 22	127.022957	37.491112	-
2235	KT 서초지사 앞	서울특별시 서초구 사평대로 73	127.002701	37.482159	-
2237	서울남부터미널 대합실 입구	서울특별시 서초구 서초중앙로 지하 31	127.01487	37.484558	-
2239	교대역 6번출구	서울특별시 서초구 서초대로 지하 294	127.013786	37.494217	-
2241	양재전화국 사거리	서울특별시 강남구 논현로 201	127.041702	37.485378	-
2242	양재역 11번 출구 앞	서울특별시 서초구 남부순환로 지하 2585	127.03418	37.48399	-
2243	서울가정법원	서울특별시 서초구 강남대로 193	127.036728	37.481491	-
2244	교육개발원입구 교차로	서울특별시 서초구 바우뫼로1길 35	127.03891	37.477852	-
2245	양재초등학교 맞은편	서울특별시 서초구 바우뫼로18길 14	127.03051	37.473614	-
2246	서울시 품질시험소 앞	서울특별시 서초구 태봉로 131	127.029007	37.4692	-
2247	섬들근린공원	서울특별시 서초구 태봉로2길 24	127.026619	37.462639	-
2248	서초리슈빌S 글로벌 앞	서울특별시 서초구 양재대로2길 8	127.024742	37.459953	-
2249	우솔초등학교 맞은편	서울특별시 서초구 양재대로2길 74	127.019348	37.456234	-
2250	서초유치원 맞은편	서울특별시 서초구 양재대로2길 74	127.016289	37.455799	-
2251	더케이호텔 입구(양재2)	서울특별시 서초구 바우뫼로12길 70	127.034477	37.467506	-
2252	하이브랜드 앞	서울특별시 서초구 매헌로 16	127.036041	37.463322	-
2255	시민의숲역 1번출구 옆	서울특별시 서초구 매헌로 지하 116	127.038857	37.47044	-
2256	양재동 꽃시장 입구	서울특별시 서초구 강남대로 27	127.040359	37.46769	-
2257	하나로클럽 양재점 맞은편	서울특별시 서초구 청계산로 10	127.046112	37.462688	-
2258	구룡사 삼거리	서울특별시 강남구 논현로2길 22	127.050591	37.471539	-
2259	잠원역 3번-4번 출구사이	서울특별시 서초구 잠원로4길 지하 46	127.011177	37.512989	-
2262	한신16차아파트 119동 앞	서울특별시 서초구 나루터로4길 60	127.00959	37.516598	-
2263	바우뫼문화복지회관	서울특별시 서초구 바우뫼로 43	127.02684	37.471928	-
2264	이수역 1번출구	서울특별시 서초구 동작대로 134	126.982574	37.488556	-
2265	이수고가차도 남단	서울특별시 서초구 동작대로 196	126.982994	37.494106	-
2266	 서초역 3번출구	서울특별시 서초동 1748-14	127.008163	37.49054	-
2268	서초4동주민센터	서울특별시 서초동 1389	127.02227	37.502319	-
2269	주홍교 하부	서울특별시 잠원동 91-29	127.016052	37.510349	-
2270	2270. 서초포레스타 7단지	-	127.057739	37.448967	-
2271	 내방역 8번출구 앞	서울특별시 서초구 방배로 162	126.994293	37.487865	-
2272	교대입구 교차로	서울특별시 서초동 1748-33	127.010582	37.487309	-
2273	일동제약 사거리	서울특별시 양재동 67-12	127.038269	37.477829	-
2274	양재시민의숲역 3번출구	서울특별시 양재동 316-11	127.039612	37.46965	-
2275	염곡치안센터 건너편	서울특별시 염곡동 260-1	127.048798	37.461578	-
2276	영동1교 (양재천근린공원)	서울특별시 양재동 261-23	127.038902	37.474388	-
2277	 길마중4교 하부	서울특별시 잠원동 84-3	127.015282	37.51487	-
2279	 교대역 5번출구뒤	서울특별시 서초구 서초중앙로 130	127.014183	37.493618	-
2280	2280. 서울서초고용센터앞	-	127.010971	37.484161	-
2281	 연세사랑병원신관앞	서울특별시 서초구 효령로 10	126.986282	37.475979	-
2282	 방배래미안아트힐 101동앞	서울특별시 서초구 남부순환로 2311-12	127.005836	37.477203	-
2283	 그룹한빌딩옆	서울특별시 서초구 서초대로 62	126.989166	37.486526	-
2284	 CJ오쇼핑앞	서울특별시 서초구 과천대로 870-13	126.986801	37.468102	-
2285	2285. LH서초3단지 301동 맞은편	-	127.022652	37.457424	-
2286	 탑성마을입구	서울특별시 서초구 탑성말길 2	127.055885	37.458549	-
2287	 능안마을입구	서울특별시 서초구 능안말길 1-2	127.067101	37.45562	-
2288	 안골마을입구	서울특별시 서초구 안골2길 3	127.064453	37.455608	-
2289	 남태령역 2번출구	서울특별시 서초구 과천대로 810	126.988525	37.464298	-
2290	2290. 서래마을파리15구공원앞	-	126.999413	37.499413	-
2292	 무지개아파트 앞	서울특별시 서초구 효령로 391	127.027016	37.488243	-
2293	 SPC 앞	서울특별시 서초구 남부순환로 2620	127.036995	37.484798	-
2294	 두상빌딩 앞	서울특별시 서초구 언남길 87	127.046242	37.475906	-
2297	2297. 남부터미널역 1번출구	-	127.015923	37.485672	-
2298	 래미안서초스위트앞	서울특별시 서초구 서운로 221	127.021606	37.502411	-
2299	2299. 한전아트센터 앞	-	127.028061	37.486469	-
2301	현대고등학교 건너편	서울특별시 강남구 압구정로 134	127.02179	37.524071	-
2302	교보타워 버스정류장(신논현역 3번출구 후면)	서울특별시 강남구 봉은사로 지하 102	127.024277	37.505581	-
2303	논현역 7번출구	서울특별시 강남구 학동로 지하 102	127.021477	37.511517	-
2304	신영 ROYAL PALACE 앞	서울특별시 강남구 언주로 626	127.035835	37.512527	-
2305	MCM 본사 직영점 앞	서울특별시 강남구 언주로 734	127.034508	37.520641	-
2306	압구정역 2번 출구 옆	서울특별시 강남구 압구정로 지하 172	127.028717	37.527122	-
2307	압구정 한양 3차 아파트	서울특별시 강남구 압구정로 321	127.038559	37.528614	-
2308	압구정파출소 앞	서울특별시 강남구 압구정로 311	127.035599	37.529301	-
2309	청담역(우리들병원 앞)	서울특별시 강남구 학동로 443	127.049385	37.518902	-
2310	청담동 맥도날드 옆(위치)	서울특별시 강남구 학동로 지하 508	127.040176	37.523613	-
2311	학동로 래미안 아파트 앞	서울특별시 강남구 학동로 지하 508	127.043022	37.517773	-
2312	청담역 13번 출구 앞	서울특별시 강남구 영동대로 703	127.056328	37.52058	-
2313	금원빌딩 앞	서울특별시 강남구 도산대로 539	127.052467	37.525116	-
2314	청담나들목입구	서울특별시 강남구 영동대로128길 59	127.061035	37.521275	-
2315	봉은사역 5번출구 옆	서울특별시 강남구 봉은사로 지하 601	127.061119	37.514248	-
2316	삼성역 8번출구	서울특별시 강남구 영동대로 502	127.063408	37.509575	-
2317	삼성도로공원	서울특별시 강남구 영동대로112길 66	127.0662	37.515888	-
2318	삼성중앙역4번출구(문화센터더 리빌)	서울특별시 강남구 봉은사로 531	127.055031	37.513577	-
2319	포스코4거리 서측(수협 삼성동 지점)	서울특별시 강남구 테헤란로 435	127.05468	37.506607	-
2320	도곡역 대치지구대 방향	서울특별시 강남구 남부순환로 지하 2814	127.056969	37.491928	-
2321	학여울역 사거리	서울특별시 강남구 남부순환로 지하 3104	127.069443	37.496117	-
2322	삼성역 3번 출구	서울특별시 강남구 테헤란로 534	127.063103	37.508091	-
2323	주식회사 오뚜기 정문 앞	서울특별시 강남구 영동대로 308	127.067207	37.502213	-
2324	천주교 대치 2동 교회 옆	서울특별시 강남구 도곡로 540	127.066223	37.500439	-
2325	대치동 버거킹대치점	서울특별시 강남구 도곡로 447	127.059319	37.49865	-
2326	대치동 삼성로	서울특별시 강남구 삼성로 350	127.0588	37.502396	-
2327	뱅뱅사거리 랜드마크타워 앞	서울특별시 강남구 강남대로 308	127.031464	37.490551	-
2328	르네상스 호텔 사거리 역삼지하보도 7번출구 앞	서울특별시 강남구 언주로 506	127.042641	37.503586	-
2329	르네상스호텔사거리 역삼지하보도 2번출구	서울특별시 강남구 테헤란로 지하 156	127.04319	37.502357	-
2330	스타벅스 앞	서울특별시 강남구 도곡로 183	127.039459	37.492199	-
2331	동영문화센터앞	서울특별시 강남구 언주로 337	127.044601	37.498051	-
2332	선릉역3번출구	서울특별시 강남구 선릉로 435	127.049088	37.503998	-
2333	양재역 3번출구 주변	서울특별시 강남구 강남대로 240	127.034073	37.485157	-
2334	8.삼호@ 2동 ( 간선도로)	서울특별시 강남구 선릉로 지하 228	127.045898	37.493759	-
2335	3호선 매봉역 3번출구앞	서울특별시 강남구 남부순환로 2748	127.046761	37.486767	-
2336	강남세브란스교차로 래미안그레이튼 104동 앞	서울특별시 강남구 선릉로 지하 228	127.047462	37.494236	-
2337	대모산입구역 2번출구 앞	서울특별시 강남구 영동대로 101	127.071976	37.492077	-
2339	현대아파트 정문 앞	서울특별시 강남구 언주로 107	127.052299	37.483261	-
2340	삼호물산버스정류장(23370) 옆	서울특별시 강남구 논현로 82	127.045174	37.477509	-
2341	일원역 4~5번 출구 사이	서울특별시 강남구 일원로 127	127.084938	37.483311	-
2342	대청역 1번출구 뒤	서울특별시 강남구 개포로 623	127.079514	37.494007	-
2343	세곡사거리 대왕파출소 앞	서울특별시 강남구 헌릉로 623	127.107727	37.465317	-
2344	리엔파크 2단지 앞	서울특별시 강남구 헌릉로590길 10	127.101196	37.465061	-
2347	두산건설 본사	서울특별시 강남구 언주로 726	127.0354	37.518639	-
2348	포스코사거리(기업은행)	서울특별시 강남구 테헤란로 501	127.056854	37.507233	-
2349	역삼빌딩 앞(하나은행 옆)	서울특별시 강남구 테헤란로 지하 156	127.037849	37.5014	-
2350	래미안그레이튼102동앞	서울특별시 강남구 선릉로69길 19	127.047905	37.494823	-
2351	청소년수련관(수영장)앞	서울특별시 강남구 광평로 144	127.089027	37.483879	-
2352	서울본부세관(건설회관 앞)	서울특별시 강남구 언주로 721	127.035027	37.51759	-
2353	강남구청역 2번출구 뒤	서울특별시 강남구 학동로 342	127.040474	37.516811	-
2354	청담역 2번출구	서울특별시 강남구 영동대로 647	127.056763	37.519787	-
2355	삼성역 5~6번 출구 사이	서울특별시 강남구 봉은사로 524	127.062309	37.509121	-
2356	강남구청	서울특별시 강남구 학동로 지하 346	127.047119	37.51807	-
2357	르네상스호텔사거리 역삼지하보도 3번출구 앞 (더 오번 빌딩 명동칼국수 앞)	서울특별시 강남구 언주로89길 7	127.04277	37.501949	-
2358	구룡초사거리 (현대아파트10동 앞 )	서울특별시 강남구 개포로 303	127.053917	37.481384	-
2359	국립국악중,고교 정문 맞은편	서울특별시 강남구 논현로10길 29	127.050377	37.475605	-
2360	도곡1동 주민센터 교차로	서울특별시 강남구 도곡로 205	127.041389	37.492809	-
2361	압구정역 교차로	서울특별시 강남구 신사동 580-7	127.028276	37.527066	-
2362	신사동 가로수길 입구	서울특별시 강남구 신사동 501-5	127.022453	37.517635	-
2363	강남 을지병원 교차로	서울특별시 강남구 도산대로 172 	127.027466	37.51918	-
2364	도산대로 렉서스 앞	서울특별시 강남구 도산대로 229 	127.031898	37.52124	-
2365	K+ 타워 앞	서울특별시 강남구 도산대로 333 	127.038475	37.5233	-
2368	도곡동 경남아파트 건너편	서울특별시 강남구 도곡동 874-1	127.041298	37.489342	-
2369	 KT선릉타워	서울특별시 강남구 대치동 1011	127.052872	37.505428	-
2370	한티역 3번출구	서울특별시 강남구 대치동 1026	127.054298	37.496552	-
2371	한국우편사업진흥원	서울특별시 강남구 언주로 651	127.035133	37.514748	-
2372	대치역 사거리	서울특별시 강남구 삼성로 156 	127.063797	37.494499	-
2373	개포동역 사거리	서울특별시 강남구 개포동 181-3	127.065575	37.489277	-
2375	수서역 1번출구 앞	서울특별시 강남구 수서동 728	127.100998	37.48735	-
2376	2376. 수서역 6번출구 앞	-	127.100517	37.486778	-
2377	수서역 5번출구 뒤	서울특별시 강남구 수서동 724-4	127.102753	37.486835	-
2380	2380. 삼성동베이직하우스앞	-	127.049347	37.511696	-
2381	2381. 언주역 6번출구앞	-	127.034523	37.506367	-
2382	 역삼동 sk뷰 501동앞	서울특별시 강남구 역삼로 315-1	127.050468	37.501343	-
2383	 보금자리정원	서울특별시 강남구 헌릉로569길 39-6	127.094887	37.466328	-
2384	2384. 자곡사거리	-	127.105942	37.476028	-
2385	 학동역	서울특별시 강남구 학동로 지하 180	127.030151	37.51395	-
2386	2386. sk 동우주유소 앞	-	127.040909	37.509586	-
2387	 래미안강남힐즈 사거리	서울특별시 강남구 자곡로 101	127.096077	37.472454	-
2388	2388. 강남구 도시관리공단	-	127.051613	37.516785	-
2389	2389. 경기여자고등학교 후문 (삼성로3길 입구)	-	127.067238	37.48616	-
2390	2390. 구룡마을 입구 (래미안블레스티지 아파트)	-	127.064774	37.479568	-
2391	2391. 구룡마을 입구(개포1단지아파트)	-	127.064278	37.479328	-
2392	2392. 구룡산 입구 (구룡산 서울둘레길 입구)	-	127.05545	37.474579	-
2393	2393. 구룡사 앞 교차로 (보도육교)	-	127.051338	37.472	-
2394	2394. 래미안강남포레스트 입구 (보도육교)	-	127.055397	37.479092	-
2395	2395. 개포1단지아파트 입구 (보도육교)	-	127.055733	37.47929	-
2396	영동3교 북단(우성캐릭터 앞 보도)	강남구 도곡동 466	127.051048	37.485741	-
2398	2398. 더라움	-	127.039452	37.50811	-
2401	2401. 밀알학교 입구 (삼성서울병원 입구)	-	127.082672	37.486561	-
2403	2403. 공무원연금매점 교차로 (개포주공9단지 입구)	-	127.074539	37.48872	-
2404	2404. 대모산입구역 4번 출구 앞	-	127.073158	37.49181	-
2405	2405. 청담공원앞 교차로	-	127.05085	37.518711	-
2406	2406. 논현동 광명빌딩 앞	-	127.023643	37.51757	-
2407	2407. 역삼.서초.삼성 세무서 앞 (역삼빌딩 앞)	-	127.030113	37.49847	-
2408	2408. 강남한양수자인아파트	-	127.113274	37.477341	-
2409	 역삼동 디오슈페리움 (우성아파트 사거리)	강남구 역삼동 858(강남대로 342 앞 도로)	127.030746	37.492062	-
2410	포스코피앤에스타워 (역삼역 3번출구 부근)	강남구 역삼동 804(강남구 테헤란로 134 앞 보도)	127.033752	37.499599	-
2411	 세곡동 성당	강남구 율현동 165-2(강남구 밤고개로21길 50)	127.112228	37.472969	-
2412	일원1동 주민센터	강남구 일원동 712-5 	127.088211	37.491791	-
2413	도곡역 1번 출구	남부순환로 2814	127.054985	37.490959	-
2414	도곡역 아카데미스위트 앞	언주로30길 21	127.051827	37.488972	-
2415	한티역 롯데백화점 앞	선릉로 228	127.053429	37.496674	-
2416	한티역 6번 출구	선릉로 227	127.052193	37.495899	-
2417	선정릉 디캠프(D.CAMP)앞	선릉로 551	127.04525	37.507999	-
2418	봉은사역 7번 출구	봉은사로 601	127.059822	37.513935	-
2419	봉은사역 1,2번 출구	봉은사로 601	127.0597	37.514309	-
2420	학여울역 사거리(LG베스트샵 앞)	영동대로 202	127.070137	37.496895	-
2421	신논현역 4번출구	봉은사로 110	127.025795	37.504673	-
2422	수서동 성당 맞은편	광평로34길 202	127.094849	37.484169	-
2423	영희초교 사거리(래미안개포루체하임)	개포로110길 50	127.08065	37.490837	-
2425	세곡동 사거리(대왕초등학교 정류장)	헌릉로618길 8	127.10685	37.464619	-
2426	강남한신휴플러스 6단지	강남구 율현동 333-1	127.104698	37.468296	-
2427	개포고등학교 정문앞	강남구 개포로402	127.058373	37.484852	-
2428	롯데리아 개포점앞	강남구 선릉로26	127.061188	37.482368	-
2429	압구정로데오역 6번출구	선릉로845	127.040428	37.527454	-
2430	강남파이낸스센터앞(역삼역2번출구)	테헤란로152	127.036057	37.500244	-
2431	대치역 7번출구	남부순환로155	127.062904	37.494118	-
2501	2501. 서초 포레스타5단지	-	127.05706	37.450661	-
2502	2502. 서초역1번출구 앞	-	127.008553	37.491951	-
2503	2503. 반포1동 서초빌딩 앞	-	127.021362	37.503811	-
2504	2504. 신사역 4번출구 뒤	-	127.019302	37.515881	-
2505	2505. 우성아파트사거리 (기업은행앞)	-	127.029533	37.493259	-
2506	2506. LG유플러스 (방배사옥)	-	126.990677	37.479092	-
2508	2508. 양재이스타빌 앞	-	127.042259	37.482979	-
2509	2509. KT반포지사	-	126.992462	37.498371	-
2510	JW타워	서초구 서초동 1748-45	127.021461	37.48304	-
2511	이수역 6번출구 앞	서초구 방배동 438-35	126.982323	37.483662	-
2514	사평역 2번출구	서울시 서초구 반포동 30-5 	127.016022	37.503643	-
2515	서초초등학교 후문	서울시 서초구 서운로 178	127.024727	37.498928	-
2516	본마을 노인복지센터 앞	서울특별시 서초구 본마을2길 2	127.052742	37.454418	-
2517	서초3교(효령로69길 방면)	서울특별시 서초구 효령로69길	127.024376	37.48716	-
2518	서초3교(효령로70길 방면)	서울특별시 서초구 효령로70길	127.025147	37.487484	-
2519	서초2교(사임당로 방면)	서울특별시 서초구 사임당로137	127.023521	37.491009	-
2520	서초1교 (진흥아파트 방면)	서초구 서초대로65길	127.021011	37.496193	-
2521	서초 크로바타워 앞	서초구 서초대로 347	127.01918	37.495564	-
2523	뉴코아 킴스클럽 앞	서초구 잠원로 51	127.007256	37.510193	-
2524	반포쇼핑타운 8동 앞	서초구 신반포로 219 반포쇼핑타운	127.008019	37.507351	-
2525	반포쇼핑타운 2동 앞	서초구 신반포로 165 	127.002159	37.505608	-
2526	반포경남쇼핑 앞	서초구 신반포로 143 	126.999924	37.504787	-
2527	반포중학교 앞(세화여고 맞은편)	서초구 신반포로67	126.993698	37.502674	-
2528	함지박 사거리	서초구 방배로 230-1 	126.990067	37.493771	-
2529	우리은행 방배동지점 앞	서초구 방배로 183	126.992081	37.489918	-
2530	삼호3차아파트 앞	서초구 방배동 757-3	126.987068	37.497795	-
2531	멤피스아파트 앞	서초구 방배로 245	126.989357	37.494205	-
2532	국립국악원 앞	서초구 남부순환로 2364	127.008781	37.478203	-
2533	한가람미술관 앞	서초구 남부순환로 2406	127.014061	37.481098	-
2534	신흥교(애견훈련소)	서초구 내곡동 1-3031 	127.080978	37.455631	-
2535	신반포역 3번출구 뒤	서초구 신반포로 	126.997322	37.503624	-
2536	서초종합체육관 입구	서초구 원지동 28	127.041634	37.459248	-
2537	양재역 8번출구 앞	서초구 양재동	127.036438	37.482571	-
2538	사평리 공원	서초구 잠원동 51	127.015251	37.520267	-
2539	대한무역투자진흥공사 KOTRA 앞	서초구 헌릉로 13	127.044182	37.464897	-
2540	반포천 앞	서초구 사평대로 108 	126.996643	37.498455	-
2541	옛골 입구	청계산로 434	127.070335	37.430977	-
2542	신논현역2번출구(신논현타워 앞)	서초구 강남대로 479	127.023911	37.505089	-
2543	경문고교 사거리	서초구 동작대로 164	126.982956	37.491264	-
2545	국립중앙도서관(국제회의장옆)	반포동 산60-1	127.002388	37.497688	-
2546	한신18차아파트	-	127.01326	37.519492	-
2547	포드서초서비스센터앞	잠원동 55-1	127.0122833	37.51904678	-
2548	반포1동 자율방범초소 옆	반포동 28-4	127.0167618	37.50847626	-
2549	LH 서초 4단지 403동	우면동 788	127.0239029	37.45924759	-
2550	양재동 꽃시장 건너편	양재동 351	127.0414581	37.46738434	-
2601	2601. 석촌호수 서호사거리	-	127.098831	37.506748	-
2602	위례24단지 꿈에그린아파트	-	127.140875	37.475553	불확실. 확인이 전혀 불가하여 일단 정문 앞에 찍어놓음
2603	2603. 송파 글마루 도서관	-	127.130341	37.480801	-
2604	2604. 삼표레미콘 앞	-	127.111282	37.531311	-
2605	2605. 복정역 1번 출구 앞	-	127.12709	37.471298	-
2606	2606. 위례동주민센터 맞은편 근린공원	-	127.143227	37.481739	-
2607	2607. 복정역 2번출구 후문 (장지치안센터)	-	127.127113	37.47065	-
2608	2608. 송파구청	-	127.106194	37.514359	-
2609	보성중고등학교 후문 앞	송파구 양재대로 1278	127.135201	37.520489	-
2610	여흥레이크빌 앞(석촌호수 까페거리)	송파구 석촌호수로 278	127.106377	37.510441	-
2611	송파지역자활센터 뒤	송파구 풍성로 5길 16	127.11618	37.536331	-
2612	문정·가락 대여소 앞	송파구 중대로 2길 6	127.109299	37.489071	-
2613	잠실나들목	서울 송파구 잠실동 1	127.090492	37.516781	-
2614	가락고등학교 앞	서울 송파구 송이로 42	127.117233	37.501862	-
2615	테라타워2	송파대로 201	127.120781	37.48835	-
2616	거여동 사거리	송파구 문정로 196	127.140106	37.496078	-
2617	2617. 가락삼환아파트 앞	-	127.138031	37.496181	-
2618	삼전역 1번출구	송파구 잠실동 289	127.087563	37.504711	-
2619	석촌고분역 4번출구	송파구 삼전동 90	127.096443	37.502338	-
2620	송파나루역 4번 출구옆	송파구 송파동 3-15	127.112312	37.509979	-
2621	한성백제역 2번 출구	송파구 방이동 11	127.116257	37.516659	-
2622	올림픽공원역 3번출구	송파구 방이동 89-28	127.130592	37.516258	-
2623	석촌동 주민센터	송파구 석촌동 312	127.103554	37.503624	-
2625	가락1동 주민센터	양재대로 925	127.108505	37.495876	-
2626	경찰병원	가락동 59	127.123108	37.49543	-
2627	문정시영아파트 5동 앞 공원	송이로 31길 56	127.135109	37.491123	-
2628	문정역 1번출구	문정동 55-13	127.122444	37.486698	-
2629	문정동 힐스데이트 에코 송파	정의로 7길 13	127.115402	37.485218	-
2630	서울방이동 고분군	방이동 17	127.116989	37.507866	-
2631	배명고등학교	삼학사 11	127.096306	37.497414	-
2632	석촌고분역 2번 출구	백제고분로 275	127.097397	37.502644	-
2633	송파학사 옆	위례순환로 364	127.147217	37.47813	-
2634	위례포레샤인아파트 2318동	장지동 390-4	127.137177	37.477211	-
2635	잠실새내역 1번출구	올림픽로 지하 140	127.086739	37.511295	-
2637	잠실월드 메르디앙	올림픽로 74	127.078812	37.511463	-
2638	쌍용아파트	풍납동 457	127.118149	37.526814	-
2639	석촌역 8번출구	송파구 석촌동 209	127.106575	37.505505	-
2640	서울아산병원	-	127.108785	37.524786	-
2641	송파역 4번출구	송파대로 345	127.107033	37.497726	-
2642	마천동 성내천 쉼터	성내천로 179	127.147781	37.501495	-
2643	풍납중학교 측면	풍납동460	127.112473	37.525291	-
2644	성내5교 (GS주유소)	동남로298	127.138046	37.501984	-
2645	잠실나들목2(엘스아파트136동)	송파구 잠실동 18-1	127.081612	37.515049	-
2646	레이클펠리스101동앞	잠실로88	127.091293	37.507759	-
2647	잠실 자전거 수리센터 앞	송파구 잠실동 41	127.101074	37.51157	-
2648	헬리오시티 112동 앞	송파구 가락동 509-11	127.104645	37.494698	-
2649	오금공원사거리2	마천로103	127.132332	37.505444	-
2650	위례22단지 2208동 다리앞	위례광장로163	127.138138	37.47855	-
2651	경찰병원역 3번출구 앞	송파구 가락동 123	127.12458	37.495773	-
2652	송파 레미니스1단지 102동 앞	오금동 96	127.134262	37.508831	-
2653	올림픽공원사거리(선수촌아파트)	양재대로 1218	127.12912	37.511498	-
2654	올림픽선수촌아파트 136동 앞	양재대로 1218	127.133698	37.509975	-
2655	송이공원	송파동 169	127.118843	37.50058	-
2656	풍납동 아이파크 107동 앞	올림픽로43길 34	127.11451	37.524525	-
2657	송파 파인타운 11단지	장지동 854-3	127.132668	37.478825	-
2658	가락몰 업무동	가락동 600	127.1156921	37.49535751	-
2659	서울친환경유통센터	가락동 600	127.1045303	37.49416733	-
2701	마곡나루역5번출구	강서구 마곡동 761-5	126.827316	37.565201	-
2702	마곡 엠밸리2단지	강서구 마곡동 735-1	126.819443	37.56918	-
2703	서울도시가스 앞 	강서구 공항대로 607 	126.872025	37.547485	-
2704	홈플러스(강서점)	강서구 화곡로 398 	126.854065	37.558334	-
2705	홈플러스(가양점)	-	126.850134	37.563924	-
2706	강서공업고등학교 앞	강서구 방화대로47가길 22, 411동 앞	126.816498	37.576317	-
2707	한강아파트	강서구 허준로 23	126.844414	37.57037	-
2708	강서한강자이타워 앞	강서구 양천로 401 	126.848908	37.564682	-
2709	강변아파트 310동 앞	강서구 가양동 1459-8 	126.856918	37.564587	-
2710	라이품 공영주차장 앞	강서구 강서로 515	126.841568	37.570728	-
2711	가로공원공영주차장 1번 출구	강서구 가로공원로 193	126.837448	37.537361	-
2712	화곡터널입구교차로	강서구 가로공원로 238 	126.842392	37.538338	-
2713	우장초등학교 앞	강서구 화곡로 263	126.846672	37.548534	-
2714	발산1동주민센터교차로	강서구 강서로47길 86 	126.831238	37.553173	-
2715	마곡나루역 2번 출구 	강서구 마곡중앙5로 6 	126.827683	37.566883	-
2716	롯데 R&D 센터	강서구 마곡동 301-2 	126.828217	37.569176	-
2717	LG유플러스 마곡사옥	강서구 마곡중앙8로 71	126.833901	37.561337	-
2718	마곡수명산파크1단지	강서구 마곡동 728-148 	126.831894	37.554993	-
2719	마곡문화공원	강서구 마곡중앙8로 20	126.830124	37.561371	-
2720	힐스테이트에코	강서구 마곡동 727-1120	126.829781	37.559589	-
2721	등촌1-10단지 교차로	강서구 강서로 419	126.839562	37.563145	-
2722	마곡 문영비지웍스	강서구 강서로 391	126.83873	37.560604	-
2723	마곡 필네이처	강서구 마곡동 727-1190	126.836693	37.560894	-
2724	(재)FITI시험연구원	강서구 마곡동 727-211	126.838799	37.568665	-
2725	서울식물원 식물문화센터	강서구 마곡동 727-305	126.836197	37.569294	-
2726	서울식물원 주제원입구	-	126.834648	37.568081	-
2727	서울식물원 잔디마당 앞	강서구 마곡동 727-558	126.830849	37.564087	-
2728	마곡나루역 3번 출구	강서구 마곡동 372-23	126.828079	37.565804	-
2729	넥센 유니버시티 앞	강서구 마곡동 301-2	126.828095	37.569485	-
2730	마곡메가박스 앞	강서구 마곡동 727-1179	126.834953	37.559128	-
2731	명덕고교	강서구 마곡동 728-46	126.834732	37.554951	-
2732	마곡수명산 1-2단지 	강서구 마곡동 728-350	126.829453	37.555145	-
2733	마곡13단지 정문 앞	강서구 마곡동 730-417 	126.820107	37.55854	-
2735	마곡 공공청사	강서구 마곡서로 101 	126.823952	37.562294	-
2736	마곡엠벨리7단지 M타워	-	126.824584	37.566775	-
2737	까치산역 3번 출구	강서로 45	126.846588	37.531693	-
2739	수명산파크1단지교차로	강서로47길 142	126.828568	37.553585	-
2740	마곡레포츠센터	양천로 251	126.832069	37.57272	-
2741	마곡수명산파크5-6단지	강서구 내발산동 751-1	126.826881	37.550617	-
2742	강서구민올림픽체육센터	화곡로65길 62	126.850441	37.559402	-
2743	동신아파트 104동 앞	강서로532	126.8440018	37.57204437	-
2744	강서세무서앞	마곡서1로 60	126.8209992	37.56214905	-
2745	수명초등학교	수명로1길 84	126.8231125	37.5525589	-
2746	수명산파크4단지411동 앞	내발산동 751-6	126.8249359	37.55134964	-
2801	대륭포스트타워1차	구로구 디지털로31길 33-1	126.895424	37.484371	-
2804	항동지구 6단지 602동 앞	구로구 항동 216-11 	126.820015	37.477375	-
2805	구로자원순환센터 	구로구 항동 216-11 	126.82576	37.48251	-
2806	항동지구 4단지 입구	구로구 항동 82-9	126.826454	37.482597	-
2807	항동지구 1단지 105동 앞	구로구 항동 100-14	126.821816	37.480629	-
2808	항동지구 2단지 202동 앞	구로구 항동 113-1	126.821907	37.480808	-
2809	항동지구 11단지 1103동 앞	구로구 항동 169-1	126.823113	37.477905	-
2810	항동지구 3단지 311동 앞	구로구 항동 169-2	126.823273	37.47794	-
2812	항동프라자	구로구 항동 120-5	126.822754	37.479832	-
2813	항동지구 3단지 302동 앞	구로구 항동 135-26	126.82547	37.47937	-
2814	항동지구 10단지 1001동 앞	구로구 항동 135-11	126.825638	37.479343	-
2815	항동지구 7단지 정문	구로구 항동 207-1	126.81646	37.476013	-
2816	항동지구 8단지 803동옆(주차장입구)	구로구 항동 220	126.817009	37.474731	-
2817	천왕이펜하우5단지 앞	구로구 천왕동 277-4	126.84037	37.479897	-
2818	천왕이펜하우스3단지 앞	구로구 천왕동 277-4	126.838532	37.482239	-
2819	하늘숲초등학교 앞	구로구 천왕동 산13-1	126.841614	37.483665	-
2820	신세기아파트 앞	구로구 개봉동 412-52	126.853043	37.493965	-
2821	청구아파트 앞	구로구 고척동 50-65	126.863533	37.50119	-
2822	제니스스포츠 앞	구로구 고척동 60-42	126.870552	37.50452	-
2823	중앙유통단지 앞	구로구 구로동 635-32	126.874313	37.499813	-
2824	미래사랑어린이공원 앞	구로구 신도림동 314-2	126.889565	37.510063	-
2825	초롱타운 앞	구로구 구로동 467-62	126.880394	37.495453	-
2826	가마산지하보도 옆	구로구 구로동 390-157	126.88047	37.488647	-
2901	공릉동풍림아파트 101동	노원구 섬밭로 139	127.065682	37.630001	-
2902	공릉풍림아파트 108동	노원구 섬밭로 139	127.06691	37.62862	-
2903	월계초안아파트 1단지	노원구 덕릉로60길 185	127.0439	37.633259	-
2904	중계3차청구아파트	노원구 중계로 225	127.073982	37.650505	-
2905	중계주공6단지	노원구 한글비석로8길 41	127.078987	37.648163	-
2907	 월계중학교	 서울특별시 노원구 월계로45가길 54	127.053108	37.630749	-
2908	 광운대학교 중앙도서관	 서울 노원구 광운로 20	127.058563	37.620003	-
2909	 석계역 3번 출구	 서울 노원구 월계동	127.067452	37.615459	-
2910	도깨비시장	 노원구 동일로 1028	127.074425	37.622093	-
2911	상계역중앙시장	 서울 노원구 상계로27길 20	127.072098	37.659233	-
2912	대진고등학교	 서울 노원구 공릉로62가길 47	127.073731	37.638191	-
2913	상계8동 주민센터	서울시 노원구 동일로227길 85	127.051529	37.666996	-
2914	서울과학기술대학교(미래관)	노원구 공릉동 172 	127.081429	37.628925	-
2915	서울과학기술대학교(어학교육원)	노원구 공릉동 172 	127.076599	37.635109	-
2917	신창중학교 후문 맞은편 버스정류장	서울 노원구 월계로45길 92	127.046921	37.628071	-
2918	골마을 근린공원	-	127.074849	37.638626	-
2919	등나무 근린공원(시립북서울미술관 앞) 	노원구 중계동 508	127.066574	37.639996	-
2920	상계중학교(당현2교사거리)	노원구 노원로 398 	127.06871	37.651035	-
2921	중계역 2번출구	노원구 동일로 1308-1	127.064583	37.645489	-
3001	마포구청역 3번출구	-	126.904587	37.563037	-
3002	벽산상암스마트큐브 	마포구 성산동 593-1	126.903603	37.565044	-
3003	래미안공덕3차아파트	마포구 공덕동 457	126.951073	37.548805	-
3004	마포자이3차아파트	-	126.946527	37.550847	-
3005	마포구청 청사내	마포구 월드컵로 212	126.902184	37.566246	-
3006	 상암월드컵파크5단지(상암중학교)	마포구 상암동 1727	126.888237	37.57991	-
3007	MBC 앞	마포구 상암동 1704	126.890297	37.581947	-
3008	DMC역7번출구	마포구 상암동 1133	126.898361	37.577114	-
3009	서교동사거리	마포구 서교동 418	126.920433	37.55584	-
3010	홍대입구역 3번출구	마포구 동교동 155-27	126.925385	37.558296	-
3011	경의선(노고산동)	마포구 노고산동 112-12	126.933792	37.553429	-
3013	서울지방고용노동청 앞	서울 중구 삼일대로 363	126.9872437	37.56761551	-
3100	3100. 북성초교	-	126.952164	37.557396	-
3101	서대문구청	서울특별시 서대문구 연희로 242	126.936096	37.578381	-
3102	 연희삼거리	서울특별시 서대문구 연희로 113	126.931725	37.567966	-
3103	3103. 홍제삼거리 북측	-	126.94677	37.5867	-
3104	3104. e편한세상 신촌4단지 앞	-	126.956207	37.558128	-
3105	3105. 홍은센트레빌 아파트 앞	-	126.93853	37.597149	-
3106	홍남교 두바퀴쉼터	서대문구 홍제천로111	126.926147	37.574909	-
3107	3107. 연희초등학교 앞	-	126.933327	37.56974	-
3108	서울홍성교회	-	126.949035	37.598084	-
3109	북한산더 106동 앞	홍은동 137-8 	126.941292	37.592934	-
3110	홍은 현대아이파크 아파트 202동 앞	홍은동 202-6	126.936943	37.589283	-
3111	무악재역 4번 출구	홍제동 25-1	126.950165	37.582211	-
3112	독립문역 5번 출구	현저동 95-3	126.958298	37.57386	-
3113	독립문역사거리	현저동 935	126.959747	37.572205	-
3114	충정로역 3번 출구	합동 31-16	126.965523	37.560463	-
3115	북아현 치안센터 인근	북아현동 251-73	126.95575	37.561455	-
3116	신촌역 4번출구	창천동 30-16	126.937203	37.555504	-
3117	이화여대 인문관 인근	대신동 143-14 	126.945328	37.564068	-
3118	연대 정문앞	-	126.936843	37.560214	-
3119	연희 브라운스톤 아파트 앞	연희동 209-2	126.929855	37.565197	-
3120	DMC엘가아파트 앞	남가좌동 105-4	126.918091	37.569836	-
3121	가좌삼거리	북가좌동 487-1	126.912987	37.570652	-
3122	북가좌삼거리2	북가좌동474-1	126.906464	37.574284	-
3123	DMC파크뷰자이1단지 110동 앞	남가좌동 385-13 	126.915108	37.572388	-
3124	DMC센트럴아이파크아파트	남가좌동 318-4	126.921753	37.578121	-
3125	연희파크푸르지오아파트 앞	연희동 736	126.927826	37.575642	-
3126	남가좌동 제2공영주차장	남가좌동 3-76	126.922745	37.583344	-
3127	홍은2파출소 옆	서대문구 홍은동424-1	126.936287	37.583336	-
3128	동신병원 맞은편	서대문구 홍은동274-18	126.935997	37.581318	-
3129	DMC래미안e편한세상203동옆	서대문구 북가좌동477-1	126.911324	37.576263	-
3130	가재울사거리	서대문구 남가좌동385-16	126.918823	37.574348	-
3131	연가교 교차로	서대문구 남가좌동 385-6	126.921188	37.572159	-
3132	홍제교	서대문구 홍제동394-46	126.944214	37.591862	-
3133	핀란드 타워앞	서대문구 대현동60-11	126.948814	37.557114	-
3134	SK리체블(상수도사업본부)	서대문구 합동 17-3 	126.966583	37.561317	-
3201	당산skv1센터	영등포구 당산로41길 11	126.89917	37.530735	-
3202	당산롯데캐슬프레스티지	영등포구 영신로 237	126.903862	37.52869	-
3203	도림동배드민턴체육관	영등포구 도림동 276-2	126.89859	37.506115	-
3204	도림고가도로 밑	영등포구 도림동 187-68	126.898186	37.511242	-
3205	문래중학교	영등포구 선유서로13길 6	126.884819	37.520466	-
3206	문래동 주민센터	영등포구 문래동3가 55-6	126.899086	37.517071	-
3207	양남사거리 교통섬	영등포구 영등포로 71-2	126.889969	37.522526	-
3211	신길 래미안 프레비뉴	영등포구 가마산로 442	126.908089	37.504383	-
3212	신풍역 6번출구	영등포구 신풍로 43	126.911308	37.500172	-
3214	영등포 푸르지오	도신로29길 28	126.901054	37.512024	-
3215	강변삼성래미안	영등포구 버드나루로 130	126.907829	37.529743	-
3219	영등포역 2번출구	청구로 64	126.907585	37.514874	-
3220	래미안에스티움(신풍로) 앞	신풍로77(GS25)	126.913979	37.500137	-
3221	서울특별시 남부교육지원청	영등포구 문래로121	126.895302	37.519333	-
3301	도림천 신림2교	-	126.937021	37.476845	-
3304	낙성대역 5번 출구	남부순환로 1917	126.962364	37.477753	-
3305	낙성대역 8번 출구	남부순환로 1939	126.964867	37.476776	-
3306	서울신우초등학교	호암로 498	126.931778	37.462147	-
3307	봉천고개 육교	관악로 306	126.956078	37.491226	-
3310	영락고등학교	청룡16길 25	126.943642	37.476627	-
3311	서울대입구역 4번 출구	참숯5길 7	126.951576	37.48122	-
3401	창신두산아파트	종로구 지봉로5길 7	127.013939	37.573761	-
3402	이화공영주차장	율곡로19길 17-3	127.00557	37.576607	-
3403	서울특별시 교육청	종로구 송월길48	126.967011	37.569508	-
3404	서울특별시 중부교육지원청	종로구 대학로 10	127.002358	37.571854	-
3405	파크팰리스	사직로8길20(내수동95)	126.970551	37.574551	-
3406	세종로공원	세종로79-12	126.9758	37.574059	-
3407	안국동사거리(신)	안국동175-92	126.983391	37.575806	-
3408	종로타워빌딩	공평동70-4	126.983368	37.570511	-
3410	종로3가역 8번출구	묘동90-3	126.991844	37.572037	-
3411	종묘	종로153-2	126.994812	37.570702	-
3412	세운상가	종로160-1	126.994545	37.570313	-
3413	종로플레이스	인의동28-1	126.997963	37.5732	-
3414	종로5가역 4번출구	종로5가 73-2	127.002228	37.571175	-
3415	동대문역6번출구	창신동487-5	127.010681	37.571488	-
3416	동묘앞역 6번출구	창신동397-6	127.015617	37.571533	-
3417	창신3동주민센터	창신동23-215	127.015251	37.577724	-
3418	창신역2번 출구	창신동 1-105	127.01506	37.579987	-
3419	국립어린이과학관	창경궁로215(와룡동2-70)	126.997368	37.581947	-
3420	성균관대입구사거리(맥도날드)	창경궁로241	126.998856	37.583275	-
3421	혜화역 1번출구	대학로144	127.001854	37.583855	-
3422	성균관대 정문	성균관로31	126.997131	37.584797	-
3423	현대그룹(본사)	종로구 연지동 1-38	127.000694	37.575836	-
3425	광화문 풍림스페이스본 1단지앞	사직로8길4	126.968269	37.574848	-
3426	독립문역 2번출구 뒤	무악동11-11	126.95755	37.575016	-
3427	인왕산 아이파크 정문	통일로16길8-3	126.956749	37.576603	-
3428	서울미술관	자하문로231	126.963493	37.595127	-
3429	AW컨벤션앞	자하문로255	126.963089	37.59726	-
3430	구기치안센터 앞	비봉길12	126.957138	37.60854	-
3431	로제우스 레포츠센터	진흥로466	126.957687	37.607601	-
3432	종로2가 사거리	종로2가 56-17	126.988342	37.569992	-
3500	3500. 군자역2번출구	-	127.079697	37.557587	-
3501	광진구청 앞	서울특별시 광진구 자양로 131	127.083	37.539501	-
3502	중곡역 1번출구	서울특별시 광진구 능동로 지하 417	127.084297	37.565659	-
3503	광진유진스웰	서울특별시 광진구 아차산로78길 7	127.108955	37.550488	-
3504	원일교회	서울특별시 광진구 아차산로 304	127.076599	37.538052	-
3505	신양초교앞 교차로	서울특별시 광진구 능동로 42	127.068398	37.535221	-
3506	영동대교 북단	서울특별시 광진구 자양동 203-22	127.061096	37.537014	-
3507	어린이회관	서울특별시 광진구 능동 465-7	127.078003	37.545952	-
3508	화양사거리	서울특별시 광진구 화양동 21-6	127.067879	37.548222	-
3509	세종사이버대학교	서울특별시 광진구 군자동 111-2	127.072853	37.55315	-
3510	3510. 중곡SK아파트앞	-	127.08625	37.568649	-
3511	응봉역 1번출구	서울특별시 성동구 고산자로 123	127.035103	37.55125	-
3513	상왕십리역 1번출구	서울특별시 성동구 하왕십리동 860-1 	127.029198	37.56461	-
3514	왕십리교회옆	서울특별시 성동구 상왕십리동 350-1 	127.023697	37.566261	-
3515	3515. 서울숲 관리사무소	-	127.042084	37.542816	-
3516	3516. 구의아리수정수센터앞	-	127.093246	37.543705	-
3517	 용마사거리	서울특별시 광진구 능동로 373	127.082756	37.562656	-
3518	3518. 군자역 7번출구뒤	서울특별시 광진구 천호대로 지하 550	127.07914	37.556862	-
3519	 용답역 1번 출구	서울특별시 성동구 용답길 86	127.051308	37.562607	-
3520	 광진경찰서	서울특별시 광진구 자양로 167	127.084084	37.542519	-
3521	 현대홈타운 뒷길	서울특별시 광진구 아차산로69길 29	127.096619	37.543427	-
3522	 사근삼거리	서울특별시 성동구 사근동10길 7	127.048851	37.561245	-
3523	3523. 건국대학교 과학관(이과대) 앞	-	127.08017	37.541718	-
3524	3524. 세종대학교	-	127.073822	37.550236	-
3525	3525. 금호스포츠센터앞	-	127.02507	37.546089	-
3527	3527. 왕십리 자이아파트	-	127.024391	37.56179	-
3528	3528. 광진정보도서관	-	127.110512	37.550598	-
3529	3529. 어린이대공원정문	-	127.075928	37.549789	-
3530	3530. 왕십리자이아파트 후문(삼거리)	-	127.02636	37.560146	-
3531	3531. 논골사거리(금호도서관 입구)	-	127.024841	37.554779	-
3532	3532. 왕십리KCC스위첸아파트	-	127.026779	37.56068	-
3533	3533. 건대입구역 사거리(롯데백화점)	-	127.070618	37.539139	-
3534	3534. 건대입구역 5번출구 뒤	-	127.069283	37.540138	-
3535	3535. 중곡사거리(국민은행)	-	127.087517	37.559158	-
3536	3536. 중앙농협(자양동)	-	127.080742	37.531811	-
3537	3537. 아차산 휴먼시아 아파트 옆	-	127.093758	37.548489	-
3538	3538. 서울숲 IT캐슬	-	127.044762	37.550892	-
3539	서원마을	암사동 117-3	127.132843	37.56382	-
3541	커먼그라운드	광진구 자양동 8-6	127.089958	37.54504	-
3542	래미안 구의파크 스위트	광진구 구의동 229-23	127.089958	37.54504	-
3543	세종대학교(학술정보원)	서울특별시 광진구 능동로 209 세종대학교	127.07444	37.551373	-
3544	한양대역 3번 출구	왕십리로 206	127.043778	37.554539	-
3545	한양대역 1번출구	왕십리로 206	127.043358	37.55658	-
3547	상왕십리역 6번 출입구	왕십리로374(지하)	127.02887	37.564381	-
3548	뚝섬역 6번출구	뚝섬로1길 63	127.047669	37.546959	-
3549	건영아파트 앞	성동구 동일로 265	127.071106	37.555141	-
3550	금호나들목	금호동4가 341	127.023201	37.544041	-
3551	성동도로사업소	성동구 용답동 223-7	127.056328	37.559799	-
3552	서울숲 공영주차장앞	성수동1가719	127.04277	37.541958	-
3553	마장역3번출구	마장로304-6	127.043114	37.565979	-
3555	양지사거리(센트라스APT 115동앞)	용답역 2번출구 앞	127.029152	37.566818	-
3556	신금호파크자이APT앞	금호로173	127.019791	37.555313	-
3557	서울숲리버뷰자이APT105동 앞	행당동379	127.039131	37.55653	-
3558	마장동 금호어울림APT앞	마조로64-2	127.04187	37.563396	-
3559	성동구민종합체육센터 앞	왕십리로89	127.044601	37.54591	-
3560	성동구 견인차량 보관소 앞	천호대로336	127.05645	37.563709	-
3561	행당동 삼부APT후문	왕십리로278-17	127.038399	37.559269	-
3562	행당중학교 후문	-	127.042291	37.553844	-
3563	구의7단지현대아파트	광진구 구의강변로3가길 39 	127.091393	37.53651	-
3564	나루마당	구의동 148-1	127.095757	37.547752	-
3566	우성4차아파트	자양번영로 59	127.076111	37.535072	-
3569	건대병원후문	능동로120-1	127.072441	37.539566	-
3570	구의역 리버비스타 오피스텔	아차산로417	127.08902	37.538097	-
3571	화양 APT(횡단보도 옆)	동일로24길5	127.065407	37.54435	-
3572	중곡동 성당	-	127.082733	37.563271	-
3573	광나루안전체험관	능동로238	127.076714	37.551338	-
3575	자양사거리 (LG 유플러스)	아차산로360	127.082581	37.536575	-
3576	강변SK뷰 APT앞	-	127.090197	37.538216	-
3577	신자초교 입구 교차로(SC제일은행)	-	127.075801	37.533244	-
3578	중곡동 파크웨이빌딩	천호대로611	127.085815	37.555008	-
3579	광진 캠퍼스시티	동일로178	127.067452	37.54789	-
3581	광진광장	광나루로389	127.073967	37.54747	-
3582	화양동 우체국	광나루로356	127.069504	37.547989	-
3586	군자역 비채온 오피스텔	광진구 천호대로 530(군자동)	127.077271	37.557713	-
3587	우성식품 앞	광나루로 592	127.0942307	37.54246521	-
3588	세종대학교(영실관)	능동로 209	127.0735397	37.55237198	-
3600	사근빗물펌프장 건너편	성동구 사근동 239-1	127.0496826	37.56119156	-
3602	한국지역난방공사강남지사	-	127.0943375	37.49229431	-
3652	한영외국어고등학교	-	127.1561737	37.54883575	-
3655	둔촌신성미소지움아파트	-	127.142334	37.52726364	-
3703	신성교회 앞	서울 강북구 미아동 458-7도	127.0280991	37.61708832	-
3707	드래곤타워 앞	서울 강북구 번동 386-16도	127.0313797	37.63713455	-
3711	월계2교 교차로	서울 강북구 번동 259도	127.0492172	37.6242218	-
3714	송천센트레빌	서울 강북구 미아동 461-4도	127.0249786	37.61220932	-
3753	공항중학교 버스정류장	공항동9-12	126.8161011	37.56113434	-
3756	마곡힐스테이트 정문	마곡중앙3로74	126.8174057	37.56497574	-
3760	발산역 8번 출구	마곡동727-1222	126.8367615	37.55846024	-
3761	나이아가라관광호텔	양천로743	126.8783646	37.5490303	-
3763	등촌태영아파트	양천로590	126.864296	37.55603027	-
3765	문소빌딩	화곡로229	126.8444977	37.54555511	-
3766	강서문화센터	화곡로215	126.8437805	37.54457855	-
3767	대원빌딩	화곡로228	126.8447037	37.54536819	-
3769	가양동 이마트 앞	강서구 화곡로 347	126.8631439	37.55713272	-
3772	길성그랑프리텔아파트	방화대로319	126.8165054	37.5692482	-
3775	가양오토갤러리	강서로74길58	126.844307	37.56644058	-
3776	김포공항교차로	방화동651-1	126.8051834	37.5675354	-
3778	김포공항입구 교차로	방화동621-6	126.80793	37.56179428	-
3779	유광사여성병원	강서로191	126.8386307	37.54323959	-
3780	등촌서광아파트	공항대로45길68-6	126.8562546	37.55755234	-
3781	강서아동복지센터	금낭화로26가길 130	126.8109207	37.58458328	-
3782	겸재정선미술관	강서구 양천로47길 24 	126.8377762	37.57128906	-
3784	벽산아파트	양천로47길 112 	126.8366699	37.57531738	-
3786	강서힐스테이트 상가 앞	강서구 강서로 242	126.8365784	37.54663849	-
3787	가양나들목	강서구 가양동 1456-6	126.8434753	37.57386398	-
3788	정곡나들목	강서구 방화동 57-5번지	126.8193283	37.5841713	-
3789	염창나들목	강서구 염창동 223-4번지	126.8715591	37.55680466	-
3792	화곡본동시장 입구	화곡로206	126.843689	37.54382706	-
3794	안양천합수부(현대3차아파트)	강서구 염창동 222	126.8764877	37.55224609	-
3795	공항신성빌딩 앞	강서구 공항대로 49-2 	126.8130722	37.56130981	-
3796	송정역 3번출구 앞	강서구 공항대로 48	126.8126907	37.56096268	-
3797	마곡수명산파크7단지 710동 앞	강서구 내발산동 755	126.8207626	37.54857254	-
3798	그랜드아이파트아파트 앞	강서구 화곡로 347	126.8515472	37.55510712	-
3802	관악구민체육센터	낙성대로3길37	126.9600372	37.47288132	-
3853	어린이대공원역 2번출구	-	127.074707	37.54764938	-
3863	동일로58길 입구	-	127.0729752	37.55775452	-
3864	광진소방서 앞	-	127.083374	37.5450058	-
3865	이튼타워리버 2차	-	127.0690002	37.53520966	-
3873	동서울우편집중국 앞	-	127.0844727	37.53470993	-
3878	장로회신학대학교 주기철 기념관	-	127.1028824	37.54983139	-
3902	항동지구5단지 501동 앞	서울 구로구 항동 140-2	126.8250656	37.47829437	-
3903	현대아파트 앞	서울 구로구 개봉동 412-43	126.8591766	37.49333954	-
3904	테크노마트 앞	서울 구로구 구로동 1-2	126.8911438	37.50624084	-
3905	희훈타워빌 앞	서울 구로구 구로동 50	126.8892441	37.50191498	-
3906	천왕차량사업소 입구	서울 구로구 천왕동 63-5	126.8450165	37.47604752	-
4076	진영상운 앞 중랑천 변	도봉구 마들로14길 25-9	127.0512772	37.65999603	-
4102	휘경1동주민센터 앞	 외대역동로6길 3	127.0655594	37.59286499	-
4103	휘경sk뷰아파트 앞	휘경로 71 맞은편	127.0678177	37.59383774	-
4104	외대앞역 교차로	 외대역동로 67 맞은편	127.0645981	37.59436417	-
4105	하나은행 장안동지점앞	천호대로 343	127.057991	37.56324005	-
4107	장안동근린공원 입구	장안동 300	127.0719833	37.57738495	-
4108	답십리파크자이아파트 앞	답십리로56길 124	127.0578919	37.5676918	-
4110	용두롯데캐슬리치아파트 앞	무학로 178	127.0308075	37.57958984	-
4112	신이문빗물펌프장 옆	이문동 59	127.069809	37.59955215	-
4113	한국국방연구원 앞	회기로 37	127.0403824	37.59128571	-
4114	휘경여중고삼거리	-	127.0682755	37.58392334	-
4116	이문e편한세상아파트 앞	한천로63길 10	127.0670548	37.60458755	-
4117	휘경119안전센터 앞	망우로 114	127.065361	37.59087372	-
4121	서울문화재단 앞	청계천로 517	127.0336227	37.57130051	-
4122	청계9가교차로 앞	청계천로 471	127.0299225	37.57014847	-
4123	배봉초교 교차로	사가정로 200	127.0668945	37.57846832	-
4202	프런트원(공덕역 4번출구 앞)	마포구 마포대로 122	126.926727	37.54604	-
4205	디지털미디어씨티역2번출구	마포구 상암동 1171-1	126.899967	37.575247	-
4206	광흥창역5번출구	마포구 창전동 246-34	126.931633	37.54737854	-
4207	아만티호텔 앞	-	126.9188538	37.5573082	-
4208	스타벅스(동교동) 앞	-	126.9198685	37.5566597	-
4210	가좌행복주택 앞	마포구 중동 275	126.9118424	37.56949234	-
4211	시석빌딩 앞	-	126.9167175	37.5483017	-
4212	한화오벨리스크 앞	-	126.8815613	37.58332062	-
4213	마포구중앙도서관 정문 앞	-	126.9081497	37.56415558	-
4214	JTBC 앞	-	126.8901825	37.57730484	-
4253	홍은도담도서관	-	126.9491653	37.60169601	-
4319	삼성전자R&D어린이집 뒤	-	127.0218277	37.46548462	-
4353	코오롱디지털타워 3차앞	아차산로49	127.0499878	37.54655838	-
4360	르노삼성자동차 성수사업소 앞	광나루로270	127.0595779	37.54824448	-
4362	행당중학교 후문	왕십리로189	127.0415497	37.5540123	-
4403	하월곡동 광명비전교회 앞	-	127.037424	37.612556	-
4556	리버뷰신안인스빌1차 후문	영등포구 경인로77길 49	126.8885117	37.51374817	-
4557	리버뷰신안인스빌2차 후문	영등포구 도림로143길 27	126.8902664	37.51288223	-
4602	숙명여대앞 버스정류소 주변	청파로47길 99	126.9643021	37.54498672	-
4604	원효로다목적체육관 앞	원효로3가 54-14	126.9572372	37.5332222	-
4605	노들섬 다목적홀(동쪽) 숲, 앞	이촌동 303-15	126.9592209	37.51758957	-
4607	국립중앙박물관 -용산가족공원 앞	-	126.9797134	37.52087784	-
4608	국립중앙박물관 정문 앞	-	126.9776764	37.52145767	-
4609	파크타워 104동 앞	-	126.9719238	37.52316666	-
4610	한남나인원 105동 앞	-	127.0054169	37.53591919	-
4611	국제루터교회 앞	-	127.0037613	37.54143906	-
4612	한남 준 JFSS 앞	-	127.0008469	37.53749847	-
4613	서울갤러리아 앞	-	126.9994888	37.53599548	-
4615	크라운호텔앞 버스정류소	-	126.9913788	37.53030014	-
4616	신용산지하차도 앞	한강로3가 6	126.964119	37.53248215	-
4617	동원베네스트 건너편	한강로3가 37-2	126.9551163	37.52761078	-
4618	풍전아파트 건너편	원효로4가 114-38	126.9525299	37.53237915	-
4619	한강트럼프월드3차 앞	-	126.96241	37.52301788	-
4620	삼각지역 14번 출구 앞(교통섬)	-	126.974083	37.53528595	-
4622	한강중학교 앞 버스정류장	-	126.9920883	37.5251503	-
4623	라인프랜즈이태원점 앞	-	126.9961929	37.53453064	-
4625	용산공원갤러리앞	-	126.9731903	37.5393219	-
4627	효창공원앞역 5번출구 옆	효창동 12-14	126.9635544	37.53851318	-
4629	한강초교보도육교 앞	-	126.9645996	37.52544022	-
4652	신사두산위브2차아파트앞	가좌로12길	126.9075928	37.59931564	-
4653	LG 베스트샵 앞	불광로 41	126.9304886	37.61156845	-
4654	OK부동산 앞	수색로 270-2	126.8944626	37.58287811	-
4702	평창동 꽃여울(꽃집),스타벅스 앞	평창12길 3	126.9676361	37.60604858	-
4703	쌍용아파트2단지 정문	-	127.0126801	37.58131409	-
4704	쌍용아파트2단지 상가앞	-	127.012413	37.58137512	-
4705	웰니스센터(민방위교육장 앞)	-	126.9891281	37.57752991	-
4707	청계3가 사거리	-	126.9921188	37.56855774	-
4708	조계사앞사거리(파리바케트앞)	-	126.9828339	37.5721817	-
4710	자교교회 앞	자하문로 58	126.9709854	37.58112335	-
4711	올림픽기념 국민생활관 로터리	종로구 혜화동 9-8	126.9993439	37.58983612	-
4753	우리은행 서소문금융센터	-	126.9726181	37.56284332	-
4761	탐앤탐스 을지로3가점	초동 107-9	126.9908829	37.56467056	-
4762	국제빌딩	남대문로 109	126.9825821	37.56693268	-
4772	중앙일보	서소문동58-6	126.972496	37.56253433	-
4774	을지로입구역 8번출구	을지로1가 140-1	126.981781	37.56590271	-
4775	을지로지하쇼핑센터	을지로1가 199-80	126.9842758	37.56599045	-
4776	신세계면세점	충무로1가 54-3	126.9809418	37.56005478	-
4778	대신파이낸스센터	저동1가 48-10	126.9874268	37.56520844	-
4779	태극당	-	127.0054703	37.55958557	-
4784	중부경찰서앞 사거리	저동2가 22-1	126.9907684	37.56459045	-
4785	롯데시티호텔	장교동 74	126.9877396	37.56689835	-
4791	명동역9번출구	중구 충무로2가 111	126.9874649	37.56109619	-
